{"bounds":[36.73089,-5.17707,36.75036,-5.15279],"date":"2026-09-18T16:56:21Z","type":"FeatureCollection","features":[{"type":"Feature","properties":{"name":"Avenida Victoria","kind":"road","road":"secondary","osm":25746133},"geometry":{"type":"LineString","coordinates":[[-5.16893,36.74713],[-5.16883,36.74717],[-5.16846,36.74733],[-5.16813,36.74747],[-5.16808,36.7475]]}},{"type":"Feature","properties":{"name":"Puente Viejo","kind":"road","road":"pedestrian","osm":26698954},"geometry":{"type":"LineString","coordinates":[[-5.16316,36.73987],[-5.16333,36.73972]]}},{"type":"Feature","properties":{"name":"Calle San José","kind":"road","road":"tertiary","osm":26698960},"geometry":{"type":"LineString","coordinates":[[-5.16657,36.74562],[-5.16711,36.74536]]}},{"type":"Feature","properties":{"name":"Avenida Martínez Astein","kind":"road","road":"secondary","osm":26698966},"geometry":{"type":"LineString","coordinates":[[-5.15981,36.74593],[-5.15985,36.74596]]}},{"type":"Feature","properties":{"name":"Plaza Ruedo Alameda","kind":"road","road":"secondary","osm":26699164},"geometry":{"type":"LineString","coordinates":[[-5.16469,36.7343],[-5.16479,36.73419],[-5.16488,36.73405],[-5.16493,36.73396],[-5.1651,36.73359],[-5.16513,36.73354]]}},{"type":"Feature","properties":{"name":"Avenida de Andalucía","kind":"road","road":"tertiary","osm":27754554},"geometry":{"type":"LineString","coordinates":[[-5.16147,36.74822],[-5.16118,36.74836],[-5.16056,36.74867],[-5.16046,36.74871]]}},{"type":"Feature","properties":{"name":"Callejón de los Tramposos","kind":"road","road":"pedestrian","osm":31355169},"geometry":{"type":"LineString","coordinates":[[-5.16471,36.73788],[-5.16476,36.73786],[-5.1649,36.73781],[-5.16499,36.73778],[-5.16522,36.73776]]}},{"type":"Feature","properties":{"name":"Calle Padre Mariano Soubiron","kind":"road","road":"tertiary","osm":59410496},"geometry":{"type":"LineString","coordinates":[[-5.16706,36.74356],[-5.16701,36.74358],[-5.16667,36.74373],[-5.1666,36.74376],[-5.16621,36.74394],[-5.16558,36.74424],[-5.16551,36.74428]]}},{"type":"Feature","properties":{"name":"","kind":"road","road":"tertiary","osm":61192753},"geometry":{"type":"LineString","coordinates":[[-5.16467,36.73447],[-5.16474,36.73447],[-5.16477,36.73447],[-5.16481,36.73448],[-5.16488,36.73452],[-5.16496,36.73457]]}},{"type":"Feature","properties":{"name":"Carretera de San Pedro de Alcántara","kind":"road","road":"secondary","osm":61727124},"geometry":{"type":"LineString","coordinates":[[-5.15385,36.72828],[-5.15445,36.72853],[-5.15488,36.72871],[-5.15508,36.72879],[-5.15527,36.72887],[-5.15565,36.72903],[-5.15583,36.72909],[-5.1562,36.7292],[-5.15658,36.72929],[-5.15688,36.72939],[-5.15718,36.72951],[-5.15751,36.72968],[-5.15781,36.72989],[-5.15797,36.73005],[-5.15814,36.73023],[-5.15835,36.73051],[-5.15871,36.73107],[-5.15888,36.7313],[-5.15899,36.73139],[-5.15907,36.73147],[-5.15916,36.73154],[-5.15935,36.73166],[-5.15959,36.73178],[-5.15962,36.73179],[-5.15992,36.7319],[-5.16054,36.73211],[-5.16069,36.73216],[-5.16084,36.73222],[-5.16107,36.73235],[-5.16124,36.73246],[-5.1615,36.73268]]}},{"type":"Feature","properties":{"name":"Calle Torrejones","kind":"road","road":"secondary","osm":62200003},"geometry":{"type":"LineString","coordinates":[[-5.1656,36.73249],[-5.16559,36.73243],[-5.16559,36.73241],[-5.16563,36.73223],[-5.16566,36.73194],[-5.16574,36.73171],[-5.16582,36.73147],[-5.16583,36.73144],[-5.16591,36.73123],[-5.16592,36.73121],[-5.16595,36.73115],[-5.16598,36.7311],[-5.16605,36.73101],[-5.1661,36.73092],[-5.16618,36.73083],[-5.16626,36.73077],[-5.16633,36.73072],[-5.16646,36.73066]]}},{"type":"Feature","properties":{"name":"Calle Las Tiendas","kind":"road","road":"pedestrian","osm":75077982},"geometry":{"type":"LineString","coordinates":[[-5.1639,36.74267],[-5.16447,36.74231],[-5.16503,36.74199]]}},{"type":"Feature","properties":{"name":"Carrera Espinel","kind":"road","road":"pedestrian","osm":75077984},"geometry":{"type":"LineString","coordinates":[[-5.16007,36.7458],[-5.16011,36.74578],[-5.16045,36.74556],[-5.16095,36.74526],[-5.1616,36.74491],[-5.16169,36.74485],[-5.16221,36.74457],[-5.16261,36.74433],[-5.1631,36.74407],[-5.16385,36.74361],[-5.16447,36.74324],[-5.16538,36.74269],[-5.16543,36.74266],[-5.16546,36.74265],[-5.16638,36.74213],[-5.16645,36.7421]]}},{"type":"Feature","properties":{"name":"Calle Marqués de Moctezuma","kind":"road","road":"pedestrian","osm":75077986},"geometry":{"type":"LineString","coordinates":[[-5.16573,36.73847],[-5.16576,36.73846],[-5.16588,36.73843],[-5.16596,36.73842],[-5.16599,36.73843],[-5.16618,36.73863],[-5.1662,36.73866],[-5.16622,36.73867],[-5.16624,36.73866],[-5.16627,36.73862],[-5.16634,36.73853],[-5.16639,36.73846],[-5.16641,36.73842],[-5.16645,36.73841],[-5.16655,36.73843],[-5.16669,36.73846]]}},{"type":"Feature","properties":{"name":"Calle Nueva","kind":"road","road":"pedestrian","osm":75077988},"geometry":{"type":"LineString","coordinates":[[-5.16498,36.74192],[-5.16551,36.74171],[-5.16611,36.74148],[-5.16621,36.74146]]}},{"type":"Feature","properties":{"name":"Calle Ruedo Alonso Gamero","kind":"road","road":"pedestrian","osm":86567066},"geometry":{"type":"LineString","coordinates":[[-5.167,36.73794],[-5.1669,36.73794],[-5.1667,36.73791],[-5.16665,36.7379]]}},{"type":"Feature","properties":{"name":"Calle Pedro Romero","kind":"road","road":"pedestrian","osm":86567069},"geometry":{"type":"LineString","coordinates":[[-5.16663,36.74256],[-5.16588,36.7429]]}},{"type":"Feature","properties":{"name":"Calle Andrés Aguilar Gracián","kind":"road","road":"secondary","osm":96823362},"geometry":{"type":"LineString","coordinates":[[-5.15306,36.74906],[-5.1529,36.74889],[-5.15283,36.74883],[-5.15264,36.74866],[-5.15211,36.74836],[-5.15209,36.74835],[-5.15205,36.74833],[-5.15201,36.74831],[-5.15187,36.74829],[-5.15137,36.74818],[-5.15125,36.74816],[-5.15115,36.74814],[-5.15081,36.74807],[-5.15033,36.74803],[-5.1502,36.74801],[-5.15006,36.748],[-5.14956,36.74796],[-5.14907,36.74792],[-5.14892,36.74791],[-5.14883,36.74792],[-5.14823,36.74795],[-5.14788,36.74798],[-5.1477,36.748],[-5.14753,36.74802],[-5.14744,36.74804],[-5.14729,36.74806],[-5.1472,36.74808],[-5.14711,36.7481]]}},{"type":"Feature","properties":{"name":"Avenida Juan Pablo II","kind":"road","road":"tertiary","osm":96823368},"geometry":{"type":"LineString","coordinates":[[-5.15323,36.74315],[-5.15314,36.74317],[-5.15299,36.74321],[-5.15174,36.74353],[-5.15094,36.74374],[-5.15073,36.7438],[-5.15057,36.74383],[-5.15047,36.74387],[-5.15037,36.74393],[-5.15006,36.74409],[-5.14963,36.74431],[-5.14954,36.74437],[-5.14919,36.7446],[-5.14885,36.74487],[-5.14854,36.74513],[-5.14822,36.74545],[-5.14794,36.74575],[-5.14789,36.7458],[-5.14781,36.74593],[-5.14776,36.746],[-5.14761,36.74622],[-5.14745,36.74648],[-5.14741,36.74655],[-5.14734,36.74671],[-5.14723,36.74696],[-5.14715,36.74723],[-5.14709,36.74744],[-5.14707,36.74761],[-5.14706,36.74783],[-5.14705,36.74791]]}},{"type":"Feature","properties":{"name":"Calle la Toma","kind":"road","road":"tertiary","osm":96823373},"geometry":{"type":"LineString","coordinates":[[-5.15383,36.74856],[-5.15373,36.74845],[-5.1537,36.74841],[-5.15338,36.74825],[-5.15292,36.74802],[-5.15253,36.74784],[-5.15246,36.74781],[-5.15235,36.74777],[-5.15221,36.74771],[-5.1518,36.74752],[-5.15171,36.74748],[-5.15162,36.74743],[-5.15123,36.74724],[-5.15081,36.74706],[-5.15069,36.74701],[-5.1506,36.74697],[-5.15016,36.74676],[-5.14964,36.74652],[-5.14905,36.74631],[-5.14872,36.7462],[-5.1486,36.74616],[-5.14846,36.74612],[-5.14843,36.74611],[-5.14836,36.74609],[-5.14792,36.74596],[-5.14781,36.74593]]}},{"type":"Feature","properties":{"name":"Avenida Juan Pablo II","kind":"road","road":"tertiary","osm":96824176},"geometry":{"type":"LineString","coordinates":[[-5.15821,36.74155],[-5.158,36.74156],[-5.15777,36.74159],[-5.15754,36.74164],[-5.15735,36.74171],[-5.15717,36.74178],[-5.15609,36.74223],[-5.15591,36.74231],[-5.15534,36.74254],[-5.15494,36.74268],[-5.15457,36.74279],[-5.15413,36.74292],[-5.15352,36.74308],[-5.15331,36.74313],[-5.15323,36.74315]]}},{"type":"Feature","properties":{"name":"Avenida de Málaga","kind":"road","road":"secondary","osm":96824186},"geometry":{"type":"LineString","coordinates":[[-5.15521,36.74846],[-5.15494,36.74861],[-5.15469,36.74874],[-5.15453,36.74882],[-5.15448,36.74885],[-5.15421,36.74899],[-5.15346,36.74939],[-5.15339,36.74944]]}},{"type":"Feature","properties":{"name":"Calle San José","kind":"road","road":"tertiary","osm":98109494},"geometry":{"type":"LineString","coordinates":[[-5.16715,36.74541],[-5.16766,36.74521],[-5.16776,36.74518]]}},{"type":"Feature","properties":{"name":"Calle San Francisco de Sales","kind":"road","road":"tertiary","osm":98109497},"geometry":{"type":"LineString","coordinates":[[-5.15776,36.74989],[-5.1579,36.74988],[-5.15794,36.74988],[-5.15798,36.74988],[-5.15853,36.74989],[-5.15881,36.7499],[-5.15904,36.7499]]}},{"type":"Feature","properties":{"name":"Calle Guadalhorce","kind":"road","road":"tertiary","osm":98109501},"geometry":{"type":"LineString","coordinates":[[-5.15867,36.75049],[-5.15866,36.75046],[-5.15864,36.75041],[-5.15863,36.75039],[-5.15863,36.75029]]}},{"type":"Feature","properties":{"name":"Calle Córdoba","kind":"road","road":"tertiary","osm":98109507},"geometry":{"type":"LineString","coordinates":[[-5.16018,36.74846],[-5.16015,36.74854],[-5.16003,36.7488],[-5.15996,36.74894]]}},{"type":"Feature","properties":{"name":"Plaza Concepción García Redondo","kind":"road","road":"secondary","osm":98109508},"geometry":{"type":"LineString","coordinates":[[-5.16545,36.74628],[-5.16543,36.74625],[-5.16541,36.74623]]}},{"type":"Feature","properties":{"name":"Calle Molino","kind":"road","road":"tertiary","osm":98109509},"geometry":{"type":"LineString","coordinates":[[-5.16715,36.74541],[-5.16711,36.74536]]}},{"type":"Feature","properties":{"name":"Calle Córdoba","kind":"road","road":"tertiary","osm":98109513},"geometry":{"type":"LineString","coordinates":[[-5.15881,36.75011],[-5.15904,36.7499],[-5.15912,36.74984]]}},{"type":"Feature","properties":{"name":"Calle San José","kind":"road","road":"tertiary","osm":98109517},"geometry":{"type":"LineString","coordinates":[[-5.16541,36.74623],[-5.16545,36.74619],[-5.1655,36.74616],[-5.16596,36.74594],[-5.16598,36.74593],[-5.1665,36.74566],[-5.16657,36.74562]]}},{"type":"Feature","properties":{"name":"Avenida Ricardo Navarrete","kind":"road","road":"tertiary","osm":98109518},"geometry":{"type":"LineString","coordinates":[[-5.16039,36.74876],[-5.16041,36.74871],[-5.16041,36.74867],[-5.16028,36.74854],[-5.16024,36.74853],[-5.1602,36.74853],[-5.16015,36.74854]]}},{"type":"Feature","properties":{"name":"Calle Jerez","kind":"road","road":"tertiary","osm":98109520},"geometry":{"type":"LineString","coordinates":[[-5.16776,36.74518],[-5.16781,36.74527],[-5.1681,36.74575],[-5.16841,36.74627],[-5.16888,36.74705],[-5.16893,36.74713]]}},{"type":"Feature","properties":{"name":"Calle Antonio Aguilera","kind":"road","road":"pedestrian","osm":109976509},"geometry":{"type":"LineString","coordinates":[[-5.16407,36.73908],[-5.16407,36.73935],[-5.16427,36.73939]]}},{"type":"Feature","properties":{"name":"Calle Virgen de la Luz","kind":"road","road":"pedestrian","osm":109976518},"geometry":{"type":"LineString","coordinates":[[-5.1643,36.73905],[-5.16427,36.73887],[-5.16427,36.73878],[-5.16428,36.73861]]}},{"type":"Feature","properties":{"name":"Plaza Duquesa de Parcent","kind":"road","road":"pedestrian","osm":109976521},"geometry":{"type":"LineString","coordinates":[[-5.16565,36.73686],[-5.16542,36.73675],[-5.16538,36.73673],[-5.16527,36.73677],[-5.16513,36.73682],[-5.16512,36.73685],[-5.1651,36.73688],[-5.16513,36.73705],[-5.16514,36.73711],[-5.16516,36.73718],[-5.16522,36.73721],[-5.1653,36.73717],[-5.16555,36.73705],[-5.16559,36.73697],[-5.16565,36.73686]]}},{"type":"Feature","properties":{"name":"Calle Cuesta Arco de Felipe V","kind":"road","road":"pedestrian","osm":109977967},"geometry":{"type":"LineString","coordinates":[[-5.16333,36.73972],[-5.16334,36.7397],[-5.16335,36.73961],[-5.16339,36.73953],[-5.16344,36.73941],[-5.16344,36.73939],[-5.16344,36.73937],[-5.16345,36.73935],[-5.16346,36.73934],[-5.16349,36.73933],[-5.16351,36.73933],[-5.16353,36.73934],[-5.16354,36.73935],[-5.16355,36.73937],[-5.16354,36.73938],[-5.16354,36.73941],[-5.16353,36.73944],[-5.16349,36.73951],[-5.16347,36.73956],[-5.16347,36.73958],[-5.16347,36.73964],[-5.16348,36.73966],[-5.16349,36.73968],[-5.16353,36.73968],[-5.16358,36.73968],[-5.16364,36.73967],[-5.16368,36.73966],[-5.16372,36.73963],[-5.16373,36.73961],[-5.16373,36.73958],[-5.16373,36.73955],[-5.16374,36.73953],[-5.1638,36.73951]]}},{"type":"Feature","properties":{"name":"Calle Infantes","kind":"road","road":"tertiary","osm":110178401},"geometry":{"type":"LineString","coordinates":[[-5.16551,36.74428],[-5.16458,36.74472],[-5.16454,36.74473],[-5.16408,36.74496],[-5.16402,36.74499],[-5.1628,36.74556],[-5.16272,36.74559],[-5.16146,36.74622],[-5.16141,36.74622],[-5.16134,36.74622]]}},{"type":"Feature","properties":{"name":"Calle Córdoba","kind":"road","road":"tertiary","osm":110178402},"geometry":{"type":"LineString","coordinates":[[-5.16018,36.74846],[-5.16021,36.74839],[-5.16023,36.74834],[-5.16034,36.74814]]}},{"type":"Feature","properties":{"name":"Calle José María Castelló Madrid","kind":"road","road":"secondary","osm":111177208},"geometry":{"type":"LineString","coordinates":[[-5.16581,36.74739],[-5.16586,36.74748],[-5.16593,36.74759]]}},{"type":"Feature","properties":{"name":"Plaza de los Descalzos","kind":"road","road":"tertiary","osm":137394494},"geometry":{"type":"LineString","coordinates":[[-5.1623,36.74341],[-5.16213,36.74354],[-5.16203,36.74363],[-5.16186,36.74376],[-5.16172,36.74384],[-5.16171,36.74385],[-5.16166,36.74388]]}},{"type":"Feature","properties":{"name":"Plaza del Ahorro","kind":"road","road":"tertiary","osm":137394499},"geometry":{"type":"LineString","coordinates":[[-5.16134,36.74622],[-5.16134,36.74619],[-5.16133,36.74616],[-5.16131,36.74614],[-5.16128,36.74613]]}},{"type":"Feature","properties":{"name":"Calle Portichuelos","kind":"road","road":"tertiary","osm":137394500},"geometry":{"type":"LineString","coordinates":[[-5.16045,36.74403],[-5.16077,36.74442],[-5.16089,36.74491],[-5.16095,36.74526],[-5.16106,36.74578],[-5.16111,36.74607],[-5.16116,36.74616]]}},{"type":"Feature","properties":{"name":"Calle José Díaz Giles","kind":"road","road":"tertiary","osm":169905775},"geometry":{"type":"LineString","coordinates":[[-5.15508,36.74968],[-5.15502,36.74981],[-5.15502,36.74984],[-5.15505,36.74989],[-5.15521,36.7501],[-5.15526,36.75017],[-5.15515,36.75042],[-5.15512,36.75048],[-5.15506,36.75064],[-5.1553,36.751]]}},{"type":"Feature","properties":{"name":"Avenida de la Serranía","kind":"road","road":"tertiary","osm":169905799},"geometry":{"type":"LineString","coordinates":[[-5.15478,36.75136],[-5.15474,36.75132],[-5.1544,36.75095],[-5.15432,36.75086],[-5.15424,36.75078],[-5.15421,36.75075],[-5.15418,36.75072],[-5.15326,36.7498],[-5.15318,36.74972]]}},{"type":"Feature","properties":{"name":"Calle Antonio Ordóñez","kind":"road","road":"tertiary","osm":169905804},"geometry":{"type":"LineString","coordinates":[[-5.15392,36.74926],[-5.15402,36.7493],[-5.1541,36.74933],[-5.15425,36.74938],[-5.15431,36.7494],[-5.15444,36.74946]]}},{"type":"Feature","properties":{"name":"Calle Ángel","kind":"road","road":"pedestrian","osm":169908686},"geometry":{"type":"LineString","coordinates":[[-5.16221,36.74457],[-5.16203,36.74421]]}},{"type":"Feature","properties":{"name":"Calle Montes","kind":"road","road":"tertiary","osm":169908708},"geometry":{"type":"LineString","coordinates":[[-5.16045,36.74403],[-5.16059,36.74399],[-5.16144,36.74335],[-5.16183,36.74306]]}},{"type":"Feature","properties":{"name":"Avenida Victoria","kind":"road","road":"secondary","osm":180138335},"geometry":{"type":"LineString","coordinates":[[-5.168,36.74754],[-5.16785,36.7476],[-5.16749,36.74776],[-5.16735,36.74778],[-5.16665,36.7477]]}},{"type":"Feature","properties":{"name":"Calle Comandante Salvador Carrasco","kind":"road","road":"secondary","osm":180138336},"geometry":{"type":"LineString","coordinates":[[-5.16665,36.7477],[-5.16662,36.74766],[-5.16658,36.74762],[-5.16643,36.74742],[-5.16631,36.74725],[-5.16627,36.7472],[-5.16561,36.7464],[-5.16554,36.74631]]}},{"type":"Feature","properties":{"name":"Calle San Antonio de Padua","kind":"road","road":"pedestrian","osm":180138344},"geometry":{"type":"LineString","coordinates":[[-5.1643,36.73905],[-5.16453,36.73902],[-5.16463,36.73899],[-5.16466,36.739],[-5.16471,36.73902],[-5.16476,36.73905]]}},{"type":"Feature","properties":{"name":"Calle Sevilla","kind":"road","road":"secondary","osm":180138345},"geometry":{"type":"LineString","coordinates":[[-5.168,36.74754],[-5.16805,36.74762],[-5.16816,36.74777],[-5.16826,36.74789]]}},{"type":"Feature","properties":{"name":"Calle Sevilla","kind":"road","road":"secondary","osm":180138346},"geometry":{"type":"LineString","coordinates":[[-5.16899,36.74915],[-5.16915,36.74937],[-5.16941,36.74976],[-5.16951,36.74988],[-5.16961,36.75003],[-5.16966,36.75014],[-5.16973,36.75033],[-5.16981,36.75056],[-5.16986,36.7507],[-5.16992,36.75088],[-5.16998,36.75109],[-5.17001,36.75138],[-5.17002,36.75157],[-5.17002,36.7516],[-5.17,36.7518],[-5.16997,36.75189]]}},{"type":"Feature","properties":{"name":"Avenida Martínez Astein","kind":"road","road":"secondary","osm":180138352},"geometry":{"type":"LineString","coordinates":[[-5.16144,36.74759],[-5.16104,36.74709],[-5.16101,36.74703],[-5.16096,36.74696],[-5.16087,36.74686],[-5.16078,36.74673],[-5.16062,36.74652],[-5.16055,36.74642]]}},{"type":"Feature","properties":{"name":"Calle Córdoba","kind":"road","road":"tertiary","osm":180138373},"geometry":{"type":"LineString","coordinates":[[-5.1611,36.74654],[-5.1612,36.74632],[-5.16121,36.74628]]}},{"type":"Feature","properties":{"name":"Calle Rosal","kind":"road","road":"tertiary","osm":180138380},"geometry":{"type":"LineString","coordinates":[[-5.15938,36.74539],[-5.15943,36.74544],[-5.15976,36.74585],[-5.15981,36.74593]]}},{"type":"Feature","properties":{"name":"Plaza del Gigante","kind":"road","road":"pedestrian","osm":180138386},"geometry":{"type":"LineString","coordinates":[[-5.16566,36.73849],[-5.16565,36.73848],[-5.16561,36.7384],[-5.1656,36.73839],[-5.16572,36.73837],[-5.16573,36.73837],[-5.16575,36.73837],[-5.16575,36.73844],[-5.16576,36.73846],[-5.16577,36.73848],[-5.1657,36.73851],[-5.16567,36.73852],[-5.16566,36.73849]]}},{"type":"Feature","properties":{"name":"Calle Ruedo Alonso Gamero","kind":"road","road":"pedestrian","osm":180138387},"geometry":{"type":"LineString","coordinates":[[-5.16665,36.73791],[-5.16652,36.73792],[-5.16623,36.73792],[-5.16617,36.73791],[-5.16613,36.73789],[-5.16606,36.7378]]}},{"type":"Feature","properties":{"name":"Calle Córdoba","kind":"road","road":"tertiary","osm":180138388},"geometry":{"type":"LineString","coordinates":[[-5.16063,36.74755],[-5.16066,36.74754],[-5.16079,36.74724]]}},{"type":"Feature","properties":{"name":"Calle Jaén","kind":"road","road":"tertiary","osm":180138392},"geometry":{"type":"LineString","coordinates":[[-5.16114,36.74619],[-5.16106,36.74618],[-5.16089,36.74626],[-5.16066,36.74637],[-5.16055,36.74642]]}},{"type":"Feature","properties":{"name":"Calle Montes","kind":"road","road":"tertiary","osm":180138395},"geometry":{"type":"LineString","coordinates":[[-5.15871,36.74537],[-5.159,36.74514],[-5.15964,36.74463],[-5.16043,36.74404],[-5.16045,36.74403]]}},{"type":"Feature","properties":{"name":"Calle González Campos","kind":"road","road":"pedestrian","osm":180138399},"geometry":{"type":"LineString","coordinates":[[-5.16538,36.73799],[-5.16535,36.73804],[-5.16531,36.73812],[-5.16525,36.73819],[-5.16524,36.73823],[-5.16515,36.7383],[-5.16509,36.73834],[-5.16504,36.73836]]}},{"type":"Feature","properties":{"name":"Avenida de Andalucía","kind":"road","road":"secondary","osm":180138400},"geometry":{"type":"LineString","coordinates":[[-5.16522,36.74636],[-5.16508,36.74643],[-5.16458,36.74667]]}},{"type":"Feature","properties":{"name":"Parque Infantil Maria Luisa Ortiz","kind":"park","road":"","osm":180145818},"geometry":{"type":"Polygon","coordinates":[[[-5.15248,36.74788],[-5.15211,36.74831],[-5.15261,36.7486],[-5.15322,36.74825],[-5.15248,36.74788]]]}},{"type":"Feature","properties":{"name":"Parque de San Rafael","kind":"park","road":"","osm":180145819},"geometry":{"type":"Polygon","coordinates":[[[-5.15204,36.7484],[-5.151,36.74954],[-5.15132,36.74967],[-5.15157,36.7494],[-5.15169,36.74953],[-5.1518,36.74966],[-5.15204,36.74953],[-5.15228,36.74938],[-5.15233,36.74934],[-5.15241,36.74929],[-5.15245,36.74929],[-5.15292,36.74903],[-5.1528,36.74889],[-5.15273,36.74882],[-5.15267,36.74876],[-5.1526,36.74872],[-5.15253,36.74868],[-5.15204,36.7484]]]}},{"type":"Feature","properties":{"name":"Calle Juan José de Puya","kind":"road","road":"tertiary","osm":190970598},"geometry":{"type":"LineString","coordinates":[[-5.16183,36.74306],[-5.16146,36.74278],[-5.16125,36.7427],[-5.16101,36.74269],[-5.16086,36.74264]]}},{"type":"Feature","properties":{"name":"Calle Juan José de Puya","kind":"road","road":"tertiary","osm":190970601},"geometry":{"type":"LineString","coordinates":[[-5.1623,36.74341],[-5.16183,36.74306]]}},{"type":"Feature","properties":{"name":"Pasaje Matadero","kind":"road","road":"tertiary","osm":190970603},"geometry":{"type":"LineString","coordinates":[[-5.15906,36.74565],[-5.15871,36.74537]]}},{"type":"Feature","properties":{"name":"Calle Sevilla","kind":"road","road":"tertiary","osm":190972098},"geometry":{"type":"LineString","coordinates":[[-5.16551,36.74428],[-5.16605,36.74491],[-5.16655,36.74558],[-5.16657,36.74562]]}},{"type":"Feature","properties":{"name":"Avenida Martínez Astein","kind":"road","road":"secondary","osm":190981797},"geometry":{"type":"LineString","coordinates":[[-5.15998,36.74589],[-5.15995,36.74591],[-5.15993,36.74595],[-5.15992,36.74597]]}},{"type":"Feature","properties":{"name":"Avenida Martínez Astein","kind":"road","road":"secondary","osm":190981799},"geometry":{"type":"LineString","coordinates":[[-5.15992,36.74597],[-5.15992,36.746],[-5.15991,36.74602],[-5.15992,36.74604]]}},{"type":"Feature","properties":{"name":"Avenida Martínez Astein","kind":"road","road":"secondary","osm":190981801},"geometry":{"type":"LineString","coordinates":[[-5.16015,36.74591],[-5.16007,36.74589],[-5.15998,36.74589]]}},{"type":"Feature","properties":{"name":"Calle Córdoba","kind":"road","road":"tertiary","osm":190982357},"geometry":{"type":"LineString","coordinates":[[-5.16098,36.74683],[-5.16079,36.74724]]}},{"type":"Feature","properties":{"name":"Calle Córdoba","kind":"road","road":"tertiary","osm":190982358},"geometry":{"type":"LineString","coordinates":[[-5.16098,36.74683],[-5.1611,36.74658],[-5.1611,36.74654]]}},{"type":"Feature","properties":{"name":"Calle Córdoba","kind":"road","road":"tertiary","osm":190982360},"geometry":{"type":"LineString","coordinates":[[-5.16034,36.74814],[-5.16063,36.74755]]}},{"type":"Feature","properties":{"name":"Avenida de Málaga","kind":"road","road":"secondary","osm":191099372},"geometry":{"type":"LineString","coordinates":[[-5.15696,36.74756],[-5.15695,36.74755],[-5.15688,36.74753]]}},{"type":"Feature","properties":{"name":"Avenida Ricardo Navarrete","kind":"road","road":"tertiary","osm":191099373},"geometry":{"type":"LineString","coordinates":[[-5.15775,36.74804],[-5.1577,36.74801],[-5.15767,36.74799],[-5.15763,36.74795],[-5.1576,36.74793],[-5.15754,36.74792],[-5.15748,36.74792],[-5.15744,36.74792],[-5.15736,36.74797],[-5.15728,36.74801],[-5.15723,36.74803],[-5.15717,36.74804],[-5.15712,36.74803],[-5.15709,36.74802],[-5.15703,36.74798]]}},{"type":"Feature","properties":{"name":"Avenida Martínez Astein","kind":"road","road":"secondary","osm":191099374},"geometry":{"type":"LineString","coordinates":[[-5.15985,36.74596],[-5.15992,36.74604]]}},{"type":"Feature","properties":{"name":"Avenida Ricardo Navarrete","kind":"road","road":"tertiary","osm":191100222},"geometry":{"type":"LineString","coordinates":[[-5.15728,36.74801],[-5.15727,36.74806],[-5.15728,36.7481]]}},{"type":"Feature","properties":{"name":"Avenida Ricardo Navarrete","kind":"road","road":"tertiary","osm":191100224},"geometry":{"type":"LineString","coordinates":[[-5.15768,36.74811],[-5.1578,36.74811],[-5.15796,36.74812],[-5.15828,36.74812],[-5.15841,36.74812],[-5.1586,36.74813],[-5.15886,36.74814],[-5.15894,36.74814],[-5.15904,36.74814],[-5.15911,36.74816]]}},{"type":"Feature","properties":{"name":"","kind":"road","road":"tertiary","osm":191101331},"geometry":{"type":"LineString","coordinates":[[-5.15913,36.74817],[-5.15915,36.74817],[-5.15918,36.74817],[-5.15919,36.74816],[-5.1592,36.74816],[-5.15921,36.74814],[-5.15922,36.74813],[-5.15921,36.74811],[-5.1592,36.74809],[-5.15918,36.74808],[-5.15916,36.74808],[-5.15914,36.74808],[-5.15912,36.74809],[-5.15911,36.7481],[-5.1591,36.74811],[-5.1591,36.74813],[-5.1591,36.74814],[-5.15911,36.74816],[-5.15913,36.74817]]}},{"type":"Feature","properties":{"name":"Avenida Ricardo Navarrete","kind":"road","road":"tertiary","osm":191101332},"geometry":{"type":"LineString","coordinates":[[-5.16021,36.74839],[-5.16016,36.74838],[-5.15935,36.74814],[-5.15921,36.74811]]}},{"type":"Feature","properties":{"name":"Avenida Ricardo Navarrete","kind":"road","road":"tertiary","osm":191101334},"geometry":{"type":"LineString","coordinates":[[-5.15918,36.74817],[-5.15946,36.74825],[-5.16008,36.74843],[-5.16012,36.74844],[-5.16018,36.74846]]}},{"type":"Feature","properties":{"name":"Avenida de Andalucía","kind":"road","road":"secondary","osm":191134995},"geometry":{"type":"LineString","coordinates":[[-5.1629,36.74749],[-5.16284,36.74752],[-5.1627,36.74759],[-5.16233,36.74777],[-5.16211,36.74788],[-5.16204,36.74792]]}},{"type":"Feature","properties":{"name":"Calle José María Castelló Madrid","kind":"road","road":"secondary","osm":191318834},"geometry":{"type":"LineString","coordinates":[[-5.16525,36.74639],[-5.16523,36.74642],[-5.16522,36.74644],[-5.16522,36.74646]]}},{"type":"Feature","properties":{"name":"","kind":"road","road":"pedestrian","osm":191447999},"geometry":{"type":"LineString","coordinates":[[-5.16153,36.74807],[-5.16165,36.74801],[-5.16162,36.74797],[-5.16157,36.74791],[-5.16155,36.74788],[-5.16152,36.74781],[-5.1615,36.74775],[-5.16142,36.74761],[-5.16097,36.74704],[-5.16086,36.74689],[-5.16012,36.74593],[-5.1601,36.74592],[-5.16007,36.74591],[-5.16004,36.74591],[-5.16008,36.74596],[-5.1602,36.74612],[-5.16018,36.74612],[-5.16014,36.74614],[-5.16012,36.74615],[-5.16005,36.74606],[-5.16001,36.74603],[-5.15998,36.74602],[-5.15997,36.74603],[-5.16001,36.74608],[-5.16077,36.74709],[-5.16093,36.7473],[-5.1615,36.74803],[-5.16153,36.74807]]}},{"type":"Feature","properties":{"name":"Calle Fernando de los Ríos","kind":"road","road":"secondary","osm":191499015},"geometry":{"type":"LineString","coordinates":[[-5.16922,36.75001],[-5.16941,36.74992]]}},{"type":"Feature","properties":{"name":"Calle Fernando de los Ríos","kind":"road","road":"secondary","osm":191499024},"geometry":{"type":"LineString","coordinates":[[-5.16941,36.74992],[-5.16951,36.74988]]}},{"type":"Feature","properties":{"name":"Plaza de los Descalzos","kind":"road","road":"pedestrian","osm":191499847},"geometry":{"type":"LineString","coordinates":[[-5.16215,36.7436],[-5.16212,36.74359],[-5.16209,36.7436],[-5.16201,36.74367],[-5.16195,36.74372],[-5.1618,36.74384],[-5.16178,36.74386],[-5.16169,36.74391],[-5.16168,36.74392],[-5.16192,36.74406],[-5.16193,36.74403],[-5.16197,36.74396],[-5.16198,36.74394],[-5.16204,36.74383],[-5.16211,36.74372],[-5.16215,36.74365],[-5.16216,36.74363],[-5.16215,36.7436]]}},{"type":"Feature","properties":{"name":"Pasaje Pintor Joaquín Peinado","kind":"road","road":"pedestrian","osm":191499848},"geometry":{"type":"LineString","coordinates":[[-5.16261,36.74433],[-5.16302,36.74483]]}},{"type":"Feature","properties":{"name":"Avenida Victoria","kind":"road","road":"secondary","osm":191500190},"geometry":{"type":"LineString","coordinates":[[-5.16376,36.74706],[-5.16378,36.74714],[-5.16386,36.74726],[-5.16393,36.74733]]}},{"type":"Feature","properties":{"name":"","kind":"park","road":"","osm":191500215},"geometry":{"type":"Polygon","coordinates":[[[-5.16331,36.74762],[-5.16378,36.74738],[-5.1638,36.74735],[-5.16376,36.74729],[-5.16322,36.74755],[-5.16319,36.7476],[-5.16322,36.74763],[-5.16326,36.74764],[-5.16331,36.74762]]]}},{"type":"Feature","properties":{"name":"Plaza María Auxiliadora","kind":"road","road":"pedestrian","osm":191500244},"geometry":{"type":"LineString","coordinates":[[-5.16693,36.73816],[-5.16686,36.73826],[-5.16681,36.73835],[-5.16676,36.73849],[-5.16672,36.73858],[-5.1669,36.73858],[-5.16694,36.7385],[-5.16701,36.73837],[-5.16708,36.73824],[-5.16711,36.73817],[-5.16712,36.73816],[-5.16714,36.73814],[-5.1671,36.73792],[-5.16701,36.73792],[-5.167,36.73794],[-5.167,36.73795],[-5.167,36.73798],[-5.16695,36.73806],[-5.1669,36.73805],[-5.16688,36.73805],[-5.16685,36.73814],[-5.16691,36.73815],[-5.16693,36.73816]]}},{"type":"Feature","properties":{"name":"Plaza de la Merced","kind":"road","road":"pedestrian","osm":191503980},"geometry":{"type":"LineString","coordinates":[[-5.16737,36.74442],[-5.16734,36.74441],[-5.1673,36.74431],[-5.16731,36.74414],[-5.16731,36.7441],[-5.16732,36.74408],[-5.16734,36.74408],[-5.16736,36.74408],[-5.16737,36.74409],[-5.16738,36.7441],[-5.16754,36.74433],[-5.16737,36.74442]]}},{"type":"Feature","properties":{"name":"Plaza de la Oscuridad","kind":"road","road":"pedestrian","osm":191607965},"geometry":{"type":"LineString","coordinates":[[-5.16231,36.74265],[-5.16235,36.74262],[-5.16237,36.74261],[-5.16235,36.74257],[-5.16233,36.74254],[-5.16231,36.74248],[-5.1623,36.74246],[-5.16229,36.74242],[-5.16227,36.74237],[-5.16226,36.74234],[-5.16233,36.74231],[-5.16237,36.7423],[-5.16236,36.74228],[-5.16236,36.74226],[-5.16233,36.74223],[-5.16231,36.7422],[-5.1623,36.74218],[-5.1623,36.74216],[-5.16227,36.74212],[-5.16224,36.74208],[-5.16221,36.74209],[-5.16217,36.74211],[-5.16204,36.74219],[-5.16206,36.74221],[-5.16207,36.74224],[-5.1621,36.74229],[-5.16211,36.74229],[-5.16212,36.74233],[-5.16213,36.74236],[-5.16213,36.74239],[-5.16213,36.74242],[-5.16213,36.74246],[-5.16212,36.74247],[-5.16211,36.74247],[-5.16219,36.74254],[-5.16222,36.74258],[-5.16226,36.74261],[-5.1623,36.74265],[-5.16231,36.74265]]}},{"type":"Feature","properties":{"name":"Avenida Ricardo Navarrete","kind":"road","road":"tertiary","osm":191620172},"geometry":{"type":"LineString","coordinates":[[-5.15914,36.74808],[-5.15899,36.74807],[-5.1589,36.74807],[-5.15841,36.74806],[-5.1578,36.74805],[-5.15775,36.74804]]}},{"type":"Feature","properties":{"name":"Calle San Vicente de Paul","kind":"road","road":"tertiary","osm":191623987},"geometry":{"type":"LineString","coordinates":[[-5.15923,36.74421],[-5.15931,36.74414],[-5.15946,36.74399],[-5.15964,36.74381],[-5.15991,36.74357]]}},{"type":"Feature","properties":{"name":"Calle Virgen de la Paz","kind":"road","road":"tertiary","osm":191625836},"geometry":{"type":"LineString","coordinates":[[-5.16706,36.74356],[-5.16724,36.74396],[-5.16727,36.74404],[-5.16725,36.7443],[-5.16726,36.7444],[-5.16731,36.74448],[-5.16752,36.74481],[-5.16776,36.74518]]}},{"type":"Feature","properties":{"name":"Calle Lorenzo Borrego","kind":"road","road":"pedestrian","osm":191649272},"geometry":{"type":"LineString","coordinates":[[-5.16582,36.74343],[-5.16577,36.74345],[-5.16505,36.7438]]}},{"type":"Feature","properties":{"name":"Calle la Toma","kind":"road","road":"tertiary","osm":191653472},"geometry":{"type":"LineString","coordinates":[[-5.15421,36.74899],[-5.15415,36.74892],[-5.15396,36.74871],[-5.15383,36.74856]]}},{"type":"Feature","properties":{"name":"Calle Fernando de los Ríos","kind":"road","road":"secondary","osm":192150986},"geometry":{"type":"LineString","coordinates":[[-5.16496,36.75071],[-5.16503,36.75071],[-5.16524,36.75069],[-5.1653,36.75069],[-5.16583,36.75065],[-5.16696,36.75058],[-5.16713,36.75057],[-5.16728,36.75056],[-5.16752,36.75055],[-5.16796,36.7505],[-5.16809,36.75047],[-5.16856,36.75032],[-5.16859,36.7503],[-5.16883,36.7502],[-5.16913,36.75005],[-5.16922,36.75001]]}},{"type":"Feature","properties":{"name":"Avenida de Andalucía","kind":"road","road":"secondary","osm":192161332},"geometry":{"type":"LineString","coordinates":[[-5.16458,36.74667],[-5.16445,36.74674]]}},{"type":"Feature","properties":{"name":"Avenida Victoria","kind":"road","road":"secondary","osm":192161334},"geometry":{"type":"LineString","coordinates":[[-5.16393,36.74733],[-5.16396,36.74734],[-5.16406,36.74735],[-5.16409,36.74735],[-5.16466,36.74742],[-5.16481,36.74744],[-5.16491,36.74746],[-5.16507,36.74748],[-5.16514,36.74748],[-5.16534,36.74751],[-5.16593,36.74759]]}},{"type":"Feature","properties":{"name":"Calle Jerez","kind":"road","road":"secondary","osm":192161352},"geometry":{"type":"LineString","coordinates":[[-5.16915,36.74751],[-5.1691,36.74742],[-5.16893,36.74713]]}},{"type":"Feature","properties":{"name":"Calle Santo Domingo","kind":"road","road":"tertiary","osm":192162719},"geometry":{"type":"LineString","coordinates":[[-5.15742,36.75052],[-5.1575,36.75038],[-5.15758,36.75024],[-5.15774,36.74994],[-5.15776,36.74989]]}},{"type":"Feature","properties":{"name":"Calle Antonio Ordóñez","kind":"road","road":"tertiary","osm":192162875},"geometry":{"type":"LineString","coordinates":[[-5.15444,36.74946],[-5.15508,36.74968],[-5.15552,36.74984],[-5.15639,36.75015],[-5.15722,36.75044],[-5.15742,36.75052]]}},{"type":"Feature","properties":{"name":"Calle Manuel Montero","kind":"road","road":"pedestrian","osm":192290214},"geometry":{"type":"LineString","coordinates":[[-5.1664,36.73752],[-5.16622,36.73739],[-5.16609,36.73725],[-5.16591,36.737]]}},{"type":"Feature","properties":{"name":"Avenida Martínez Astein","kind":"road","road":"secondary","osm":192298111},"geometry":{"type":"LineString","coordinates":[[-5.16165,36.74795],[-5.16157,36.74784],[-5.16152,36.74776],[-5.16144,36.74759]]}},{"type":"Feature","properties":{"name":"Avenida Victoria","kind":"road","road":"secondary","osm":192307157},"geometry":{"type":"LineString","coordinates":[[-5.16808,36.7475],[-5.168,36.74754]]}},{"type":"Feature","properties":{"name":"Calle Doctor Fernando Morell Castello","kind":"road","road":"secondary","osm":192307159},"geometry":{"type":"LineString","coordinates":[[-5.16826,36.74789],[-5.16832,36.74786],[-5.1687,36.74769],[-5.16909,36.74753],[-5.16915,36.74751]]}},{"type":"Feature","properties":{"name":"Calle José María Castelló Madrid","kind":"road","road":"secondary","osm":192565959},"geometry":{"type":"LineString","coordinates":[[-5.16522,36.74646],[-5.16526,36.74653],[-5.16528,36.74656],[-5.16538,36.74671]]}},{"type":"Feature","properties":{"name":"Calle Cuesta de las Imagenes","kind":"road","road":"tertiary","osm":192717452},"geometry":{"type":"LineString","coordinates":[[-5.16496,36.73457],[-5.16509,36.7347],[-5.16514,36.73477],[-5.16516,36.73484],[-5.16516,36.7349],[-5.16512,36.73498],[-5.165,36.73507],[-5.16468,36.73516],[-5.16449,36.73525],[-5.16441,36.73533],[-5.16421,36.73549],[-5.16418,36.73552],[-5.16417,36.73556],[-5.1642,36.73569],[-5.16422,36.7358]]}},{"type":"Feature","properties":{"name":"","kind":"road","road":"secondary","osm":192717454},"geometry":{"type":"LineString","coordinates":[[-5.16451,36.73438],[-5.16441,36.73444],[-5.16436,36.73446],[-5.16426,36.73448]]}},{"type":"Feature","properties":{"name":"","kind":"road","road":"tertiary","osm":192717455},"geometry":{"type":"LineString","coordinates":[[-5.16496,36.73457],[-5.16493,36.73452],[-5.16483,36.73444],[-5.16476,36.73437]]}},{"type":"Feature","properties":{"name":"","kind":"road","road":"secondary","osm":192717456},"geometry":{"type":"LineString","coordinates":[[-5.16426,36.73448],[-5.16439,36.73449],[-5.16442,36.73449],[-5.16448,36.73449],[-5.16459,36.73447]]}},{"type":"Feature","properties":{"name":"Plaza Ruedo Alameda","kind":"road","road":"pedestrian","osm":192722266},"geometry":{"type":"LineString","coordinates":[[-5.16507,36.73357],[-5.16506,36.73355],[-5.16487,36.7335],[-5.16453,36.73347],[-5.16433,36.73347],[-5.16428,36.73351],[-5.16442,36.73422],[-5.16443,36.73426],[-5.16448,36.73429],[-5.16454,36.73429],[-5.1646,36.73428],[-5.16466,36.73425],[-5.16472,36.7342],[-5.16485,36.73402],[-5.16494,36.73384],[-5.16507,36.73357]]}},{"type":"Feature","properties":{"name":"Calle Torrejones","kind":"road","road":"secondary","osm":192726491},"geometry":{"type":"LineString","coordinates":[[-5.16541,36.73297],[-5.16553,36.73266],[-5.16555,36.73261],[-5.1656,36.73249]]}},{"type":"Feature","properties":{"name":"Calle Gallarda","kind":"road","road":"pedestrian","osm":192726508},"geometry":{"type":"LineString","coordinates":[[-5.16463,36.73281],[-5.16493,36.73286],[-5.16498,36.73286]]}},{"type":"Feature","properties":{"name":"Calle las Kabilas","kind":"road","road":"pedestrian","osm":192727634},"geometry":{"type":"LineString","coordinates":[[-5.16578,36.7311],[-5.16579,36.73112],[-5.16579,36.73116],[-5.1658,36.73139],[-5.16583,36.73144]]}},{"type":"Feature","properties":{"name":"Calle San Vicente de Paul","kind":"road","road":"tertiary","osm":193917893},"geometry":{"type":"LineString","coordinates":[[-5.16086,36.74264],[-5.16063,36.74286],[-5.16058,36.7429],[-5.16044,36.74305],[-5.16017,36.74333],[-5.15995,36.74354],[-5.15991,36.74357]]}},{"type":"Feature","properties":{"name":"Avenida de Andalucía","kind":"road","road":"secondary","osm":193999668},"geometry":{"type":"LineString","coordinates":[[-5.16445,36.74674],[-5.1639,36.747],[-5.16382,36.74703],[-5.16376,36.74706]]}},{"type":"Feature","properties":{"name":"Camino de Los Tejares","kind":"road","road":"tertiary","osm":195030102},"geometry":{"type":"LineString","coordinates":[[-5.15821,36.74155],[-5.15802,36.74144],[-5.15743,36.74128],[-5.15699,36.74113],[-5.15693,36.74112],[-5.15686,36.74113],[-5.15654,36.74123],[-5.15646,36.74124],[-5.15637,36.74123],[-5.15624,36.74121],[-5.15604,36.74119],[-5.1559,36.74115],[-5.15579,36.7411],[-5.15571,36.74105],[-5.15486,36.74052],[-5.15479,36.74047],[-5.15451,36.74034],[-5.15417,36.74008],[-5.15404,36.73994],[-5.15388,36.73982],[-5.15363,36.73971],[-5.15313,36.73955],[-5.15264,36.73937],[-5.15259,36.73935],[-5.15212,36.73919],[-5.1518,36.7391],[-5.15168,36.73907],[-5.15137,36.73901],[-5.15095,36.7389],[-5.15075,36.73884],[-5.15034,36.73867],[-5.14991,36.73848],[-5.14945,36.73829],[-5.14898,36.73818],[-5.14874,36.73815]]}},{"type":"Feature","properties":{"name":"Calle Esfuerzo","kind":"road","road":"pedestrian","osm":196603973},"geometry":{"type":"LineString","coordinates":[[-5.16032,36.74194],[-5.1604,36.74199],[-5.16046,36.74202],[-5.16059,36.7421],[-5.16064,36.74214],[-5.16067,36.74216]]}},{"type":"Feature","properties":{"name":"Calle Felicidad","kind":"road","road":"pedestrian","osm":196603975},"geometry":{"type":"LineString","coordinates":[[-5.16058,36.74163],[-5.16049,36.74168],[-5.16037,36.74172],[-5.16031,36.74176],[-5.16025,36.74176],[-5.1602,36.74179]]}},{"type":"Feature","properties":{"name":"Calle Esfuerzo","kind":"road","road":"pedestrian","osm":196603977},"geometry":{"type":"LineString","coordinates":[[-5.16002,36.74204],[-5.16004,36.74205],[-5.16022,36.74204],[-5.16032,36.74194]]}},{"type":"Feature","properties":{"name":"","kind":"road","road":"pedestrian","osm":196603978},"geometry":{"type":"LineString","coordinates":[[-5.16031,36.74176],[-5.1603,36.74181],[-5.1602,36.74189],[-5.16012,36.74196],[-5.16002,36.74204]]}},{"type":"Feature","properties":{"name":"Calle Consuelo","kind":"road","road":"pedestrian","osm":196603981},"geometry":{"type":"LineString","coordinates":[[-5.16039,36.74208],[-5.16057,36.74218],[-5.16076,36.7423]]}},{"type":"Feature","properties":{"name":"","kind":"park","road":"","osm":196924900},"geometry":{"type":"Polygon","coordinates":[[[-5.16443,36.74058],[-5.16447,36.74045],[-5.1644,36.74043],[-5.16437,36.74044],[-5.16436,36.74045],[-5.16426,36.74048],[-5.16418,36.74047],[-5.16414,36.74046],[-5.16413,36.74044],[-5.16412,36.74044],[-5.16412,36.74043],[-5.16407,36.74046],[-5.16406,36.74048],[-5.16414,36.74052],[-5.1642,36.74053],[-5.16431,36.74052],[-5.16434,36.7405],[-5.16439,36.74047],[-5.1644,36.74046],[-5.1644,36.74045],[-5.16441,36.74046],[-5.1644,36.74048],[-5.16437,36.74052],[-5.16437,36.74054],[-5.16441,36.74059],[-5.16443,36.74058]]]}},{"type":"Feature","properties":{"name":"","kind":"park","road":"","osm":197668429},"geometry":{"type":"Polygon","coordinates":[[[-5.16034,36.74032],[-5.16025,36.74038],[-5.15965,36.74067],[-5.15955,36.74056],[-5.15991,36.74017],[-5.16,36.74017],[-5.16003,36.74013],[-5.16034,36.74032]]]}},{"type":"Feature","properties":{"name":"Plaza Carmen Abela","kind":"road","road":"pedestrian","osm":197671955},"geometry":{"type":"LineString","coordinates":[[-5.16447,36.74318],[-5.16444,36.74321],[-5.16438,36.74325],[-5.16438,36.74322],[-5.16433,36.74319],[-5.16423,36.74314],[-5.16413,36.74309],[-5.16403,36.74304],[-5.1637,36.74287],[-5.16369,36.74285],[-5.16369,36.74283],[-5.16371,36.74279],[-5.16373,36.74278],[-5.16381,36.74271],[-5.16384,36.74269],[-5.16386,36.74266],[-5.16388,36.74264],[-5.1639,36.74267],[-5.16393,36.74268],[-5.16393,36.74269],[-5.16401,36.74276],[-5.16405,36.74281],[-5.16409,36.74285],[-5.16418,36.74292],[-5.16419,36.74293],[-5.16421,36.74295],[-5.16429,36.74302],[-5.16435,36.74308],[-5.16441,36.74313],[-5.16447,36.74318]]}},{"type":"Feature","properties":{"name":"Calle Sevilla","kind":"road","road":"pedestrian","osm":197671956},"geometry":{"type":"LineString","coordinates":[[-5.16444,36.74321],[-5.16447,36.74324],[-5.16505,36.7438]]}},{"type":"Feature","properties":{"name":"","kind":"park","road":"","osm":198491891},"geometry":{"type":"Polygon","coordinates":[[[-5.16436,36.7361],[-5.16442,36.73609],[-5.1644,36.73606],[-5.16444,36.73604],[-5.16442,36.73599],[-5.16439,36.73583],[-5.1643,36.73564],[-5.16427,36.73555],[-5.1644,36.73548],[-5.16438,36.73545],[-5.16451,36.73538],[-5.16456,36.73535],[-5.16468,36.73531],[-5.16473,36.73529],[-5.16477,36.73529],[-5.16477,36.7353],[-5.16488,36.73531],[-5.16487,36.73535],[-5.16496,36.73539],[-5.16505,36.73544],[-5.16505,36.73545],[-5.16513,36.7355],[-5.16514,36.7355],[-5.16515,36.7355],[-5.16516,36.73547],[-5.16515,36.7354],[-5.16516,36.73529],[-5.16516,36.73522],[-5.16517,36.73515],[-5.16518,36.7351],[-5.16514,36.73512],[-5.16513,36.73509],[-5.16492,36.73516],[-5.16476,36.7352],[-5.16467,36.73523],[-5.16456,36.73528],[-5.16439,36.73539],[-5.16424,36.73552],[-5.16423,36.73556],[-5.16431,36.7358],[-5.16434,36.73596],[-5.16436,36.7361]]]}},{"type":"Feature","properties":{"name":"","kind":"park","road":"","osm":198492054},"geometry":{"type":"Polygon","coordinates":[[[-5.16387,36.73465],[-5.16386,36.73456],[-5.16405,36.73456],[-5.16415,36.7345],[-5.16428,36.73453],[-5.16441,36.73453],[-5.16443,36.73455],[-5.16442,36.73456],[-5.16443,36.7346],[-5.16425,36.73462],[-5.16425,36.7346],[-5.16423,36.73459],[-5.16421,36.73459],[-5.16421,36.73461],[-5.16421,36.73463],[-5.16387,36.73465]]]}},{"type":"Feature","properties":{"name":"","kind":"park","road":"","osm":198492055},"geometry":{"type":"Polygon","coordinates":[[[-5.16463,36.73512],[-5.16482,36.73507],[-5.16493,36.73504],[-5.16501,36.735],[-5.16504,36.73498],[-5.16506,36.73496],[-5.16506,36.73495],[-5.16506,36.73493],[-5.16495,36.73495],[-5.1647,36.73503],[-5.16461,36.73507],[-5.16459,36.73509],[-5.16463,36.73512]]]}},{"type":"Feature","properties":{"name":"","kind":"park","road":"","osm":198492056},"geometry":{"type":"Polygon","coordinates":[[[-5.16512,36.73488],[-5.16508,36.7349],[-5.16507,36.73488],[-5.16504,36.73489],[-5.16483,36.73459],[-5.16484,36.73459],[-5.16485,36.73458],[-5.16486,36.73456],[-5.16486,36.73455],[-5.16489,36.73457],[-5.16505,36.73473],[-5.1651,36.73479],[-5.16512,36.73488]]]}},{"type":"Feature","properties":{"name":"","kind":"park","road":"","osm":198493181},"geometry":{"type":"Polygon","coordinates":[[[-5.15579,36.74962],[-5.15573,36.7496],[-5.15588,36.74946],[-5.15579,36.74962]]]}},{"type":"Feature","properties":{"name":"","kind":"park","road":"","osm":198493185},"geometry":{"type":"Polygon","coordinates":[[[-5.15718,36.7496],[-5.15721,36.74955],[-5.15687,36.74943],[-5.15684,36.74949],[-5.15718,36.7496]]]}},{"type":"Feature","properties":{"name":"","kind":"park","road":"","osm":198493187},"geometry":{"type":"Polygon","coordinates":[[[-5.15713,36.74928],[-5.15715,36.74923],[-5.157,36.74918],[-5.15698,36.74923],[-5.15713,36.74928]]]}},{"type":"Feature","properties":{"name":"","kind":"park","road":"","osm":198493190},"geometry":{"type":"Polygon","coordinates":[[[-5.15604,36.74943],[-5.15597,36.7494],[-5.15611,36.74926],[-5.15604,36.74943]]]}},{"type":"Feature","properties":{"name":"","kind":"park","road":"","osm":198493191},"geometry":{"type":"Polygon","coordinates":[[[-5.15672,36.74945],[-5.15675,36.74939],[-5.15637,36.74926],[-5.15628,36.74923],[-5.15625,36.74929],[-5.15672,36.74945]]]}},{"type":"Feature","properties":{"name":"Plaza Virgen de la Esperanza","kind":"road","road":"pedestrian","osm":198493513},"geometry":{"type":"LineString","coordinates":[[-5.15669,36.74906],[-5.15673,36.74898],[-5.15682,36.74882],[-5.15685,36.74876],[-5.15681,36.74875],[-5.15673,36.74873],[-5.15665,36.74876],[-5.15666,36.74879],[-5.15636,36.74891],[-5.15637,36.74895],[-5.15665,36.74905],[-5.15669,36.74906]]}},{"type":"Feature","properties":{"name":"Calle Virgen de la Aurora","kind":"road","road":"pedestrian","osm":198660675},"geometry":{"type":"LineString","coordinates":[[-5.16463,36.73899],[-5.16461,36.73895],[-5.16459,36.73891],[-5.16458,36.73884],[-5.16458,36.73874],[-5.16451,36.73854],[-5.1645,36.73839],[-5.16443,36.73834]]}},{"type":"Feature","properties":{"name":"Calle Granada","kind":"road","road":"tertiary","osm":198752367},"geometry":{"type":"LineString","coordinates":[[-5.16166,36.74388],[-5.1613,36.7441],[-5.16077,36.74442],[-5.16067,36.74449],[-5.16003,36.74487],[-5.15997,36.74491],[-5.1596,36.74519],[-5.15953,36.74526],[-5.15938,36.74539],[-5.15906,36.74565],[-5.15878,36.74589],[-5.15859,36.746],[-5.15776,36.74649],[-5.15762,36.7466],[-5.15751,36.74673],[-5.15747,36.74678],[-5.15738,36.7469],[-5.1573,36.74701],[-5.1571,36.74728],[-5.15697,36.74742],[-5.15688,36.74753]]}},{"type":"Feature","properties":{"name":"Plaza Juan de Dios de Córdoba","kind":"road","road":"pedestrian","osm":198771935},"geometry":{"type":"LineString","coordinates":[[-5.16539,36.73868],[-5.16538,36.73866],[-5.16538,36.73864],[-5.16537,36.73861],[-5.16535,36.73856],[-5.16533,36.73856],[-5.16524,36.73858],[-5.1652,36.73859],[-5.16517,36.7386],[-5.16517,36.73866],[-5.16518,36.7387],[-5.16533,36.73867],[-5.16534,36.73868],[-5.16539,36.73868]]}},{"type":"Feature","properties":{"name":"Calle Ruedo Doña Elvira","kind":"road","road":"pedestrian","osm":198771950},"geometry":{"type":"LineString","coordinates":[[-5.16436,36.73969],[-5.16434,36.73965],[-5.16425,36.7395],[-5.16425,36.73945],[-5.16427,36.73939],[-5.16429,36.73932],[-5.16431,36.73928],[-5.16445,36.73925],[-5.16458,36.73922],[-5.16462,36.7392]]}},{"type":"Feature","properties":{"name":"Plaza Pedro Pérez Clotet","kind":"road","road":"pedestrian","osm":198843200},"geometry":{"type":"LineString","coordinates":[[-5.1658,36.73762],[-5.16579,36.7376],[-5.16569,36.73749],[-5.16566,36.73746],[-5.16564,36.73745],[-5.16562,36.7374],[-5.1656,36.73735],[-5.16557,36.73736],[-5.16556,36.73735],[-5.16553,36.73735],[-5.1655,36.73736],[-5.16548,36.73736],[-5.16557,36.73759],[-5.1656,36.73759],[-5.16561,36.7376],[-5.16561,36.73761],[-5.16562,36.73761],[-5.16562,36.73762],[-5.16563,36.73762],[-5.16563,36.73764],[-5.16563,36.73765],[-5.16563,36.73766],[-5.16564,36.73767],[-5.16563,36.73768],[-5.16567,36.73768],[-5.1657,36.73768],[-5.16576,36.73767],[-5.16582,36.73765],[-5.16581,36.73764],[-5.1658,36.73762]]}},{"type":"Feature","properties":{"name":"Plaza Sor Ángela de la Cruz Guerrero","kind":"road","road":"pedestrian","osm":198843201},"geometry":{"type":"LineString","coordinates":[[-5.16587,36.73765],[-5.16591,36.73775],[-5.16591,36.73782],[-5.16604,36.7378],[-5.16605,36.7378],[-5.16606,36.7378],[-5.16608,36.7378],[-5.16604,36.73774],[-5.16602,36.7377],[-5.166,36.73767],[-5.16599,36.73763],[-5.16603,36.73761],[-5.16611,36.73756],[-5.16607,36.7375],[-5.16606,36.73749],[-5.16606,36.73748],[-5.16601,36.7375],[-5.16595,36.73754],[-5.16587,36.73759],[-5.1658,36.73762],[-5.16581,36.73764],[-5.16582,36.73765],[-5.16587,36.73765]]}},{"type":"Feature","properties":{"name":"Plaza de la Cijara","kind":"road","road":"pedestrian","osm":198843202},"geometry":{"type":"LineString","coordinates":[[-5.16397,36.73731],[-5.16396,36.7372],[-5.16393,36.73719],[-5.16402,36.73696],[-5.16405,36.73694],[-5.16414,36.73697],[-5.16418,36.73698],[-5.16426,36.737],[-5.16421,36.73711],[-5.1642,36.7371],[-5.16419,36.73712],[-5.16419,36.73714],[-5.1642,36.73714],[-5.16419,36.73716],[-5.16413,36.73734],[-5.16412,36.73747],[-5.16402,36.73748],[-5.16392,36.73748],[-5.16393,36.73771],[-5.16393,36.73773],[-5.16393,36.73775],[-5.16389,36.73776],[-5.16385,36.73776],[-5.16385,36.73768],[-5.16381,36.73768],[-5.16381,36.73743],[-5.1638,36.73737],[-5.16381,36.73737],[-5.16381,36.73734],[-5.16382,36.73733],[-5.16389,36.73731],[-5.16397,36.73731]]}},{"type":"Feature","properties":{"name":"Plaza del Socorro","kind":"road","road":"pedestrian","osm":198846539},"geometry":{"type":"LineString","coordinates":[[-5.1658,36.74339],[-5.16575,36.74331],[-5.16572,36.74326],[-5.16571,36.74324],[-5.16563,36.74313],[-5.16554,36.74296],[-5.1655,36.74288],[-5.16548,36.74285],[-5.16541,36.74274],[-5.1654,36.74274],[-5.1654,36.74273],[-5.16538,36.74273],[-5.16545,36.7427],[-5.16549,36.74268],[-5.16552,36.74266],[-5.1656,36.74271],[-5.16569,36.74276],[-5.16574,36.74279],[-5.16579,36.74282],[-5.16586,36.74289],[-5.16588,36.7429],[-5.16589,36.74292],[-5.16593,36.74297],[-5.16597,36.74303],[-5.16602,36.74309],[-5.16608,36.74317],[-5.16613,36.74323],[-5.16616,36.74327],[-5.16617,36.74328],[-5.16618,36.74329],[-5.16615,36.74331],[-5.16612,36.74332],[-5.16591,36.74342],[-5.16588,36.74345],[-5.16584,36.74347],[-5.16582,36.74343],[-5.1658,36.74339]]}},{"type":"Feature","properties":{"name":"","kind":"park","road":"","osm":198978805},"geometry":{"type":"Polygon","coordinates":[[[-5.16697,36.74068],[-5.16692,36.74061],[-5.16687,36.7406],[-5.16682,36.74059],[-5.16673,36.74061],[-5.16669,36.74065],[-5.16666,36.74069],[-5.16654,36.74078],[-5.16656,36.74081],[-5.16663,36.7409],[-5.16665,36.74092],[-5.16665,36.74093],[-5.16666,36.74095],[-5.16689,36.74083],[-5.16687,36.74079],[-5.16697,36.74074],[-5.16697,36.74068]]]}},{"type":"Feature","properties":{"name":"Parque Alameda del Tajo","kind":"park","road":"","osm":199092249},"geometry":{"type":"Polygon","coordinates":[[[-5.16797,36.74232],[-5.16794,36.74233],[-5.16786,36.74237],[-5.16792,36.74245],[-5.16805,36.74264],[-5.16807,36.74264],[-5.16812,36.74261],[-5.16828,36.74279],[-5.16789,36.743],[-5.16776,36.74307],[-5.16771,36.7431],[-5.16709,36.74342],[-5.16713,36.74352],[-5.16714,36.74353],[-5.16724,36.74373],[-5.16734,36.74392],[-5.16736,36.74397],[-5.16739,36.74402],[-5.16741,36.74401],[-5.16745,36.74408],[-5.16747,36.74411],[-5.1675,36.74416],[-5.16751,36.74418],[-5.16753,36.7442],[-5.16755,36.74421],[-5.16758,36.74421],[-5.16759,36.74421],[-5.16761,36.74421],[-5.1677,36.74417],[-5.16779,36.74412],[-5.16796,36.74403],[-5.168,36.74401],[-5.16804,36.74399],[-5.16809,36.74397],[-5.16814,36.74395],[-5.16818,36.74394],[-5.16826,36.74394],[-5.16832,36.74395],[-5.16837,36.74392],[-5.16838,36.74387],[-5.1686,36.74375],[-5.16885,36.7436],[-5.16887,36.74359],[-5.16916,36.74343],[-5.16922,36.7434],[-5.16911,36.74331],[-5.16896,36.7432],[-5.16875,36.74296],[-5.16876,36.74295],[-5.16872,36.74291],[-5.16871,36.74292],[-5.16848,36.74267],[-5.16851,36.74265],[-5.16847,36.7426],[-5.16843,36.74263],[-5.16829,36.74247],[-5.16813,36.74231],[-5.16809,36.74228],[-5.16797,36.74232]]]}},{"type":"Feature","properties":{"name":"Calle Amanecer","kind":"road","road":"pedestrian","osm":223418112},"geometry":{"type":"LineString","coordinates":[[-5.16574,36.73342],[-5.16592,36.73308],[-5.16546,36.73297],[-5.16541,36.73297]]}},{"type":"Feature","properties":{"name":"Calle Armiñán","kind":"road","road":"tertiary","osm":237818104},"geometry":{"type":"LineString","coordinates":[[-5.16461,36.73672],[-5.16462,36.73674],[-5.16465,36.73687],[-5.16475,36.73727],[-5.16476,36.73735]]}},{"type":"Feature","properties":{"name":"Calle Armiñán","kind":"road","road":"tertiary","osm":237818105},"geometry":{"type":"LineString","coordinates":[[-5.16422,36.7358],[-5.16429,36.73611],[-5.16432,36.73622],[-5.16438,36.73633],[-5.16446,36.73643],[-5.16451,36.73648],[-5.16454,36.73652],[-5.16456,36.73656],[-5.16461,36.73672]]}},{"type":"Feature","properties":{"name":"Avenida de Andalucía","kind":"road","road":"secondary","osm":284869740},"geometry":{"type":"LineString","coordinates":[[-5.16376,36.74706],[-5.1631,36.74739],[-5.16303,36.74743],[-5.1629,36.74749]]}},{"type":"Feature","properties":{"name":"Avenida Victoria","kind":"road","road":"secondary","osm":284871086},"geometry":{"type":"LineString","coordinates":[[-5.16593,36.74759],[-5.16602,36.74761],[-5.16651,36.74768],[-5.16665,36.7477]]}},{"type":"Feature","properties":{"name":"","kind":"park","road":"","osm":352903159},"geometry":{"type":"Polygon","coordinates":[[[-5.16668,36.73904],[-5.1668,36.73905],[-5.16684,36.73892],[-5.16677,36.73891],[-5.16678,36.73888],[-5.16669,36.73886],[-5.16656,36.73883],[-5.16644,36.73901],[-5.16658,36.73905],[-5.1666,36.73906],[-5.16668,36.73904]]]}},{"type":"Feature","properties":{"name":"","kind":"park","road":"","osm":352904623},"geometry":{"type":"Polygon","coordinates":[[[-5.16546,36.73995],[-5.16549,36.73994],[-5.16547,36.7399],[-5.16546,36.7399],[-5.16544,36.73991],[-5.16533,36.73994],[-5.16533,36.73995],[-5.16534,36.73998],[-5.16546,36.73995]]]}},{"type":"Feature","properties":{"name":"","kind":"park","road":"","osm":353542507},"geometry":{"type":"Polygon","coordinates":[[[-5.16656,36.73726],[-5.16655,36.73724],[-5.16656,36.73723],[-5.16654,36.7372],[-5.16651,36.7372],[-5.16649,36.73716],[-5.16652,36.73713],[-5.16654,36.73709],[-5.16654,36.73708],[-5.16654,36.73706],[-5.16653,36.73704],[-5.16641,36.73701],[-5.16639,36.73695],[-5.16637,36.73691],[-5.16635,36.73687],[-5.16634,36.73684],[-5.16632,36.7368],[-5.16629,36.73676],[-5.16619,36.7368],[-5.16611,36.73683],[-5.166,36.73687],[-5.16602,36.73689],[-5.16592,36.73694],[-5.16594,36.73697],[-5.16601,36.73694],[-5.16604,36.73697],[-5.16595,36.73702],[-5.1661,36.73723],[-5.1662,36.73733],[-5.16628,36.73728],[-5.1662,36.7372],[-5.16639,36.73711],[-5.16639,36.7371],[-5.1664,36.73709],[-5.16642,36.73709],[-5.16643,36.73709],[-5.16643,36.7371],[-5.16643,36.73711],[-5.16643,36.73712],[-5.16652,36.73723],[-5.16651,36.73724],[-5.16654,36.73727],[-5.16656,36.73726]]]}},{"type":"Feature","properties":{"name":"","kind":"park","road":"","osm":353733733},"geometry":{"type":"Polygon","coordinates":[[[-5.15921,36.74416],[-5.15914,36.74412],[-5.1591,36.74415],[-5.15908,36.74413],[-5.15905,36.74416],[-5.15894,36.7443],[-5.15889,36.74438],[-5.15891,36.7444],[-5.15885,36.74445],[-5.15884,36.74445],[-5.15876,36.74451],[-5.15879,36.74453],[-5.15882,36.74454],[-5.15897,36.74443],[-5.15912,36.74431],[-5.15921,36.74416]]]}},{"type":"Feature","properties":{"name":"Plaza de Mondragón","kind":"road","road":"pedestrian","osm":354436637},"geometry":{"type":"LineString","coordinates":[[-5.16647,36.73777],[-5.1665,36.73775],[-5.16654,36.73773],[-5.16657,36.73771],[-5.16653,36.7376],[-5.16652,36.73757],[-5.16648,36.73754],[-5.16642,36.7375],[-5.1664,36.73752],[-5.16639,36.73753],[-5.16632,36.73758],[-5.16632,36.73759],[-5.16634,36.73762],[-5.16638,36.73768],[-5.16641,36.73772],[-5.16644,36.73777],[-5.16647,36.73777]]}},{"type":"Feature","properties":{"name":"Calle Torrejones","kind":"road","road":"secondary","osm":374680553},"geometry":{"type":"LineString","coordinates":[[-5.16513,36.73354],[-5.16517,36.73346],[-5.16541,36.73297]]}},{"type":"Feature","properties":{"name":"Avenida Martínez Astein","kind":"road","road":"secondary","osm":405737233},"geometry":{"type":"LineString","coordinates":[[-5.16147,36.74805],[-5.16154,36.74813]]}},{"type":"Feature","properties":{"name":"Avenida Martínez Astein","kind":"road","road":"secondary","osm":405737234},"geometry":{"type":"LineString","coordinates":[[-5.16171,36.74803],[-5.16165,36.74795]]}},{"type":"Feature","properties":{"name":"Avenida de Andalucía","kind":"road","road":"secondary","osm":405737235},"geometry":{"type":"LineString","coordinates":[[-5.16154,36.74813],[-5.16155,36.74814],[-5.16155,36.74816]]}},{"type":"Feature","properties":{"name":"Avenida de Andalucía","kind":"road","road":"secondary","osm":436218778},"geometry":{"type":"LineString","coordinates":[[-5.16175,36.74802],[-5.16175,36.74799],[-5.16173,36.74795],[-5.16172,36.74792]]}},{"type":"Feature","properties":{"name":"Avenida de Andalucía","kind":"road","road":"secondary","osm":436218779},"geometry":{"type":"LineString","coordinates":[[-5.16175,36.74802],[-5.16171,36.74803]]}},{"type":"Feature","properties":{"name":"","kind":"road","road":"secondary","osm":477080546},"geometry":{"type":"LineString","coordinates":[[-5.15541,36.74842],[-5.1554,36.74841],[-5.15537,36.74839],[-5.15534,36.74838],[-5.15531,36.74838],[-5.15528,36.74839],[-5.15525,36.7484]]}},{"type":"Feature","properties":{"name":"","kind":"road","road":"pedestrian","osm":501462245},"geometry":{"type":"LineString","coordinates":[[-5.16625,36.73809],[-5.16625,36.73806],[-5.16624,36.73801],[-5.16623,36.73792]]}},{"type":"Feature","properties":{"name":"Avenida de Andalucía","kind":"road","road":"tertiary","osm":567193238},"geometry":{"type":"LineString","coordinates":[[-5.15996,36.74894],[-5.16039,36.74876],[-5.16046,36.74871]]}},{"type":"Feature","properties":{"name":"","kind":"park","road":"","osm":596137570},"geometry":{"type":"Polygon","coordinates":[[[-5.16659,36.7391],[-5.16659,36.73911],[-5.1666,36.73915],[-5.16661,36.73917],[-5.16663,36.73919],[-5.16667,36.7392],[-5.1666,36.73931],[-5.16663,36.73933],[-5.16674,36.7392],[-5.16664,36.73914],[-5.16662,36.73913],[-5.16659,36.7391]]]}},{"type":"Feature","properties":{"name":"Calle Corralón de la Muralla","kind":"road","road":"pedestrian","osm":596574308},"geometry":{"type":"LineString","coordinates":[[-5.16438,36.73467],[-5.16433,36.73468],[-5.16429,36.73468],[-5.16398,36.7347],[-5.16393,36.73471],[-5.16393,36.73469],[-5.16392,36.73468],[-5.16392,36.73467],[-5.16438,36.73463],[-5.16438,36.73467]]}},{"type":"Feature","properties":{"name":"Plazuela Arquitecto Pons Sorolla","kind":"road","road":"pedestrian","osm":596574334},"geometry":{"type":"LineString","coordinates":[[-5.16438,36.73463],[-5.16449,36.73462],[-5.16463,36.73461],[-5.16463,36.73463],[-5.16453,36.73477],[-5.16451,36.73477],[-5.16447,36.73474],[-5.16444,36.73471],[-5.16441,36.7347],[-5.16438,36.73467],[-5.16438,36.73463]]}},{"type":"Feature","properties":{"name":"","kind":"park","road":"","osm":597003917},"geometry":{"type":"Polygon","coordinates":[[[-5.16412,36.73747],[-5.16411,36.73766],[-5.16409,36.73768],[-5.16393,36.73771],[-5.16392,36.73748],[-5.16402,36.73748],[-5.16412,36.73747]]]}},{"type":"Feature","properties":{"name":"","kind":"park","road":"","osm":597003940},"geometry":{"type":"Polygon","coordinates":[[[-5.16464,36.73434],[-5.16466,36.73434],[-5.16467,36.73435],[-5.16468,36.73437],[-5.16469,36.73438],[-5.16468,36.73439],[-5.16467,36.73441],[-5.16466,36.73442],[-5.16464,36.73442],[-5.16463,36.73442],[-5.16461,36.73442],[-5.1646,36.73441],[-5.16458,36.7344],[-5.16458,36.73439],[-5.16458,36.73438],[-5.16458,36.73436],[-5.16459,36.73435],[-5.16461,36.73434],[-5.16462,36.73433],[-5.16464,36.73434]]]}},{"type":"Feature","properties":{"name":"Avenida de Málaga","kind":"road","road":"secondary","osm":601738493},"geometry":{"type":"LineString","coordinates":[[-5.15339,36.74944],[-5.15318,36.74956]]}},{"type":"Feature","properties":{"name":"","kind":"road","road":"secondary","osm":601738497},"geometry":{"type":"LineString","coordinates":[[-5.15308,36.74961],[-5.15312,36.74968],[-5.15318,36.74972]]}},{"type":"Feature","properties":{"name":"Avenida de Málaga","kind":"road","road":"secondary","osm":601738499},"geometry":{"type":"LineString","coordinates":[[-5.15318,36.74972],[-5.15344,36.74956]]}},{"type":"Feature","properties":{"name":"Avenida de Málaga","kind":"road","road":"secondary","osm":601738502},"geometry":{"type":"LineString","coordinates":[[-5.15308,36.74961],[-5.15302,36.74969],[-5.15274,36.7499],[-5.15205,36.75043],[-5.15168,36.7508],[-5.15155,36.75095],[-5.15136,36.75117]]}},{"type":"Feature","properties":{"name":"Avenida de Málaga","kind":"road","road":"secondary","osm":601738507},"geometry":{"type":"LineString","coordinates":[[-5.15344,36.74956],[-5.15354,36.74949],[-5.15356,36.74949],[-5.15392,36.74926],[-5.15456,36.74891],[-5.1546,36.7489],[-5.15525,36.74854]]}},{"type":"Feature","properties":{"name":"","kind":"road","road":"secondary","osm":601738512},"geometry":{"type":"LineString","coordinates":[[-5.15344,36.74956],[-5.15343,36.7495],[-5.15339,36.74944]]}},{"type":"Feature","properties":{"name":"","kind":"road","road":"tertiary","osm":606925499},"geometry":{"type":"LineString","coordinates":[[-5.15318,36.74956],[-5.1531,36.74956],[-5.15305,36.74958]]}},{"type":"Feature","properties":{"name":"Avenida de la Serranía","kind":"road","road":"secondary","osm":606925502},"geometry":{"type":"LineString","coordinates":[[-5.15277,36.74922],[-5.15305,36.74958]]}},{"type":"Feature","properties":{"name":"","kind":"water","road":"","osm":660626666},"geometry":{"type":"Polygon","coordinates":[[[-5.15822,36.74914],[-5.15822,36.74913],[-5.15822,36.74912],[-5.15822,36.74911],[-5.15823,36.7491],[-5.15824,36.7491],[-5.15825,36.74909],[-5.15827,36.7491],[-5.15828,36.7491],[-5.15828,36.74911],[-5.15829,36.74912],[-5.15829,36.74913],[-5.15828,36.74914],[-5.15827,36.74915],[-5.15826,36.74915],[-5.15825,36.74915],[-5.15824,36.74915],[-5.15823,36.74915],[-5.15822,36.74914]]]}},{"type":"Feature","properties":{"name":"Jardines de la Casa del Rey Moro","kind":"park","road":"","osm":683748541},"geometry":{"type":"Polygon","coordinates":[[[-5.16406,36.73977],[-5.16412,36.73979],[-5.16422,36.73977],[-5.16424,36.73977],[-5.16421,36.7398],[-5.1642,36.73982],[-5.16417,36.73982],[-5.16416,36.73989],[-5.16419,36.73989],[-5.16419,36.7399],[-5.16434,36.7399],[-5.16435,36.73988],[-5.16436,36.73988],[-5.16437,36.73988],[-5.16441,36.73988],[-5.1644,36.73991],[-5.1644,36.73992],[-5.16441,36.73998],[-5.16438,36.73998],[-5.1643,36.73994],[-5.16423,36.73998],[-5.1642,36.74],[-5.16417,36.73998],[-5.16418,36.73995],[-5.16398,36.73992],[-5.16378,36.73988],[-5.1637,36.7398],[-5.16368,36.73983],[-5.16358,36.73976],[-5.16352,36.7397],[-5.1636,36.7397],[-5.16366,36.73969],[-5.16373,36.73965],[-5.16376,36.73964],[-5.1638,36.73965],[-5.16386,36.73968],[-5.16388,36.73969],[-5.16397,36.73973],[-5.16401,36.73974],[-5.16406,36.73977]]]}},{"type":"Feature","properties":{"name":"","kind":"road","road":"secondary","osm":692572686},"geometry":{"type":"LineString","coordinates":[[-5.16469,36.7343],[-5.16465,36.73429],[-5.16461,36.73429],[-5.16458,36.7343],[-5.16455,36.73432],[-5.16452,36.73434],[-5.16451,36.73437]]}},{"type":"Feature","properties":{"name":"Calle Salvador Marín Carrasco","kind":"road","road":"pedestrian","osm":992199574},"geometry":{"type":"LineString","coordinates":[[-5.1659,36.7341],[-5.16625,36.73399],[-5.16641,36.73394]]}},{"type":"Feature","properties":{"name":"Calle Lucero","kind":"road","road":"pedestrian","osm":992199575},"geometry":{"type":"LineString","coordinates":[[-5.16625,36.73399],[-5.1662,36.73392],[-5.16604,36.73372]]}},{"type":"Feature","properties":{"name":"Calle San Francisco de Asís","kind":"road","road":"tertiary","osm":992199578},"geometry":{"type":"LineString","coordinates":[[-5.16511,36.72918],[-5.16512,36.72922],[-5.16514,36.72959],[-5.16517,36.72989],[-5.16513,36.73065],[-5.16508,36.73119],[-5.16509,36.73124],[-5.16507,36.73149],[-5.16505,36.73208],[-5.16498,36.73286],[-5.16488,36.73348]]}},{"type":"Feature","properties":{"name":"","kind":"road","road":"secondary","osm":992297106},"geometry":{"type":"LineString","coordinates":[[-5.1615,36.73268],[-5.16159,36.73276],[-5.16172,36.73287],[-5.16221,36.73335],[-5.16242,36.73354],[-5.16263,36.73369],[-5.16292,36.73383],[-5.16309,36.73391],[-5.16339,36.73404],[-5.16365,36.73416],[-5.16402,36.73439],[-5.16414,36.73445],[-5.16419,36.73446],[-5.16426,36.73448]]}},{"type":"Feature","properties":{"name":"","kind":"road","road":"secondary","osm":997930732},"geometry":{"type":"LineString","coordinates":[[-5.16928,36.74934],[-5.16926,36.74929],[-5.16922,36.74918],[-5.16918,36.74909],[-5.16915,36.74905],[-5.16911,36.74901],[-5.16906,36.749],[-5.16903,36.749],[-5.169,36.74901],[-5.16898,36.74903],[-5.16896,36.74905],[-5.16896,36.74907],[-5.16896,36.7491],[-5.16898,36.74912],[-5.16899,36.74915]]}},{"type":"Feature","properties":{"name":"Calle Virgen de los Remedios","kind":"road","road":"pedestrian","osm":997991218},"geometry":{"type":"LineString","coordinates":[[-5.16524,36.74235],[-5.16525,36.74237],[-5.16543,36.74266]]}},{"type":"Feature","properties":{"name":"Calle José Aparicio","kind":"road","road":"pedestrian","osm":997991221},"geometry":{"type":"LineString","coordinates":[[-5.16678,36.74196],[-5.16671,36.74186],[-5.16643,36.74148]]}},{"type":"Feature","properties":{"name":"Calle Guadalhorce","kind":"road","road":"tertiary","osm":997991224},"geometry":{"type":"LineString","coordinates":[[-5.15863,36.75029],[-5.15867,36.75023]]}},{"type":"Feature","properties":{"name":"Plaza de los Funcionarios Municipales","kind":"road","road":"pedestrian","osm":997991225},"geometry":{"type":"LineString","coordinates":[[-5.16508,36.74686],[-5.16492,36.74694],[-5.1649,36.74695],[-5.16487,36.74698],[-5.16485,36.74701],[-5.16484,36.74703],[-5.16483,36.74706],[-5.16483,36.74709],[-5.16484,36.74713],[-5.16504,36.74704],[-5.16508,36.7471],[-5.16511,36.74714],[-5.16516,36.74712],[-5.16515,36.7471],[-5.16504,36.74694],[-5.16511,36.74691],[-5.16508,36.74686]]}},{"type":"Feature","properties":{"name":"Calle Benaoján","kind":"road","road":"pedestrian","osm":998139516},"geometry":{"type":"LineString","coordinates":[[-5.15465,36.75069],[-5.1546,36.75063],[-5.15454,36.75055],[-5.15419,36.7501]]}},{"type":"Feature","properties":{"name":"Calle Guadalhorce","kind":"road","road":"tertiary","osm":998139521},"geometry":{"type":"LineString","coordinates":[[-5.15867,36.75023],[-5.15881,36.75011]]}},{"type":"Feature","properties":{"name":"Pasaje Cayetano","kind":"road","road":"pedestrian","osm":998139523},"geometry":{"type":"LineString","coordinates":[[-5.15637,36.74854],[-5.15631,36.74843],[-5.15627,36.74838],[-5.15601,36.74809]]}},{"type":"Feature","properties":{"name":"Pasaje Málaga","kind":"road","road":"pedestrian","osm":998139524},"geometry":{"type":"LineString","coordinates":[[-5.15667,36.74843],[-5.1566,36.74832],[-5.15627,36.74794]]}},{"type":"Feature","properties":{"name":"Calle Almargen","kind":"road","road":"pedestrian","osm":998139528},"geometry":{"type":"LineString","coordinates":[[-5.15685,36.74657],[-5.15711,36.74637]]}},{"type":"Feature","properties":{"name":"Calle Espinillos","kind":"road","road":"tertiary","osm":998139535},"geometry":{"type":"LineString","coordinates":[[-5.16007,36.7458],[-5.16004,36.74576],[-5.1596,36.74519]]}},{"type":"Feature","properties":{"name":"","kind":"road","road":"pedestrian","osm":998218794},"geometry":{"type":"LineString","coordinates":[[-5.16581,36.73764],[-5.1658,36.73764],[-5.16568,36.73764]]}},{"type":"Feature","properties":{"name":"","kind":"park","road":"","osm":998222851},"geometry":{"type":"Polygon","coordinates":[[[-5.16527,36.73504],[-5.16524,36.73504],[-5.16522,36.73501],[-5.16523,36.73487],[-5.16522,36.73479],[-5.1652,36.73475],[-5.16515,36.73468],[-5.165,36.73452],[-5.16503,36.7345],[-5.16516,36.73462],[-5.16526,36.73474],[-5.16541,36.73489],[-5.16546,36.73495],[-5.16527,36.73504]]]}},{"type":"Feature","properties":{"name":"Calle Sevilla","kind":"road","road":"secondary","osm":998717787},"geometry":{"type":"LineString","coordinates":[[-5.16886,36.74876],[-5.16891,36.74893],[-5.16893,36.74905],[-5.16894,36.74909],[-5.16895,36.74911],[-5.16897,36.74914],[-5.16899,36.74915]]}},{"type":"Feature","properties":{"name":"","kind":"road","road":"pedestrian","osm":1010343625},"geometry":{"type":"LineString","coordinates":[[-5.16591,36.737],[-5.16571,36.73686]]}},{"type":"Feature","properties":{"name":"Calle Alférez Ramón Gómez de las Cortinas","kind":"road","road":"pedestrian","osm":1010343626},"geometry":{"type":"LineString","coordinates":[[-5.16436,36.73768],[-5.16444,36.73771],[-5.16446,36.7377],[-5.16455,36.73768],[-5.16462,36.73767],[-5.16466,36.73768]]}},{"type":"Feature","properties":{"name":"Calle Felicidad","kind":"road","road":"pedestrian","osm":1011223780},"geometry":{"type":"LineString","coordinates":[[-5.16,36.74172],[-5.15992,36.74175],[-5.15985,36.7418],[-5.15982,36.74179]]}},{"type":"Feature","properties":{"name":"Calle Miradores","kind":"road","road":"pedestrian","osm":1011223783},"geometry":{"type":"LineString","coordinates":[[-5.16205,36.74061],[-5.16179,36.74032]]}},{"type":"Feature","properties":{"name":"Calle Los Vicentes","kind":"road","road":"pedestrian","osm":1011223787},"geometry":{"type":"LineString","coordinates":[[-5.16386,36.74266],[-5.16357,36.7424]]}},{"type":"Feature","properties":{"name":"Avenida Ricardo Navarrete","kind":"road","road":"tertiary","osm":1011299066},"geometry":{"type":"LineString","coordinates":[[-5.15768,36.74811],[-5.15772,36.74809],[-5.15775,36.74807],[-5.15775,36.74804]]}},{"type":"Feature","properties":{"name":"Avenida Ricardo Navarrete","kind":"road","road":"tertiary","osm":1011299067},"geometry":{"type":"LineString","coordinates":[[-5.15703,36.74798],[-5.15709,36.74805],[-5.15714,36.74808],[-5.15722,36.74809],[-5.15728,36.7481],[-5.15731,36.7481],[-5.15739,36.7481],[-5.15743,36.7481],[-5.1575,36.7481],[-5.15754,36.7481],[-5.15768,36.74811]]}},{"type":"Feature","properties":{"name":"Calle Andrés Aguilar Gracián","kind":"road","road":"secondary","osm":1011299078},"geometry":{"type":"LineString","coordinates":[[-5.15339,36.74944],[-5.15314,36.74915],[-5.15306,36.74906]]}},{"type":"Feature","properties":{"name":"Avenida Ricardo Navarrete","kind":"road","road":"tertiary","osm":1011299081},"geometry":{"type":"LineString","coordinates":[[-5.15681,36.74773],[-5.15688,36.74781],[-5.15703,36.74798]]}},{"type":"Feature","properties":{"name":"Avenida de Málaga","kind":"road","road":"secondary","osm":1011516492},"geometry":{"type":"LineString","coordinates":[[-5.15696,36.74756],[-5.15715,36.74745],[-5.15751,36.74725],[-5.15815,36.74689],[-5.15821,36.74686],[-5.15856,36.74666],[-5.15886,36.74649],[-5.15896,36.74643],[-5.15899,36.74642],[-5.15953,36.74611],[-5.15965,36.74604],[-5.15978,36.74597]]}},{"type":"Feature","properties":{"name":"Avenida de Málaga","kind":"road","road":"secondary","osm":1011516493},"geometry":{"type":"LineString","coordinates":[[-5.15541,36.74842],[-5.15547,36.74839],[-5.15551,36.74837]]}},{"type":"Feature","properties":{"name":"Calle Sevilla","kind":"road","road":"secondary","osm":1011516499},"geometry":{"type":"LineString","coordinates":[[-5.16826,36.74789],[-5.16835,36.74801],[-5.16878,36.74863],[-5.16886,36.74876]]}},{"type":"Feature","properties":{"name":"Avenida Martínez Astein","kind":"road","road":"secondary","osm":1012075753},"geometry":{"type":"LineString","coordinates":[[-5.16172,36.74792],[-5.16144,36.74759]]}},{"type":"Feature","properties":{"name":"Glorieta Cayetano Arroyo","kind":"road","road":"pedestrian","osm":1012404183},"geometry":{"type":"LineString","coordinates":[[-5.16649,36.7476],[-5.16648,36.74761],[-5.16646,36.74762],[-5.16611,36.74758],[-5.16611,36.74757],[-5.1661,36.74756],[-5.16636,36.74745],[-5.16637,36.74745],[-5.16639,36.74746],[-5.16649,36.7476]]}},{"type":"Feature","properties":{"name":"Plaza Don Francisco Criado","kind":"road","road":"pedestrian","osm":1012720424},"geometry":{"type":"LineString","coordinates":[[-5.16719,36.7482],[-5.16702,36.7481],[-5.16697,36.74808],[-5.16695,36.74812],[-5.16693,36.74814],[-5.16692,36.74817],[-5.16692,36.74819],[-5.16693,36.74822],[-5.16696,36.74826],[-5.16698,36.7483],[-5.16719,36.7482]]}},{"type":"Feature","properties":{"name":"","kind":"park","road":"","osm":1012720427},"geometry":{"type":"Polygon","coordinates":[[[-5.16629,36.7494],[-5.1662,36.74945],[-5.16609,36.74937],[-5.16622,36.74931],[-5.16629,36.7494]]]}},{"type":"Feature","properties":{"name":"","kind":"park","road":"","osm":1012720428},"geometry":{"type":"Polygon","coordinates":[[[-5.16637,36.74952],[-5.1663,36.74942],[-5.16622,36.74946],[-5.16633,36.74954],[-5.16637,36.74952]]]}},{"type":"Feature","properties":{"name":"","kind":"park","road":"","osm":1013036160},"geometry":{"type":"Polygon","coordinates":[[[-5.16216,36.74798],[-5.16213,36.74797],[-5.16184,36.74811],[-5.16189,36.74818],[-5.16193,36.74818],[-5.1622,36.74803],[-5.16216,36.74798]]]}},{"type":"Feature","properties":{"name":"","kind":"park","road":"","osm":1013036161},"geometry":{"type":"Polygon","coordinates":[[[-5.16175,36.74828],[-5.16171,36.7483],[-5.16166,36.74825],[-5.16171,36.74822],[-5.16175,36.74828]]]}},{"type":"Feature","properties":{"name":"","kind":"park","road":"","osm":1013036162},"geometry":{"type":"Polygon","coordinates":[[[-5.16167,36.7483],[-5.16163,36.74825],[-5.16156,36.74825],[-5.16132,36.74838],[-5.16139,36.74846],[-5.16167,36.74832],[-5.16167,36.7483]]]}},{"type":"Feature","properties":{"name":"Calle Córdoba","kind":"road","road":"tertiary","osm":1013379144},"geometry":{"type":"LineString","coordinates":[[-5.15912,36.74984],[-5.15981,36.74927],[-5.15996,36.74894]]}},{"type":"Feature","properties":{"name":"","kind":"park","road":"","osm":1014570134},"geometry":{"type":"Polygon","coordinates":[[[-5.16691,36.73762],[-5.16699,36.73756],[-5.16701,36.73759],[-5.1671,36.73757],[-5.16708,36.73749],[-5.16706,36.73749],[-5.16705,36.73749],[-5.16703,36.7375],[-5.16702,36.73751],[-5.16701,36.73751],[-5.16701,36.73752],[-5.16699,36.73752],[-5.16699,36.73748],[-5.16687,36.73748],[-5.16682,36.73743],[-5.16683,36.73742],[-5.16684,36.73741],[-5.16683,36.73739],[-5.16683,36.73738],[-5.16681,36.73737],[-5.16681,36.73736],[-5.16683,36.73735],[-5.1668,36.73732],[-5.16676,36.73733],[-5.16666,36.73739],[-5.16668,36.73743],[-5.16654,36.73751],[-5.16648,36.73754],[-5.16652,36.73757],[-5.16653,36.7376],[-5.16657,36.73758],[-5.16667,36.73753],[-5.16671,36.73759],[-5.16675,36.73756],[-5.16674,36.73756],[-5.16679,36.73752],[-5.16681,36.73754],[-5.16688,36.73749],[-5.16694,36.73754],[-5.16689,36.7376],[-5.16691,36.73762]]]}},{"type":"Feature","properties":{"name":"","kind":"park","road":"","osm":1018617262},"geometry":{"type":"Polygon","coordinates":[[[-5.16385,36.73465],[-5.16377,36.73466],[-5.16377,36.73464],[-5.16367,36.73463],[-5.16364,36.73463],[-5.16364,36.7346],[-5.16365,36.73455],[-5.16384,36.73456],[-5.16385,36.73465]]]}},{"type":"Feature","properties":{"name":"","kind":"park","road":"","osm":1019669552},"geometry":{"type":"Polygon","coordinates":[[[-5.16147,36.73252],[-5.16144,36.73253],[-5.16126,36.73238],[-5.16109,36.73226],[-5.16095,36.73218],[-5.16101,36.73207],[-5.16141,36.7322],[-5.16145,36.73237],[-5.16147,36.73252]]]}},{"type":"Feature","properties":{"name":"","kind":"park","road":"","osm":1021735639},"geometry":{"type":"Polygon","coordinates":[[[-5.16797,36.74232],[-5.16794,36.74233],[-5.16765,36.74195],[-5.16773,36.74192],[-5.16784,36.74211],[-5.16794,36.74228],[-5.16797,36.74232]]]}},{"type":"Feature","properties":{"name":"","kind":"park","road":"","osm":1021735640},"geometry":{"type":"Polygon","coordinates":[[[-5.16732,36.74164],[-5.16722,36.74168],[-5.16684,36.74117],[-5.16693,36.74113],[-5.16732,36.74164]]]}},{"type":"Feature","properties":{"name":"","kind":"park","road":"","osm":1021735643},"geometry":{"type":"Polygon","coordinates":[[[-5.16755,36.74163],[-5.16743,36.7417],[-5.16724,36.74144],[-5.16745,36.74146],[-5.16755,36.74163]]]}},{"type":"Feature","properties":{"name":"","kind":"park","road":"","osm":1021735644},"geometry":{"type":"Polygon","coordinates":[[[-5.16747,36.74173],[-5.16757,36.74168],[-5.16769,36.74185],[-5.1677,36.74188],[-5.16762,36.74192],[-5.16747,36.74173]]]}},{"type":"Feature","properties":{"name":"","kind":"park","road":"","osm":1021735647},"geometry":{"type":"Polygon","coordinates":[[[-5.16778,36.74167],[-5.16777,36.74166],[-5.16779,36.74165],[-5.16774,36.74158],[-5.16761,36.74164],[-5.16764,36.7417],[-5.16767,36.74171],[-5.16778,36.74167]]]}},{"type":"Feature","properties":{"name":"","kind":"park","road":"","osm":1021735648},"geometry":{"type":"Polygon","coordinates":[[[-5.1678,36.7417],[-5.16767,36.74174],[-5.16771,36.74181],[-5.16786,36.74176],[-5.16783,36.74171],[-5.16781,36.74171],[-5.1678,36.7417]]]}},{"type":"Feature","properties":{"name":"","kind":"park","road":"","osm":1021735649},"geometry":{"type":"Polygon","coordinates":[[[-5.16806,36.7417],[-5.16798,36.74173],[-5.1679,36.74175],[-5.16786,36.74169],[-5.16788,36.74169],[-5.16787,36.74167],[-5.16795,36.74163],[-5.16797,36.74166],[-5.16801,36.74169],[-5.16806,36.7417]]]}},{"type":"Feature","properties":{"name":"","kind":"park","road":"","osm":1021735650},"geometry":{"type":"Polygon","coordinates":[[[-5.16794,36.74161],[-5.16785,36.74165],[-5.16784,36.74163],[-5.16782,36.74164],[-5.16778,36.74157],[-5.16792,36.7415],[-5.16795,36.74154],[-5.16794,36.74157],[-5.16794,36.7416],[-5.16794,36.74161]]]}},{"type":"Feature","properties":{"name":"","kind":"park","road":"","osm":1021735652},"geometry":{"type":"Polygon","coordinates":[[[-5.16765,36.74144],[-5.16763,36.74146],[-5.16764,36.74149],[-5.16754,36.74153],[-5.16749,36.74145],[-5.16753,36.74143],[-5.16762,36.7414],[-5.16765,36.74144]]]}},{"type":"Feature","properties":{"name":"","kind":"park","road":"","osm":1021735653},"geometry":{"type":"Polygon","coordinates":[[[-5.16772,36.74155],[-5.1677,36.74152],[-5.16765,36.74151],[-5.16755,36.74155],[-5.16759,36.74161],[-5.16772,36.74155]]]}},{"type":"Feature","properties":{"name":"","kind":"park","road":"","osm":1021735654},"geometry":{"type":"Polygon","coordinates":[[[-5.1678,36.74135],[-5.16779,36.74138],[-5.16776,36.74139],[-5.16771,36.74144],[-5.16769,36.74143],[-5.16767,36.74144],[-5.16764,36.74139],[-5.16778,36.74132],[-5.1678,36.74135]]]}},{"type":"Feature","properties":{"name":"","kind":"park","road":"","osm":1021735655},"geometry":{"type":"Polygon","coordinates":[[[-5.16789,36.74146],[-5.16785,36.7414],[-5.1678,36.7414],[-5.16778,36.74141],[-5.16775,36.74145],[-5.16775,36.74148],[-5.16773,36.7415],[-5.16776,36.74153],[-5.16789,36.74146]]]}},{"type":"Feature","properties":{"name":"","kind":"park","road":"","osm":1024653952},"geometry":{"type":"Polygon","coordinates":[[[-5.16623,36.73124],[-5.16599,36.73119],[-5.16602,36.73113],[-5.16612,36.731],[-5.16622,36.73087],[-5.16627,36.73083],[-5.1663,36.7308],[-5.16637,36.73076],[-5.1665,36.7307],[-5.16666,36.73065],[-5.16671,36.73063],[-5.16681,36.73058],[-5.16681,36.73059],[-5.16668,36.73069],[-5.16664,36.73069],[-5.1666,36.7307],[-5.1665,36.73077],[-5.16649,36.73079],[-5.16644,36.73083],[-5.1664,36.73086],[-5.16637,36.73089],[-5.16635,36.73094],[-5.16633,36.73097],[-5.16627,36.73096],[-5.16621,36.73108],[-5.16617,36.73119],[-5.16624,36.73121],[-5.16623,36.73124]]]}},{"type":"Feature","properties":{"name":"","kind":"park","road":"","osm":1060216935},"geometry":{"type":"Polygon","coordinates":[[[-5.16342,36.74019],[-5.1635,36.74025],[-5.16362,36.74035],[-5.16388,36.74058],[-5.16393,36.74054],[-5.16385,36.74045],[-5.16382,36.74046],[-5.16368,36.74035],[-5.16363,36.74031],[-5.16344,36.74017],[-5.16342,36.74019]]]}},{"type":"Feature","properties":{"name":"","kind":"park","road":"","osm":1060216941},"geometry":{"type":"Polygon","coordinates":[[[-5.16364,36.74021],[-5.16362,36.74015],[-5.16348,36.74009],[-5.16344,36.74012],[-5.16347,36.74015],[-5.16361,36.74025],[-5.16364,36.74021]]]}},{"type":"Feature","properties":{"name":"","kind":"park","road":"","osm":1060216950},"geometry":{"type":"Polygon","coordinates":[[[-5.16336,36.74004],[-5.16338,36.74],[-5.16342,36.74001],[-5.1634,36.74005],[-5.16345,36.74007],[-5.1634,36.74012],[-5.16333,36.74009],[-5.16336,36.74004]]]}},{"type":"Feature","properties":{"name":"","kind":"park","road":"","osm":1060216969},"geometry":{"type":"Polygon","coordinates":[[[-5.16398,36.74055],[-5.16412,36.74055],[-5.16405,36.74053],[-5.16398,36.74053],[-5.16398,36.74055]]]}},{"type":"Feature","properties":{"name":"","kind":"park","road":"","osm":1060216970},"geometry":{"type":"Polygon","coordinates":[[[-5.16417,36.7407],[-5.16419,36.74069],[-5.16419,36.74066],[-5.16417,36.74066],[-5.16415,36.74064],[-5.16411,36.74067],[-5.16417,36.7407]]]}},{"type":"Feature","properties":{"name":"","kind":"park","road":"","osm":1060216971},"geometry":{"type":"Polygon","coordinates":[[[-5.16421,36.74071],[-5.16424,36.74068],[-5.16425,36.74069],[-5.16428,36.74068],[-5.16432,36.74068],[-5.16435,36.74065],[-5.16437,36.74065],[-5.16429,36.74073],[-5.16421,36.74071]]]}},{"type":"Feature","properties":{"name":"","kind":"park","road":"","osm":1060216973},"geometry":{"type":"Polygon","coordinates":[[[-5.16408,36.74043],[-5.16412,36.74041],[-5.16411,36.74039],[-5.16409,36.7404],[-5.16408,36.74038],[-5.16407,36.74037],[-5.16405,36.74037],[-5.16402,36.74038],[-5.16402,36.7404],[-5.16401,36.74041],[-5.16402,36.74044],[-5.16407,36.74042],[-5.16408,36.74043]]]}},{"type":"Feature","properties":{"name":"","kind":"park","road":"","osm":1060216979},"geometry":{"type":"Polygon","coordinates":[[[-5.16434,36.7406],[-5.16432,36.74063],[-5.16426,36.74059],[-5.16415,36.74058],[-5.16415,36.74055],[-5.16429,36.74055],[-5.16434,36.7406]]]}},{"type":"Feature","properties":{"name":"","kind":"park","road":"","osm":1060216982},"geometry":{"type":"Polygon","coordinates":[[[-5.16452,36.74072],[-5.16449,36.74067],[-5.16447,36.74066],[-5.16442,36.74061],[-5.1644,36.74062],[-5.16445,36.74066],[-5.16444,36.74066],[-5.16448,36.7407],[-5.16451,36.74073],[-5.16452,36.74072]]]}},{"type":"Feature","properties":{"name":"","kind":"road","road":"pedestrian","osm":1063170397},"geometry":{"type":"LineString","coordinates":[[-5.16543,36.74266],[-5.16545,36.7427]]}},{"type":"Feature","properties":{"name":"Plaza de España","kind":"road","road":"pedestrian","osm":1063332930},"geometry":{"type":"LineString","coordinates":[[-5.16608,36.74094],[-5.16612,36.74101],[-5.16617,36.74111],[-5.16621,36.74114],[-5.16626,36.74117],[-5.16632,36.74131],[-5.1663,36.74135],[-5.16627,36.74141],[-5.16625,36.74146],[-5.16627,36.74155],[-5.16637,36.74151],[-5.1664,36.74149],[-5.16643,36.74148],[-5.16645,36.74147],[-5.16659,36.74142],[-5.16653,36.74134],[-5.16647,36.74125],[-5.16645,36.74122],[-5.16639,36.74113],[-5.16638,36.74112],[-5.16627,36.74097],[-5.16626,36.74095],[-5.16622,36.74097],[-5.16611,36.74093],[-5.16608,36.74094]]}},{"type":"Feature","properties":{"name":"Avenida Ricardo Navarrete","kind":"road","road":"tertiary","osm":1350364608},"geometry":{"type":"LineString","coordinates":[[-5.16021,36.74839],[-5.16025,36.74845],[-5.16044,36.74865],[-5.1605,36.74868],[-5.16056,36.74867]]}},{"type":"Feature","properties":{"name":"Calle de la Luna","kind":"road","road":"pedestrian","osm":1394488606},"geometry":{"type":"LineString","coordinates":[[-5.15797,36.75013],[-5.15827,36.75014]]}},{"type":"Feature","properties":{"name":"","kind":"road","road":"pedestrian","osm":1394501143},"geometry":{"type":"LineString","coordinates":[[-5.16506,36.74755],[-5.16534,36.74751]]}},{"type":"Feature","properties":{"name":"","kind":"road","road":"pedestrian","osm":1394501144},"geometry":{"type":"LineString","coordinates":[[-5.16491,36.74746],[-5.16506,36.74755],[-5.16506,36.74765],[-5.16505,36.74773],[-5.16504,36.74778]]}},{"type":"Feature","properties":{"name":"Calle Virgen de la Paz","kind":"road","road":"tertiary","osm":1419111770},"geometry":{"type":"LineString","coordinates":[[-5.16645,36.7421],[-5.16646,36.74213],[-5.16648,36.74219],[-5.16649,36.74221],[-5.16663,36.74256],[-5.16675,36.74284],[-5.16679,36.74295],[-5.16683,36.74301],[-5.16703,36.74349],[-5.16706,36.74356]]}},{"type":"Feature","properties":{"name":"Avenida de Andalucía","kind":"road","road":"secondary","osm":1434388582},"geometry":{"type":"LineString","coordinates":[[-5.16181,36.74809],[-5.16183,36.74806],[-5.16187,36.74802],[-5.16191,36.74799]]}},{"type":"Feature","properties":{"name":"Avenida de Andalucía","kind":"road","road":"secondary","osm":1434388583},"geometry":{"type":"LineString","coordinates":[[-5.16191,36.74799],[-5.16185,36.74801],[-5.16182,36.74802],[-5.16178,36.74802]]}},{"type":"Feature","properties":{"name":"Avenida de Andalucía","kind":"road","road":"tertiary","osm":1434388584},"geometry":{"type":"LineString","coordinates":[[-5.16155,36.74816],[-5.16152,36.74819],[-5.16147,36.74822]]}},{"type":"Feature","properties":{"name":"Avenida de Andalucía","kind":"road","road":"tertiary","osm":1434388585},"geometry":{"type":"LineString","coordinates":[[-5.16147,36.74822],[-5.16153,36.7482],[-5.16159,36.74819]]}},{"type":"Feature","properties":{"name":"","kind":"road","road":"secondary","osm":1435624410},"geometry":{"type":"LineString","coordinates":[[-5.16456,36.73446],[-5.16459,36.73447]]}},{"type":"Feature","properties":{"name":"","kind":"road","road":"secondary","osm":1435624411},"geometry":{"type":"LineString","coordinates":[[-5.16459,36.73447],[-5.16461,36.73448]]}},{"type":"Feature","properties":{"name":"","kind":"road","road":"secondary","osm":1435624412},"geometry":{"type":"LineString","coordinates":[[-5.16451,36.73438],[-5.16452,36.73441],[-5.16453,36.73443],[-5.16454,36.73444],[-5.16456,36.73446]]}},{"type":"Feature","properties":{"name":"","kind":"road","road":"secondary","osm":1435624413},"geometry":{"type":"LineString","coordinates":[[-5.16451,36.73437],[-5.16451,36.73438]]}},{"type":"Feature","properties":{"name":"","kind":"road","road":"secondary","osm":1435624414},"geometry":{"type":"LineString","coordinates":[[-5.16474,36.73434],[-5.16473,36.73432],[-5.16472,36.73431],[-5.16469,36.7343]]}},{"type":"Feature","properties":{"name":"","kind":"road","road":"secondary","osm":1435624415},"geometry":{"type":"LineString","coordinates":[[-5.16476,36.73437],[-5.16474,36.73434]]}},{"type":"Feature","properties":{"name":"","kind":"road","road":"secondary","osm":1435624416},"geometry":{"type":"LineString","coordinates":[[-5.16467,36.73447],[-5.16471,36.73446],[-5.16474,36.73443],[-5.16475,36.7344],[-5.16476,36.73437]]}},{"type":"Feature","properties":{"name":"","kind":"road","road":"secondary","osm":1435624417},"geometry":{"type":"LineString","coordinates":[[-5.16461,36.73448],[-5.16464,36.73448],[-5.16467,36.73447]]}},{"type":"Feature","properties":{"name":"Plaza Concepción García Redondo","kind":"road","road":"secondary","osm":1435639754},"geometry":{"type":"LineString","coordinates":[[-5.16521,36.74634],[-5.16522,36.74636]]}},{"type":"Feature","properties":{"name":"Calle Comandante Salvador Carrasco","kind":"road","road":"secondary","osm":1435639755},"geometry":{"type":"LineString","coordinates":[[-5.16554,36.74631],[-5.16551,36.74629],[-5.16549,36.74628],[-5.16547,36.74628],[-5.16545,36.74628]]}},{"type":"Feature","properties":{"name":"Plaza Concepción García Redondo","kind":"road","road":"secondary","osm":1435639756},"geometry":{"type":"LineString","coordinates":[[-5.16539,36.74622],[-5.16536,36.74621],[-5.16534,36.74621],[-5.16532,36.74621],[-5.16528,36.74622],[-5.16525,36.74623],[-5.16522,36.74626],[-5.16521,36.74629],[-5.1652,36.74632]]}},{"type":"Feature","properties":{"name":"Plaza Concepción García Redondo","kind":"road","road":"secondary","osm":1435639757},"geometry":{"type":"LineString","coordinates":[[-5.16541,36.74623],[-5.16539,36.74622]]}},{"type":"Feature","properties":{"name":"Plaza Concepción García Redondo","kind":"road","road":"secondary","osm":1435639758},"geometry":{"type":"LineString","coordinates":[[-5.16522,36.74636],[-5.16523,36.74637],[-5.16525,36.74639]]}},{"type":"Feature","properties":{"name":"Plaza Concepción García Redondo","kind":"road","road":"secondary","osm":1435639759},"geometry":{"type":"LineString","coordinates":[[-5.1652,36.74632],[-5.16521,36.74634]]}},{"type":"Feature","properties":{"name":"Plaza Concepción García Redondo","kind":"road","road":"secondary","osm":1435639760},"geometry":{"type":"LineString","coordinates":[[-5.16525,36.74639],[-5.16528,36.74641],[-5.16532,36.74641],[-5.16536,36.74641],[-5.1654,36.7464],[-5.16543,36.74637],[-5.16545,36.74635],[-5.16546,36.74631],[-5.16545,36.74628]]}},{"type":"Feature","properties":{"name":"Calle José María Castelló Madrid","kind":"road","road":"secondary","osm":1435639761},"geometry":{"type":"LineString","coordinates":[[-5.16551,36.7469],[-5.16555,36.74697]]}},{"type":"Feature","properties":{"name":"Calle José María Castelló Madrid","kind":"road","road":"secondary","osm":1435639762},"geometry":{"type":"LineString","coordinates":[[-5.16559,36.74703],[-5.16563,36.7471],[-5.16581,36.74739]]}},{"type":"Feature","properties":{"name":"Calle José María Castelló Madrid","kind":"road","road":"secondary","osm":1435639763},"geometry":{"type":"LineString","coordinates":[[-5.16555,36.74697],[-5.16559,36.74703]]}},{"type":"Feature","properties":{"name":"Calle José María Castelló Madrid","kind":"road","road":"secondary","osm":1435639764},"geometry":{"type":"LineString","coordinates":[[-5.16547,36.74684],[-5.16549,36.74688],[-5.16551,36.7469]]}},{"type":"Feature","properties":{"name":"Calle José María Castelló Madrid","kind":"road","road":"secondary","osm":1435639765},"geometry":{"type":"LineString","coordinates":[[-5.16543,36.74677],[-5.16547,36.74684]]}},{"type":"Feature","properties":{"name":"Calle José María Castelló Madrid","kind":"road","road":"secondary","osm":1435639766},"geometry":{"type":"LineString","coordinates":[[-5.16538,36.74671],[-5.16543,36.74677]]}},{"type":"Feature","properties":{"name":"Calle José Luis Ortiz Massaguer","kind":"road","road":"secondary","osm":1449592092},"geometry":{"type":"LineString","coordinates":[[-5.15306,36.74906],[-5.15277,36.74922]]}},{"type":"Feature","properties":{"name":"Avenida de Málaga","kind":"road","road":"secondary","osm":1449592097},"geometry":{"type":"LineString","coordinates":[[-5.15981,36.74593],[-5.15978,36.74597]]}},{"type":"Feature","properties":{"name":"Avenida de Málaga","kind":"road","road":"secondary","osm":1449592098},"geometry":{"type":"LineString","coordinates":[[-5.15978,36.74597],[-5.15985,36.74596]]}},{"type":"Feature","properties":{"name":"Plaza Ruedo Alameda","kind":"road","road":"tertiary","osm":1449592105},"geometry":{"type":"LineString","coordinates":[[-5.16513,36.73354],[-5.16488,36.73348]]}},{"type":"Feature","properties":{"name":"Calle San Antonio Tabares","kind":"road","road":"tertiary","osm":1449592106},"geometry":{"type":"LineString","coordinates":[[-5.15964,36.74463],[-5.1594,36.74443],[-5.15923,36.74429],[-5.15923,36.74421]]}},{"type":"Feature","properties":{"name":"Calle Sevilla","kind":"road","road":"tertiary","osm":1474771381},"geometry":{"type":"LineString","coordinates":[[-5.16657,36.74562],[-5.16699,36.74617],[-5.16736,36.74668],[-5.16739,36.74672],[-5.16771,36.74719],[-5.16791,36.74743],[-5.168,36.74754]]}},{"type":"Feature","properties":{"name":"Calle Sevilla","kind":"road","road":"secondary","osm":1474771383},"geometry":{"type":"LineString","coordinates":[[-5.17008,36.75202],[-5.17009,36.75199],[-5.17012,36.75189],[-5.17019,36.75157],[-5.17018,36.75138],[-5.17019,36.75123],[-5.17017,36.75114],[-5.17016,36.75106],[-5.17015,36.75091],[-5.1701,36.75072],[-5.17003,36.75051],[-5.16991,36.75024],[-5.16982,36.75009],[-5.16964,36.74984],[-5.16943,36.74955],[-5.16928,36.74934],[-5.16921,36.74932],[-5.16913,36.74921],[-5.16901,36.74903],[-5.169,36.74901],[-5.16897,36.74896],[-5.16886,36.74876]]}},{"type":"Feature","properties":{"name":"Plaza del Ahorro","kind":"road","road":"tertiary","osm":1474771386},"geometry":{"type":"LineString","coordinates":[[-5.16114,36.74619],[-5.16114,36.74621],[-5.16115,36.74623],[-5.16116,36.74625],[-5.16118,36.74627],[-5.16121,36.74628]]}},{"type":"Feature","properties":{"name":"Plaza del Ahorro","kind":"road","road":"tertiary","osm":1474771387},"geometry":{"type":"LineString","coordinates":[[-5.16133,36.74624],[-5.16134,36.74622]]}},{"type":"Feature","properties":{"name":"Plaza del Ahorro","kind":"road","road":"tertiary","osm":1474771388},"geometry":{"type":"LineString","coordinates":[[-5.16121,36.74628],[-5.16124,36.74628],[-5.16126,36.74628],[-5.16129,36.74627],[-5.16131,36.74626],[-5.16133,36.74624]]}},{"type":"Feature","properties":{"name":"Plaza del Ahorro","kind":"road","road":"tertiary","osm":1474771389},"geometry":{"type":"LineString","coordinates":[[-5.16116,36.74616],[-5.16114,36.74619]]}},{"type":"Feature","properties":{"name":"Plaza del Ahorro","kind":"road","road":"tertiary","osm":1474771390},"geometry":{"type":"LineString","coordinates":[[-5.16128,36.74613],[-5.16124,36.74612],[-5.16121,36.74613],[-5.16119,36.74614],[-5.16118,36.74614],[-5.16116,36.74616]]}},{"type":"Feature","properties":{"name":"Avenida Martínez Astein","kind":"road","road":"secondary","osm":1474771392},"geometry":{"type":"LineString","coordinates":[[-5.16055,36.74642],[-5.16026,36.74605],[-5.16018,36.74595],[-5.16015,36.74591]]}},{"type":"Feature","properties":{"name":"Avenida de Málaga","kind":"road","road":"secondary","osm":1474771393},"geometry":{"type":"LineString","coordinates":[[-5.1567,36.7477],[-5.15672,36.74772],[-5.15676,36.74773],[-5.15681,36.74773]]}},{"type":"Feature","properties":{"name":"Avenida de Málaga","kind":"road","road":"secondary","osm":1474771394},"geometry":{"type":"LineString","coordinates":[[-5.15681,36.74773],[-5.15691,36.74768],[-5.15692,36.74767],[-5.15697,36.74764],[-5.15697,36.74762],[-5.15698,36.74759],[-5.15696,36.74756]]}},{"type":"Feature","properties":{"name":"Avenida de Málaga","kind":"road","road":"secondary","osm":1474771395},"geometry":{"type":"LineString","coordinates":[[-5.15688,36.74753],[-5.15671,36.74761],[-5.15669,36.74766],[-5.15668,36.74768],[-5.1567,36.7477]]}},{"type":"Feature","properties":{"name":"","kind":"road","road":"secondary","osm":1474771396},"geometry":{"type":"LineString","coordinates":[[-5.15523,36.74851],[-5.15525,36.74854]]}},{"type":"Feature","properties":{"name":"Avenida de Málaga","kind":"road","road":"secondary","osm":1474771397},"geometry":{"type":"LineString","coordinates":[[-5.15551,36.74837],[-5.15594,36.74813],[-5.15601,36.74809],[-5.15605,36.74807],[-5.15619,36.74799],[-5.15623,36.74796],[-5.15627,36.74794],[-5.15651,36.74781],[-5.15661,36.74775],[-5.1567,36.7477]]}},{"type":"Feature","properties":{"name":"","kind":"road","road":"secondary","osm":1474771398},"geometry":{"type":"LineString","coordinates":[[-5.15525,36.7484],[-5.15523,36.74843],[-5.15521,36.74846]]}},{"type":"Feature","properties":{"name":"","kind":"road","road":"secondary","osm":1474771399},"geometry":{"type":"LineString","coordinates":[[-5.15525,36.74854],[-5.15529,36.74855],[-5.15534,36.74856],[-5.15538,36.74854],[-5.15541,36.74851],[-5.15543,36.74848],[-5.15542,36.74844],[-5.15541,36.74842]]}},{"type":"Feature","properties":{"name":"","kind":"road","road":"secondary","osm":1474771400},"geometry":{"type":"LineString","coordinates":[[-5.15521,36.74846],[-5.15521,36.74849],[-5.15523,36.74851]]}},{"type":"Feature","properties":{"name":"Avenida de Málaga","kind":"road","road":"secondary","osm":1474771401},"geometry":{"type":"LineString","coordinates":[[-5.15318,36.74956],[-5.15308,36.74961]]}},{"type":"Feature","properties":{"name":"","kind":"road","road":"tertiary","osm":1474771402},"geometry":{"type":"LineString","coordinates":[[-5.15305,36.74958],[-5.15297,36.74961],[-5.15275,36.74976],[-5.15248,36.74997],[-5.15216,36.75024],[-5.152,36.75039],[-5.15192,36.75047],[-5.15182,36.75057],[-5.15157,36.75083],[-5.1515,36.75092],[-5.15143,36.751],[-5.1514,36.75106],[-5.15136,36.75117]]}},{"type":"Feature","properties":{"name":"Avenida de la Serranía","kind":"road","road":"secondary","osm":1474771403},"geometry":{"type":"LineString","coordinates":[[-5.15305,36.74958],[-5.15308,36.74961]]}},{"type":"Feature","properties":{"name":"Avenida de Málaga","kind":"road","road":"secondary","osm":1474775659},"geometry":{"type":"LineString","coordinates":[[-5.15174,36.75089],[-5.15183,36.75081],[-5.15195,36.75069],[-5.15216,36.75049],[-5.15266,36.75006],[-5.15318,36.74972]]}},{"type":"Feature","properties":{"name":"Avenida de Andalucía","kind":"road","road":"secondary","osm":1474775662},"geometry":{"type":"LineString","coordinates":[[-5.16181,36.74809],[-5.16181,36.74806],[-5.1618,36.74803],[-5.16178,36.74802]]}},{"type":"Feature","properties":{"name":"Avenida de Andalucía","kind":"road","road":"secondary","osm":1474775663},"geometry":{"type":"LineString","coordinates":[[-5.16204,36.74792],[-5.16199,36.74794],[-5.16191,36.74799]]}},{"type":"Feature","properties":{"name":"Avenida de Andalucía","kind":"road","road":"secondary","osm":1474775664},"geometry":{"type":"LineString","coordinates":[[-5.16171,36.74803],[-5.16158,36.74809],[-5.16154,36.74813]]}},{"type":"Feature","properties":{"name":"Avenida de Andalucía","kind":"road","road":"secondary","osm":1474775665},"geometry":{"type":"LineString","coordinates":[[-5.16172,36.74815],[-5.16179,36.74811],[-5.16181,36.74809]]}},{"type":"Feature","properties":{"name":"Avenida de Andalucía","kind":"road","road":"secondary","osm":1474775666},"geometry":{"type":"LineString","coordinates":[[-5.16159,36.74819],[-5.16162,36.74819],[-5.16167,36.74817],[-5.16172,36.74815]]}},{"type":"Feature","properties":{"name":"Avenida de Andalucía","kind":"road","road":"secondary","osm":1474775667},"geometry":{"type":"LineString","coordinates":[[-5.16155,36.74816],[-5.16156,36.74817],[-5.16157,36.74818],[-5.16159,36.74819]]}},{"type":"Feature","properties":{"name":"Avenida de Andalucía","kind":"road","road":"secondary","osm":1474775669},"geometry":{"type":"LineString","coordinates":[[-5.16178,36.74802],[-5.16175,36.74802]]}},{"type":"Feature","properties":{"name":"Avenida Martínez Astein","kind":"road","road":"secondary","osm":1474805681},"geometry":{"type":"LineString","coordinates":[[-5.15998,36.74589],[-5.15991,36.7459],[-5.15986,36.74591],[-5.15981,36.74593]]}},{"type":"Feature","properties":{"name":"Avenida Martínez Astein","kind":"road","road":"secondary","osm":1474805682},"geometry":{"type":"LineString","coordinates":[[-5.15992,36.74604],[-5.16002,36.74617],[-5.16031,36.74655],[-5.16039,36.74664],[-5.16057,36.74688],[-5.16075,36.74712],[-5.16079,36.74716],[-5.16146,36.74804],[-5.16147,36.74805]]}}]}