<?xml version="1.0" encoding="UTF-8"?><kml xmlns="http://www.opengis.net/kml/2.2"><Document><name>西班牙城市与推荐景点</name><description>中文城市与景点名称、简介和参考坐标；不含个人行程或住宿信息。</description><Placemark><name>圣克鲁斯 · 01 特内里费音乐厅</name><description>特内里费音乐厅由圣地亚哥·卡拉特拉瓦设计，巨大的白色曲面伸向海边，是圣克鲁斯最具辨识度的现代建筑。近看可观察碎瓷铺面与曲线结构，退到广场边则能把整个轮廓与大西洋放进同一画面。
建议预留：外观约 30–45 分钟；导览或演出另计
看点：挑起的弧形屋顶、白色马赛克表面，以及从滨海广场看到的整体剪影。
参观提示：内部参观与演出按各自场次安排，提前看官网；外部若有维修或围挡，以现场可通行范围为准，照片呈现的是建筑正常外观。
景点官网：https://www.auditoriodetenerife.com/en/auditorium/
位置来源：https://en.wikipedia.org/wiki/Auditorio_de_Tenerife
位置为旅行规划参考，不代表售票口或唯一入口。</description><ExtendedData><Data name="城市"><value>圣克鲁斯</value></Data><Data name="分类"><value>经典景点</value></Data></ExtendedData><Point><coordinates>-16.251281,28.456075,0</coordinates></Point></Placemark><Placemark><name>圣克鲁斯 · 02 特雷西塔海滩</name><description>特雷西塔海滩位于圣克鲁斯东北方向、靠近圣安德烈斯村，以浅色沙滩、棕榈树和背后山地构成鲜明景观。它与市区港口一带气氛不同，适合留半天把海边散步、休息和村中用餐组合起来。
建议预留：半天，含往返与用餐
看点：金色沙滩与山地的对比、沿海棕榈树，以及圣安德烈斯村周边的海岸气氛。
参观提示：这里需要从市中心另行前往，先安排好公交或驾车往返；下水与否仍按当天旗帜和海况决定，不以照片中的平静水面作判断。
景点官网：https://www.webtenerife.co.uk/what-see/beaches/las-teresitas/
位置来源：https://en.wikipedia.org/wiki/Playa_de_Las_Teresitas
位置为旅行规划参考，不代表售票口或唯一入口。</description><ExtendedData><Data name="城市"><value>圣克鲁斯</value></Data><Data name="分类"><value>经典景点</value></Data></ExtendedData><Point><coordinates>-16.18583333,28.50861111,0</coordinates></Point></Placemark><Placemark><name>圣克鲁斯 · 03 泰德国家公园（岛内远郊）</name><description>泰德国家公园位于特内里费岛内陆高处，以火山锥、熔岩地貌、岩石与高山环境构成近似另一颗星球的景观。它不是圣克鲁斯市区的步行景点，应作为单独的一日郊游；仅在公路观景点和低难度步道停留，也能认识这里的火山地形。
建议预留：建议一整天，含岛内往返；登顶另行规划
看点：泰德火山轮廓、拉斯卡尼亚达斯地形与加西亚岩群；缆车和登顶属于额外行程。
参观提示：高海拔处温差和风力明显，出发前核对天气与道路情况。缆车票不等于登顶许可，山顶和部分步道需按具体线路查询预约要求。
景点官网：https://www.webtenerife.co.uk/what-see/teide-national-park/ascension-a-la-cumbre/
位置来源：https://en.wikipedia.org/wiki/Teide_National_Park
位置为旅行规划参考，不代表售票口或唯一入口。</description><ExtendedData><Data name="城市"><value>圣克鲁斯</value></Data><Data name="分类"><value>经典景点</value></Data></ExtendedData><Point><coordinates>-16.616,28.263,0</coordinates></Point></Placemark></Document></kml>