<?xml version='1.0' encoding='utf-8'?>
<kml xmlns="http://www.opengis.net/kml/2.2">
  <Document>
    <name>圣地亚哥 · 景点</name>
    <description>4 处公共景点，来自旅游网页的中文介绍和参考坐标。</description>
    <Placemark id="c12-s01">
      <name>圣地亚哥 · 01 圣地亚哥大教堂</name>
      <description>圣地亚哥大教堂是圣地亚哥朝圣之路的重要终点，围绕圣雅各的宗教传统形成了持续多世纪的朝圣文化。建筑经历不同阶段扩建，巴洛克外观与内部较早的结构共同存在，适合结合朝圣者抵达的场景理解其意义。
建议预留：主体约 1–1.5 小时；含专项参观可留 2–3 小时
看点：荣耀门的雕刻、主祭坛及教堂空间；屋顶、博物馆等参观项目按所选票种安排。
参观提示：著名大香炉并非每场弥撒都会摆动，不要把它当作固定节目；礼拜、荣耀门及博物馆参观可能有不同安排，出发前分别核对。
景点官网：https://www.spain.info/en/destination/santiago-compostela/
位置来源：https://en.wikipedia.org/wiki/Santiago_de_Compostela_Cathedral
位置为旅行规划参考，不代表售票口或唯一入口。</description>
      <ExtendedData>
        <Data name="景点ID">
          <value>c12-s01</value>
        </Data>
        <Data name="城市">
          <value>圣地亚哥</value>
        </Data>
        <Data name="分类">
          <value>经典景点</value>
        </Data>
        <Data name="景点官网">
          <value>https://www.spain.info/en/destination/santiago-compostela/</value>
        </Data>
        <Data name="位置来源">
          <value>https://en.wikipedia.org/wiki/Santiago_de_Compostela_Cathedral</value>
        </Data>
      </ExtendedData>
      <Point>
        <coordinates>-8.54444444,42.88055556,0</coordinates>
      </Point>
    </Placemark>
    <Placemark id="c12-s02">
      <name>圣地亚哥 · 02 奥布拉多伊罗广场</name>
      <description>奥布拉多伊罗广场是许多朝圣者抵达圣地亚哥时停留的地方，四周建筑分别呈现宗教、接待与城市公共生活的历史。它最动人的部分常常不是某一处细节，而是背包客抵达、合影、休息的场景与宏大建筑之间的对照。
建议预留：30–60 分钟
看点：大教堂正立面、拉霍伊宫，以及原为朝圣者提供接待服务的天主教双王旅舍建筑。
参观提示：先留一段时间在广场坐坐，再开始教堂参观；四周建筑不一定都能随意入内，外观欣赏已能理解广场的整体构成。
景点官网：https://www.spain.info/en/destination/santiago-compostela/
位置来源：https://en.wikipedia.org/wiki/Plaza_del_Obradoiro
位置为旅行规划参考，不代表售票口或唯一入口。</description>
      <ExtendedData>
        <Data name="景点ID">
          <value>c12-s02</value>
        </Data>
        <Data name="城市">
          <value>圣地亚哥</value>
        </Data>
        <Data name="分类">
          <value>经典景点</value>
        </Data>
        <Data name="景点官网">
          <value>https://www.spain.info/en/destination/santiago-compostela/</value>
        </Data>
        <Data name="位置来源">
          <value>https://en.wikipedia.org/wiki/Plaza_del_Obradoiro</value>
        </Data>
      </ExtendedData>
      <Point>
        <coordinates>-8.5458,42.8806,0</coordinates>
      </Point>
    </Placemark>
    <Placemark id="c12-s03">
      <name>圣地亚哥 · 03 阿拉梅达公园</name>
      <description>阿拉梅达公园紧邻历史城区，是离开密集石街后放松的绿地。林荫步道与观景位置形成一条轻松路线，能从侧面看大教堂和老城屋顶，也能看到市民散步、跑步的日常，与朝圣广场的热闹形成不同气氛。
建议预留：45–75 分钟
看点：面向大教堂的经典观景位置、林荫步道及公园雕塑。
参观提示：可放在老城游览结束后，或选光线合适时来拍天际线；加利西亚天气变化较快，遇雨可把这段散步与室内参观互换。
景点官网：https://www.spain.info/en/destination/santiago-compostela/
位置来源：https://www.mypacer.com/parks/101440/alameda-santiago-de-compostela
位置为旅行规划参考，不代表售票口或唯一入口。</description>
      <ExtendedData>
        <Data name="景点ID">
          <value>c12-s03</value>
        </Data>
        <Data name="城市">
          <value>圣地亚哥</value>
        </Data>
        <Data name="分类">
          <value>经典景点</value>
        </Data>
        <Data name="景点官网">
          <value>https://www.spain.info/en/destination/santiago-compostela/</value>
        </Data>
        <Data name="位置来源">
          <value>https://www.mypacer.com/parks/101440/alameda-santiago-de-compostela</value>
        </Data>
      </ExtendedData>
      <Point>
        <coordinates>-8.5492,42.87759,0</coordinates>
      </Point>
    </Placemark>
    <Placemark id="c12-s04">
      <name>圣地亚哥 · 04 加利西亚民族博物馆</name>
      <description>博物馆设于旧修道院，介绍加利西亚的生活方式、传统行业和地方文化。它把圣地亚哥从朝圣终点扩展为一座有渔业、乡村、工艺和社会记忆的地区城市。
建议预留：1.5–2 小时
看点：地方生活与传统行业展示；历史建筑内的特色楼梯。
参观提示：留意展厅说明语言；不同主题展可能调整，先查馆方开放安排。
景点官网：https://www.santiagoturismo.com/museos/museo-do-pobo-galego
位置来源：https://es.wikipedia.org/wiki/Museo_del_Pueblo_Gallego
位置为旅行规划参考，不代表售票口或唯一入口。</description>
      <ExtendedData>
        <Data name="景点ID">
          <value>c12-s04</value>
        </Data>
        <Data name="城市">
          <value>圣地亚哥</value>
        </Data>
        <Data name="分类">
          <value>地方文化</value>
        </Data>
        <Data name="景点官网">
          <value>https://www.santiagoturismo.com/museos/museo-do-pobo-galego</value>
        </Data>
        <Data name="位置来源">
          <value>https://es.wikipedia.org/wiki/Museo_del_Pueblo_Gallego</value>
        </Data>
      </ExtendedData>
      <Point>
        <coordinates>-8.539139,42.882749,0</coordinates>
      </Point>
    </Placemark>
  </Document>
</kml>