<?xml version='1.0' encoding='utf-8'?>
<kml xmlns="http://www.opengis.net/kml/2.2">
  <Document>
    <name>圣塞巴斯蒂安 · 景点</name>
    <description>5 处公共景点，来自旅游网页的中文介绍和参考坐标。</description>
    <Placemark id="c14-s01">
      <name>圣塞巴斯蒂安 · 01 贝壳海滩</name>
      <description>贝壳海滩沿圣塞巴斯蒂安的弧形海湾展开，近海小岛与两端山丘共同塑造出极易辨认的轮廓。这里既是自然景观，也是城市公共空间，沿步道慢走能看到海湾、建筑立面和市民生活在同一条线上展开。
建议预留：1–1.5 小时；海边休闲可更久
看点：弯月形海湾、标志性的白色栏杆，以及海湾中央的圣克拉拉岛。
参观提示：海滩宽度会随潮汐变化，安排沙滩活动前留意潮位；四月可以散步为主，再按风雨情况决定是否延长停留。
景点官网：https://sansebastianturismoa.eus/hacer/playas/playa-de-la-concha/
位置来源：https://en.wikipedia.org/wiki/Beach_of_La_Concha
位置为旅行规划参考，不代表售票口或唯一入口。</description>
      <ExtendedData>
        <Data name="景点ID">
          <value>c14-s01</value>
        </Data>
        <Data name="城市">
          <value>圣塞巴斯蒂安</value>
        </Data>
        <Data name="分类">
          <value>经典景点</value>
        </Data>
        <Data name="景点官网">
          <value>https://sansebastianturismoa.eus/hacer/playas/playa-de-la-concha/</value>
        </Data>
        <Data name="位置来源">
          <value>https://en.wikipedia.org/wiki/Beach_of_La_Concha</value>
        </Data>
      </ExtendedData>
      <Point>
        <coordinates>-1.98666667,43.3175,0</coordinates>
      </Point>
    </Placemark>
    <Placemark id="c14-s02">
      <name>圣塞巴斯蒂安 · 02 伊格尔多山</name>
      <description>伊格尔多山位于海湾西侧，从高处能清楚看出贝壳湾、圣克拉拉岛和城市之间的空间关系。历史缆车和山顶休闲设施让上山过程本身也有趣，但最值得停留的仍是随着视角变化展开的海岸全景。
建议预留：约 1–1.5 小时，含一般上山停留
看点：俯瞰整座海湾的观景位置，以及上山缆车带来的老式交通体验。
参观提示：云低或雨大时景观会受影响，可把它安排在天气较好的半天；缆车、观景区域和游乐项目可能分别收费与开放。
景点官网：https://sansebastianturismoa.eus/en/to-do/district-by-district/antiguo-igeldo/
位置来源：https://es.wikipedia.org/wiki/Parque_de_Atracciones_Monte_Igueldo
位置为旅行规划参考，不代表售票口或唯一入口。</description>
      <ExtendedData>
        <Data name="景点ID">
          <value>c14-s02</value>
        </Data>
        <Data name="城市">
          <value>圣塞巴斯蒂安</value>
        </Data>
        <Data name="分类">
          <value>经典景点</value>
        </Data>
        <Data name="景点官网">
          <value>https://sansebastianturismoa.eus/en/to-do/district-by-district/antiguo-igeldo/</value>
        </Data>
        <Data name="位置来源">
          <value>https://es.wikipedia.org/wiki/Parque_de_Atracciones_Monte_Igueldo</value>
        </Data>
      </ExtendedData>
      <Point>
        <coordinates>-2.00953056,43.32139444,0</coordinates>
      </Point>
    </Placemark>
    <Placemark id="c14-s03">
      <name>圣塞巴斯蒂安 · 03 老城区</name>
      <description>圣塞巴斯蒂安老城区位于乌尔古尔山脚，是体验 pintxos 小食文化的重要区域。窄街、教堂与广场之间分布着许多酒吧，食物常以小份呈现；边走边尝几家，比一次坐下来点满一桌更能体会当地用餐节奏。
建议预留：散步约 1 小时；含小食巡游 2–3 小时
看点：宪法广场、圣维森特教堂周边，以及不同酒吧的招牌小食。
参观提示：每家先点一两样，冷盘展示与现做热食的点法可能不同，可直接询问店员；午晚餐高峰较热闹，预留排队弹性。
景点官网：https://sansebastianturismoa.eus/
位置来源：https://es.wikipedia.org/wiki/Parte_Vieja
位置为旅行规划参考，不代表售票口或唯一入口。</description>
      <ExtendedData>
        <Data name="景点ID">
          <value>c14-s03</value>
        </Data>
        <Data name="城市">
          <value>圣塞巴斯蒂安</value>
        </Data>
        <Data name="分类">
          <value>经典景点</value>
        </Data>
        <Data name="景点官网">
          <value>https://sansebastianturismoa.eus/</value>
        </Data>
        <Data name="位置来源">
          <value>https://es.wikipedia.org/wiki/Parte_Vieja</value>
        </Data>
      </ExtendedData>
      <Point>
        <coordinates>-1.985,43.32333333,0</coordinates>
      </Point>
    </Placemark>
    <Placemark id="c14-s04">
      <name>圣塞巴斯蒂安 · 04 圣特尔莫博物馆</name>
      <description>以巴斯克社会与文化为主线，将历史、艺术和社会变迁放进旧修道院与现代扩建空间。适合在海湾景色和饮食之外，了解当地身份、行业与日常生活。
建议预留：1.5–2 小时
看点：巴斯克历史与艺术、修道院空间、当期专题展。
参观提示：具体藏品以当日展示为准；可先选地方历史，再看艺术部分。
景点官网：https://www.spain.info/en/places-of-interest/municipal-museum-san-telmo/
位置来源：https://en.wikipedia.org/wiki/San_Telmo_Museoa
位置为旅行规划参考，不代表售票口或唯一入口。</description>
      <ExtendedData>
        <Data name="景点ID">
          <value>c14-s04</value>
        </Data>
        <Data name="城市">
          <value>圣塞巴斯蒂安</value>
        </Data>
        <Data name="分类">
          <value>地方文化</value>
        </Data>
        <Data name="景点官网">
          <value>https://www.spain.info/en/places-of-interest/municipal-museum-san-telmo/</value>
        </Data>
        <Data name="位置来源">
          <value>https://en.wikipedia.org/wiki/San_Telmo_Museoa</value>
        </Data>
      </ExtendedData>
      <Point>
        <coordinates>-1.984917,43.324922,0</coordinates>
      </Point>
    </Placemark>
    <Placemark id="c14-s05">
      <name>圣塞巴斯蒂安 · 05 风之梳海岸雕塑</name>
      <description>奇利达的钢铁雕塑与岩石、海浪及公共空间相互作用，是圣塞巴斯蒂安最有地方性的室外艺术之一。观看不只是辨认雕塑形状，也包括海风、声响和潮汐改变的现场感。
建议预留：30–60 分钟
看点：岩岸上的三组钢雕、海浪与铺装空间的关系。
参观提示：大浪和恶劣天气时遵守现场封闭措施，不靠近危险边缘；无需为看“最大浪”专程冒险。
景点官网：https://sansebastianturismoa.eus/hacer/esculturas-al-aire-libre/peine-del-viento/
位置来源：https://es.wikipedia.org/wiki/Peine_del_viento
位置为旅行规划参考，不代表售票口或唯一入口。</description>
      <ExtendedData>
        <Data name="景点ID">
          <value>c14-s05</value>
        </Data>
        <Data name="城市">
          <value>圣塞巴斯蒂安</value>
        </Data>
        <Data name="分类">
          <value>自然与风景</value>
        </Data>
        <Data name="景点官网">
          <value>https://sansebastianturismoa.eus/hacer/esculturas-al-aire-libre/peine-del-viento/</value>
        </Data>
        <Data name="位置来源">
          <value>https://es.wikipedia.org/wiki/Peine_del_viento</value>
        </Data>
      </ExtendedData>
      <Point>
        <coordinates>-2.00567007,43.32177464,0</coordinates>
      </Point>
    </Placemark>
  </Document>
</kml>