<?xml version="1.0" encoding="UTF-8"?><kml xmlns="http://www.opengis.net/kml/2.2"><Document><name>西班牙城市与推荐景点</name><description>中文城市与景点名称、简介和参考坐标；不含个人行程或住宿信息。</description><Placemark><name>巴塞罗那 · 01 圣家堂</name><description>圣家堂将宗教象征、自然形态和结构实验融合在一起，是高迪最具代表性的作品之一。外部立面讲述不同圣经故事，内部柱子像树干一样分叉托起穹顶，彩色玻璃随光线变化，让同一个空间在不同时段呈现不同气氛。
建议预留：1.5–2 小时；登塔另留时间
看点：比较诞生立面与受难立面的雕刻风格；进入中殿后，留意树状立柱和两侧冷暖色玻璃。
参观提示：先确定入场时段，再安排同一天其他景点。登塔属于不同参观选项，购票时核对包含内容与条件。
景点官网：https://blog.sagradafamilia.org/en/stained-glass-light-colour-creation/
位置来源：https://en.wikipedia.org/wiki/Sagrada_Fam%C3%ADlia
位置为旅行规划参考，不代表售票口或唯一入口。</description><ExtendedData><Data name="城市"><value>巴塞罗那</value></Data><Data name="分类"><value>经典景点</value></Data></ExtendedData><Point><coordinates>2.17433,41.40369,0</coordinates></Point></Placemark><Placemark><name>巴塞罗那 · 02 古埃尔公园</name><description>古埃尔公园把建筑融入山坡：马赛克、石柱、曲线长椅与架空步道共同构成一座可行走的设计作品。它原本与住宅开发计划有关，后来成为公园；游览时既可以看高迪的细部处理，也能从高处理解巴塞罗那向海展开的城市格局。
建议预留：1.5–2 小时
看点：入口蜥蜴喷泉、柱厅、蛇形长椅及广场远景；留意碎瓷拼贴与自然石材的对比。
参观提示：园区有坡度和台阶，穿好走的鞋。按所选入口规划交通，核心区域与园区其他部分的参观条件需在购票时核对。
景点官网：https://www.spain.info/en/destination/barcelona/
位置来源：https://en.wikipedia.org/wiki/Park_G%C3%BCell
位置为旅行规划参考，不代表售票口或唯一入口。</description><ExtendedData><Data name="城市"><value>巴塞罗那</value></Data><Data name="分类"><value>经典景点</value></Data></ExtendedData><Point><coordinates>2.15277778,41.41361111,0</coordinates></Point></Placemark><Placemark><name>巴塞罗那 · 03 巴特罗之家</name><description>巴特罗之家是一座经高迪改造的城市住宅，立面、采光井、门窗和屋顶都延续着有机曲线。它不仅是一栋外形奇特的房子，也展示了建筑师如何处理光线、通风和日常居住；从室内看细节，才能理解外观背后的设计逻辑。
建议预留：1–1.5 小时
看点：骨骼般的阳台、波浪状立面、蓝色采光井与富有鳞片感的屋顶。
参观提示：外观可与格拉西亚大道散步结合；若入内，先比较不同票种包含的空间和导览，不必为了附加项目压缩主参观时间。
景点官网：https://www.spain.info/en/destination/barcelona/
位置来源：https://en.wikipedia.org/wiki/Casa_Batll%C3%B3
位置为旅行规划参考，不代表售票口或唯一入口。</description><ExtendedData><Data name="城市"><value>巴塞罗那</value></Data><Data name="分类"><value>经典景点</value></Data></ExtendedData><Point><coordinates>2.16492,41.39158,0</coordinates></Point></Placemark><Placemark><name>巴塞罗那 · 04 哥特区</name><description>哥特区保存了巴塞罗那老城的街巷格局，罗马遗迹、中世纪建筑和后来的改建共同构成今天的面貌。它适合围绕广场和巷道慢慢探索：短短几步就可能从热闹街道进入安静庭院，体验城市历史在日常生活中的延续。
建议预留：1.5–2.5 小时
看点：巴塞罗那主教座堂周边、国王广场及主教街；著名跨街廊桥属于较晚时期的建造。
参观提示：以几个广场作为定位点即可，不必逐巷赶路；可接着去波恩区或海边。参观教堂时区分礼拜区域与旅游参观入口。
景点官网：https://www.spain.info/en/destination/barcelona/
位置来源：https://en.wikipedia.org/wiki/Gothic_Quarter%2C_Barcelona
位置为旅行规划参考，不代表售票口或唯一入口。</description><ExtendedData><Data name="城市"><value>巴塞罗那</value></Data><Data name="分类"><value>经典景点</value></Data></ExtendedData><Point><coordinates>2.17694444,41.38277778,0</coordinates></Point></Placemark><Placemark><name>巴塞罗那 · 05 阿马特耶之家</name><description>巴特罗之家旁边这栋常被路过的房子，恰好很适合你们：它是巧克力实业家、摄影爱好者与收藏家 Antoni Amatller 的住宅。主层保留约 1900 年的家具和艺术收藏，参观重点是当年的家庭生活与审美，而不只是拍立面。
建议预留：约 1 小时，按所选场次
看点：室内原有家具、艺术藏品、现代主义装饰和业主故事；先听讲解，再看房间之间的使用关系。
参观提示：选择允许进入住宅主层的参观产品，确认讲解语言；目前提供包括中文在内的语音导览，2027 语言与场次以官网为准。
顺路：可与巴特罗之家同日；若只想再选一栋住宅，优先给阿马特耶而不是增加第三栋建筑。
景点官网：https://www.casessingulars.com/visitas/casa-amatller/
位置来源：https://en.wikipedia.org/wiki/Casa_Amatller
位置为旅行规划参考，不代表售票口或唯一入口。</description><ExtendedData><Data name="城市"><value>巴塞罗那</value></Data><Data name="分类"><value>宅邸与收藏</value></Data></ExtendedData><Point><coordinates>2.165,41.39166667,0</coordinates></Point></Placemark><Placemark><name>巴塞罗那 · 06 弗雷德里克·马雷斯博物馆</name><description>雕塑家兼收藏家 Frederic Marès 把个人收藏捐给巴塞罗那，内容从雕塑延伸到大量日常小物。它的趣味在于收藏眼光：普通生活物件也可以成为观察一个时代的线索。馆址属于旧王宫建筑群，并非保留原样的马雷斯家宅。
建议预留：1.5–2 小时
看点：雕塑收藏与“收藏家陈列室”的日常物件两条线；喜欢老物件、工艺与城市生活史，往往会比只看名画更投入。
参观提示：安排在哥特区游览时，留时间看小件展品。请区分“收藏家博物馆”和“收藏家原宅”，这里属于前者。
顺路：与大教堂、哥特区步行组合，最适合作为老城路线的文化加餐。
景点官网：https://visitmuseum.gencat.cat/en/museum/museu-frederic-mares
位置来源：https://en.wikipedia.org/wiki/Museu_Frederic_Mar%C3%A8s
位置为旅行规划参考，不代表售票口或唯一入口。</description><ExtendedData><Data name="城市"><value>巴塞罗那</value></Data><Data name="分类"><value>宅邸与收藏</value></Data></ExtendedData><Point><coordinates>2.176698,41.384201,0</coordinates></Point></Placemark><Placemark><name>巴塞罗那 · 07 加泰罗尼亚国家艺术博物馆</name><description>坐落在蒙锥克山国家宫，最值得为它留时间的是加泰罗尼亚艺术的地方脉络：罗曼式壁画、哥特式宗教艺术与近现代作品，让旅途不止停留在高迪。建筑外的平台视野也很好，但真正看馆藏需要单独留半天。
建议预留：2–3 小时，深看可半天
看点：优先选罗曼式艺术与近现代艺术中的一部分，结合教堂壁画原来的空间语境理解作品。
参观提示：若与米罗基金会同日，两馆都只选重点；想细看则二选一。具体展厅、作品调动与票种查官网。
顺路：与蒙锥克山散步组合，不要再在同半天塞入圣家堂。
景点官网：https://www.museunacional.cat/es/coleccion
位置来源：https://en.wikipedia.org/wiki/Museu_Nacional_d%27Art_de_Catalunya
位置为旅行规划参考，不代表售票口或唯一入口。</description><ExtendedData><Data name="城市"><value>巴塞罗那</value></Data><Data name="分类"><value>美术馆</value></Data></ExtendedData><Point><coordinates>2.15331,41.36833,0</coordinates></Point></Placemark><Placemark><name>巴塞罗那 · 08 巴塞罗那毕加索博物馆</name><description>这座馆更适合看毕加索如何成长：早期学习、与巴塞罗那的联系，以及后来对委拉斯开兹《宫娥》的重新演绎。它位于蒙卡达街的历史建筑中，参观完可直接继续波恩区散步；与马拉加的毕加索馆可以按个人兴趣择一深看。
建议预留：1.5–2.5 小时
看点：早期绘画与《宫娥》系列；先看年轻时较写实的画，再看后来如何重组人物与空间。
参观提示：预约具体时段；画作会借展或轮换。如果并非毕加索爱好者，巴塞罗那与马拉加两馆不用都作为必去。
顺路：与波恩区、圣玛丽亚海洋教堂周边步行组合。
景点官网：https://patrimoni.gencat.cat/en/collection/picasso-museum
位置来源：https://en.wikipedia.org/wiki/Museu_Picasso
位置为旅行规划参考，不代表售票口或唯一入口。</description><ExtendedData><Data name="城市"><value>巴塞罗那</value></Data><Data name="分类"><value>美术馆</value></Data></ExtendedData><Point><coordinates>2.180893,41.385216,0</coordinates></Point></Placemark><Placemark><name>巴塞罗那 · 09 米罗基金会</name><description>如果比起古典宗教画，你们更喜欢鲜明色彩、简洁符号和自由的想象力，可以把蒙锥克山的美术馆名额给米罗。作品与明亮建筑空间共同构成参观体验，适合慢慢看画和雕塑，再接一段山上散步。
建议预留：1.5–2 小时
看点：观察米罗反复使用的颜色、符号与物件怎样变化，不必追求把每件作品都解释成固定含义。
参观提示：从当前官网确认开放与导览安排；若选择 MNAC 深看，米罗可以留作另一半天或替换项目。
顺路：蒙锥克山半天：米罗基金会＋山上花园；与 MNAC 按兴趣选。
景点官网：https://www.fmirobcn.org/en/visit-us/guided-tours/117/joan-miro-collection-guided-tour-in-spanish
位置来源：https://en.wikipedia.org/wiki/Fundaci%C3%B3_Joan_Mir%C3%B3
位置为旅行规划参考，不代表售票口或唯一入口。</description><ExtendedData><Data name="城市"><value>巴塞罗那</value></Data><Data name="分类"><value>美术馆</value></Data></ExtendedData><Point><coordinates>2.16,41.36861111,0</coordinates></Point></Placemark><Placemark><name>巴塞罗那 · 10 加泰罗尼亚音乐宫</name><description>除了住宅与教堂，巴塞罗那的现代主义也能在音乐厅里体验。彩色玻璃、装饰柱与演奏空间让建筑本身像一件工艺品；白天参观便于看细节，晚上听音乐则重在现场气氛，两种体验可以按兴趣选择。
建议预留：建筑参观约 1 小时；演出按节目时长
看点：主厅彩色玻璃与装饰细节；若挑演出，先看节目内容、座位视线与结束时间。
参观提示：参观票与音乐会票是不同产品，不能默认互通或包含同一参观区域。确认导览语言、场次和演出安排。
顺路：可和哥特区、马雷斯博物馆分上午下午安排；演出适合加在晚间。
景点官网：https://www.palaumusica.cat/en/buy-tickets_1641072
位置来源：https://en.wikipedia.org/wiki/Palau_de_la_M%C3%BAsica_Catalana
位置为旅行规划参考，不代表售票口或唯一入口。</description><ExtendedData><Data name="城市"><value>巴塞罗那</value></Data><Data name="分类"><value>地方特色</value></Data></ExtendedData><Point><coordinates>2.17555556,41.3875,0</coordinates></Point></Placemark></Document></kml>