<?xml version="1.0" encoding="UTF-8"?><kml xmlns="http://www.opengis.net/kml/2.2"><Document><name>西班牙城市与推荐景点</name><description>中文城市与景点名称、简介和参考坐标；不含个人行程或住宿信息。</description><Placemark><name>托莱多 · 01 托莱多大教堂</name><description>托莱多大教堂是城市最重要的宗教建筑之一，哥特式空间中汇集了祭坛、雕刻、绘画与历代装饰。与外部紧凑的老城街道相比，内部尺度显得格外开阔，适合花时间观察不同礼拜堂和艺术作品如何共同构成完整的宗教空间。
建议预留：1.5–2 小时
看点：主祭坛、唱诗班席、彩色玻璃，以及圣器室收藏；具体开放区域依当日安排。
参观提示：先确定教堂参观时段，再串联老城其他小景点。内容较多，配合导览比只快速穿过中殿更能看懂。
景点官网：https://www.spain.info/en/destination/toledo/
位置来源：https://en.wikipedia.org/wiki/Toledo_Cathedral
位置为旅行规划参考，不代表售票口或唯一入口。</description><ExtendedData><Data name="城市"><value>托莱多</value></Data><Data name="分类"><value>经典景点</value></Data></ExtendedData><Point><coordinates>-4.02388889,39.85708333,0</coordinates></Point></Placemark><Placemark><name>托莱多 · 02 圣多美教堂</name><description>圣多美教堂最著名的是埃尔·格列柯的《奥尔加斯伯爵的葬礼》。作品将下方现实世界的葬礼人物与上方宗教天国场景连接起来，修长形体、冷暖色调和人物表情体现了画家极具辨识度的风格，是托莱多艺术行程的重点。
建议预留：30–45 分钟
看点：观察画作上下两个层次如何通过人物动作与视线相连，再看下部肖像群的细节。
参观提示：它更适合专程看一件关键作品，不必按大型博物馆预留时间；进入对应参观区域后，按现场要求拍照与停留。
景点官网：https://www.spain.info/en/destination/toledo/
位置来源：https://en.wikipedia.org/wiki/Church_of_Santo_Tom%C3%A9%2C_Toledo
位置为旅行规划参考，不代表售票口或唯一入口。</description><ExtendedData><Data name="城市"><value>托莱多</value></Data><Data name="分类"><value>经典景点</value></Data></ExtendedData><Point><coordinates>-4.0281,39.8568,0</coordinates></Point></Placemark><Placemark><name>托莱多 · 03 山谷观景台</name><description>山谷观景台位于塔霍河对岸，能把托莱多的城墙、河湾、山坡和主要建筑收进同一视野。相比在老城内逐个寻找地标，这里更适合先理解城市为什么建在这处高地，以及河流怎样环抱历史城区。
建议预留：30–45 分钟，另加往返交通
看点：河湾曲线、托莱多城堡与大教堂在屋顶之间形成的天际线。
参观提示：位置不在老城核心步行区，安排好往返交通再出发；可作为到达或离开托莱多时的一站，不必硬塞进密集的室内参观中。
景点官网：https://www.spain.info/en/destination/toledo/
位置来源：https://commons.wikimedia.org/wiki/File:Mirador_del_Valle_-_Toledo.jpeg
位置为旅行规划参考，不代表售票口或唯一入口。</description><ExtendedData><Data name="城市"><value>托莱多</value></Data><Data name="分类"><value>经典景点</value></Data></ExtendedData><Point><coordinates>-4.022117,39.850369,0</coordinates></Point></Placemark><Placemark><name>托莱多 · 04 格列柯博物馆</name><description>在托莱多看过圣多美教堂后，这座专题馆能补充格列柯与城市的关系。需要特别说明：它不是格列柯真实居住过的那栋房子，而是后来收藏家在历史住宅基础上创建的博物馆，曾以重建画家生活氛围为构想。
建议预留：1–1.5 小时
看点：画家作品与专题展陈、博物馆创建史和住宅空间；不要把重构的氛围当作艺术家原物原址。
参观提示：只有半天托莱多时，可在大教堂、圣多美教堂之后按体力选；住一晚才更适合慢慢看。
顺路：与犹太区、圣多美教堂同片区安排；对格列柯兴趣强再加。
景点官网：https://www.cultura.gob.es/mgreco/museo/casa-museo.html
位置来源：https://en.wikipedia.org/wiki/El_Greco_Museum%2C_Toledo
位置为旅行规划参考，不代表售票口或唯一入口。</description><ExtendedData><Data name="城市"><value>托莱多</value></Data><Data name="分类"><value>美术馆</value></Data></ExtendedData><Point><coordinates>-4.029,39.856,0</coordinates></Point></Placemark></Document></kml>