<?xml version="1.0" encoding="UTF-8"?><kml xmlns="http://www.opengis.net/kml/2.2"><Document><name>西葡新增文化与风景26处</name><Placemark><name>马德里 · 国家考古博物馆</name><description>用器物串起伊比利亚半岛的历史，从史前、伊比利亚文明到罗马与中世纪。与普拉多的绘画路线相比，这里更适合理解西班牙各地遗址之间的关系。
建议时长：2–3 小时
大馆不必逐件看完；展厅与重点藏品可能轮换，参观前查看官方导览。
https://www.spain.info/en/places-of-interest/national-archaeological-museum/</description><Point><coordinates>-3.689422,40.423645,0</coordinates></Point></Placemark><Placemark><name>巴塞罗那 · 圣十字圣保罗医院现代主义建筑群</name><description>这座旧医院将医疗、城市规划与加泰罗尼亚现代主义建筑结合起来。彩色穹顶、马赛克、独立院舍与花园展示了高迪以外的另一条巴塞罗那建筑线索。
建议时长：1.5–2 小时
参观的是历史建筑园区；开放院舍和导览语言按当天票种确认。
https://www.spain.info/en/places-of-interest/sant-pau-modernist-site/</description><Point><coordinates>2.17444444,41.41277778,0</coordinates></Point></Placemark><Placemark><name>瓦伦西亚 · 阿尔布费拉自然公园（城外）</name><description>潟湖、稻田、沙丘和海岸林带构成瓦伦西亚南面的自然景观，也与当地稻作和饮食紧密相连。既可在岸边步行看景，也可另订传统小船。
建议时长：半天，乘船另按所订航次安排
位于城外；稻田景色和鸟类随季节变化，不能把夏季绿稻田当作四月实景。保护区部分参观需预约。
https://www.visitvalencia.com/en/what-to-see-valencia/albufera-natural-park</description><Point><coordinates>-0.35222222,39.33166667,0</coordinates></Point></Placemark><Placemark><name>瓦伦西亚 · IVAM 瓦伦西亚现代艺术学院</name><description>瓦伦西亚的重要现代与当代艺术机构，可从雕塑、绘画、摄影和专题展览观察二十世纪以来的艺术变化。适合在历史老城之外补充现代艺术视角。
建议时长：1.5–2 小时
馆藏目录不等于当天陈列；确认展厅开放与临时展览。
https://www.spain.info/es/lugares-interes/instituto-valenciano-arte-moderno-ivam/</description><Point><coordinates>-0.38277778,39.48,0</coordinates></Point></Placemark><Placemark><name>塞维利亚 · 伊塔利卡罗马遗址（城外）</name><description>在塞维利亚近郊 Santiponce，可以从罗马圆形竞技场、街道和住宅遗迹理解古代城市生活。它补充了塞维利亚王宫与大教堂之外的罗马历史层次。
建议时长：2–3 小时，另加往返交通
遗址无遮阴的路段较多；具体可入内区域和马赛克展示以保护安排为准。
https://www.spain.info/en/places-of-interest/archaeological-site-of-italica/</description><Point><coordinates>-6.04666667,37.44388889,0</coordinates></Point></Placemark><Placemark><name>格拉纳达 · 格拉纳达卡尔图哈修道院</name><description>修道院内部展现格拉纳达巴洛克艺术：大理石、木雕和精密装饰形成浓密的视觉层次。与阿尔罕布拉的伊斯兰宫廷艺术并看，能直观感受两种不同的艺术语言。
建议时长：1–1.5 小时
以宗教建筑参观规则为准，入场、拍摄与开放空间可能调整。
https://www.spain.info/es/lugares-interes/monasterio-cartuja/</description><Point><coordinates>-3.59952798,37.19192301,0</coordinates></Point></Placemark><Placemark><name>科尔多瓦 · 麦地那·阿萨哈拉宫城遗址（城外）</name><description>科尔多瓦哈里发时代的宫城遗址沿山坡展开，展示宫廷、行政与城市规划的尺度。先看解释中心，再看现场残存的柱廊、平台和建筑，通常比只到遗址拍照更容易理解。
建议时长：半天
城外遗址与游客中心之间的接驳按当期安排；部分厅堂可能受修复限制。不要套用旧年份的特别开放活动。
https://www.spain.info/es/lugares-interes/medina-azahara/</description><Point><coordinates>-4.867,37.888,0</coordinates></Point></Placemark><Placemark><name>马拉加 · 拉孔塞普西翁历史植物园</name><description>马拉加北侧的历史植物园以亚热带植被、林荫路径和景观园林见长。适合把海岸城市的行程延伸到植物与花园，而非只在沙滩和市中心活动。
建议时长：2–3 小时
花期受天气影响，不能保证四月某一种花正盛开；园路有坡度，先查看导览图。
https://laconcepcion.malaga.eu/es/</description><Point><coordinates>-4.42666667,36.76222222,0</coordinates></Point></Placemark><Placemark><name>马拉加 · 马拉加蓬皮杜中心</name><description>港口彩色立方体下的艺术空间，提供现代与当代艺术展览。与毕加索、提森等馆相比，可把注意力放在不同媒介、当代主题与展览策划。
建议时长：1.5–2 小时
馆藏借展与临时展会更新，以官网展期为准；建筑外观不需要等同于购买展览门票。
https://centrepompidou-malaga.eu/</description><Point><coordinates>-4.4125449,36.7189799,0</coordinates></Point></Placemark><Placemark><name>龙达 · 阿西尼波罗马遗址（龙达远郊）</name><description>在龙达周边高地上，罗马剧场残迹与开阔乡村景观同时可见。这里提供古代聚落与安达卢西亚田野的组合，节奏与龙达新桥周边的密集老城不同。
建议时长：1–1.5 小时，另留往返交通
远离龙达市中心，出发前确认当天开放；阴雨或大风会影响露天游览。
https://www.spain.info/es/lugares-interes/ruinas-teatro-romano-acinipo-ronda-vieja/</description><Point><coordinates>-5.239,36.832,0</coordinates></Point></Placemark><Placemark><name>托莱多 · 圣玛利亚白色会堂</name><description>这处历史会堂以白色柱列、马蹄拱与细密装饰形成安静的空间。它让托莱多的犹太历史与穆德哈尔艺术更具体，不只是把“三种文化”当作一句城市标签。
建议时长：30–60 分钟
结合官方介绍理解宗教用途的变迁；通票包含项目和开放时间需再次核对。
https://www.turismocastillalamancha.es/es/cultura-y-patrimonio/monumentos/toledo/sinagoga-de-santa-maria-la-blanca</description><Point><coordinates>-4.03027778,39.85694444,0</coordinates></Point></Placemark><Placemark><name>塞哥维亚 · 拉格兰哈皇家花园（城外）</name><description>塞哥维亚附近的法式皇家花园以林荫轴线、神话雕塑与大型喷泉组成景观。可把旅行重点放在园林设计与山地背景，宫殿内部另作可选。
建议时长：2–3 小时，另加往返交通
花园开放与喷泉喷水是两回事；喷水有特定日历，并受供水和维护影响，四月不能默认看到全部喷泉运行。
https://www.spain.info/es/lugares-interes/jardines-granja-san-ildefonso/</description><Point><coordinates>-4.00444444,40.8975,0</coordinates></Point></Placemark><Placemark><name>萨拉曼卡 · 卡萨利斯新艺术与装饰艺术博物馆</name><description>以十九世纪末至二十世纪初的装饰艺术为主题，展品涵盖玻璃、雕塑、首饰等，建筑本身也具有现代主义风格。这里的参观重点是工艺与设计，而非家族生活陈设。
建议时长：1–1.5 小时
按兴趣挑选材料专题；馆内拍摄规定与当期展区以现场为准。
https://www.spain.info/en/places-of-interest/art-nouveau-art-deco-museum/</description><Point><coordinates>-5.6668,40.9595,0</coordinates></Point></Placemark><Placemark><name>圣地亚哥 · 加利西亚民族博物馆</name><description>博物馆设于旧修道院，介绍加利西亚的生活方式、传统行业和地方文化。它把圣地亚哥从朝圣终点扩展为一座有渔业、乡村、工艺和社会记忆的地区城市。
建议时长：1.5–2 小时
留意展厅说明语言；不同主题展可能调整，先查馆方开放安排。
https://www.santiagoturismo.com/museos/museo-do-pobo-galego</description><Point><coordinates>-8.539139,42.882749,0</coordinates></Point></Placemark><Placemark><name>毕尔巴鄂 · 比斯开运输桥（河口近郊）</name><description>连接 Portugalete 与 Getxo 的运输桥仍承担过河功能，是理解毕尔巴鄂河口工业历史的独特地点。桥下的吊舱与上方结构展示了港口航运和跨河交通如何共存。
建议时长：1.5–2 小时，另计市中心往返
不在古根海姆附近的市中心段；吊舱与高处步道的票种、运营和天气限制分别确认。
https://www.spain.info/en/places-of-interest/puente-colgante-vizcaya/</description><Point><coordinates>-3.0169,43.3231,0</coordinates></Point></Placemark><Placemark><name>圣塞巴斯蒂安 · 圣特尔莫博物馆</name><description>以巴斯克社会与文化为主线，将历史、艺术和社会变迁放进旧修道院与现代扩建空间。适合在海湾景色和饮食之外，了解当地身份、行业与日常生活。
建议时长：1.5–2 小时
具体藏品以当日展示为准；可先选地方历史，再看艺术部分。
https://www.spain.info/en/places-of-interest/municipal-museum-san-telmo/</description><Point><coordinates>-1.984917,43.324922,0</coordinates></Point></Placemark><Placemark><name>圣塞巴斯蒂安 · 风之梳海岸雕塑</name><description>奇利达的钢铁雕塑与岩石、海浪及公共空间相互作用，是圣塞巴斯蒂安最有地方性的室外艺术之一。观看不只是辨认雕塑形状，也包括海风、声响和潮汐改变的现场感。
建议时长：30–60 分钟
大浪和恶劣天气时遵守现场封闭措施，不靠近危险边缘；无需为看“最大浪”专程冒险。
https://sansebastianturismoa.eus/hacer/esculturas-al-aire-libre/peine-del-viento/</description><Point><coordinates>-2.00567007,43.32177464,0</coordinates></Point></Placemark><Placemark><name>萨拉戈萨 · 凯撒奥古斯塔罗马剧场博物馆</name><description>现代城市街区中保存的罗马剧场遗址，可与展厅一起理解古代演出、建筑结构和萨拉戈萨的罗马起源。它是皮拉尔大教堂之外的另一条城市历史线。
建议时长：1–1.5 小时
四馆联票与单馆票不同；一段中转停留不必把四馆全部排满。
https://www.zaragoza.es/sede/portal/museos/teatro/</description><Point><coordinates>-0.877658,41.652172,0</coordinates></Point></Placemark><Placemark><name>赫罗纳 · 赫罗纳电影博物馆</name><description>从影戏、光学玩具和早期影像装置走到电影诞生，展示人们如何让静止图像动起来。它补充了赫罗纳中世纪街巷之外的影像艺术与技术文化。
建议时长：1–1.5 小时
常设展示和临时展分开查看；开放语言与可体验装置以馆方安排为准。
https://museudelcinema.girona.cat/eng/</description><Point><coordinates>2.82222222,41.98361111,0</coordinates></Point></Placemark><Placemark><name>阿利坎特 · 塔巴尔卡岛（乘船前往）</name><description>阿利坎特外海的有人居住小岛，兼有城墙街区、海岸地貌和海洋保护区背景。四月更适合步行看景与海鲜午餐，不必把下水作为主要目标。
建议时长：半天至一天，含船程
核对实际出发港、返航班次和海况；岛上停留时间与船程不能混为一谈。保护区水上活动遵守运营方说明。
https://alicanteturismo.com/en/tabarca-island/</description><Point><coordinates>-0.48222222,38.16638889,0</coordinates></Point></Placemark><Placemark><name>加的斯 · 加的斯博物馆</name><description>通过腓尼基、罗马遗物和艺术收藏，理解加的斯作为古老海港的历史。它比单看大教堂和海岸更能说明城市为何与地中海航路长期相连。
建议时长：1.5–2 小时
馆藏介绍不代表每层或每厅均开放，出发前确认临时关闭和展览安排。
https://www.museosdeandalucia.es/web/museodecadiz</description><Point><coordinates>-6.29625242,36.53504313,0</coordinates></Point></Placemark><Placemark><name>帕尔马 · Es Baluard 当代艺术博物馆</name><description>博物馆把当代艺术放进帕尔马历史防御空间中，既能看展，也能观察城墙、海港与城市的关系。其艺术讨论与地中海环境有密切联系。
建议时长：1.5–2 小时
馆藏会轮换；展厅票、公共空间和特殊活动开放要求分别确认。
https://esbaluard.org/en/collection/</description><Point><coordinates>2.64166667,39.57083333,0</coordinates></Point></Placemark><Placemark><name>圣克鲁斯 · 阿纳加乡村公园（岛内山地）</name><description>特内里费东北部的山脉、古老月桂林和山村景观，与泰德火山和海滩形成明显对照。可先从游客中心及短步道认识云雾林，再按体力选择更长路线。
建议时长：半天至一天
山地天气变化快；部分保护区步道实行预约或通行限制。先查 Tenerife ON，不能把地图上的所有小径都视作随到随走。
https://www.webtenerife.co.uk/what-see/outdoor-attractions/parque-rural-de-anaga/</description><Point><coordinates>-16.24083333,28.53055556,0</coordinates></Point></Placemark><Placemark><name>梅里达 · 奇迹渡槽</name><description>高大的罗马输水结构把工程遗产直接放在城市绿地中。砖石相间的拱券和残存桥墩帮助理解古代梅里达如何获得生活用水，参观节奏比剧场区更轻。
建议时长：30–60 分钟
属于露天遗址，天气和光线影响观赏；不攀爬遗迹。
https://turismomerida.org/que-ver/acueducto-de-los-milagros/</description><Point><coordinates>-6.34805556,38.92444444,0</coordinates></Point></Placemark><Placemark><name>里斯本 · MAAT 艺术、建筑与科技博物馆</name><description>特茹河边的当代文化机构把艺术、建筑、科技与旧发电站的工业历史相连。适合从河岸公共空间进入，再按当期主题选择展览，不局限于古典藏品。
建议时长：1.5–2.5 小时
新馆、旧电厂及特别展的开放与票种分别核对；河岸散步和入馆参观是不同安排。
https://www.maat.pt/en</description><Point><coordinates>-9.19464,38.69591,0</coordinates></Point></Placemark><Placemark><name>波尔图 · 波尔图音乐之家</name><description>雷姆·库哈斯设计的音乐厅既是演出场所，也是波尔图当代建筑的重要一站。建筑导览与听音乐会是两种参观方式，可根据当期节目和导览场次分别选择。
建议时长：导览约 1 小时；演出另按节目时长
排练和演出可能限制部分厅室进入，官网明确需确认当天可参观空间。
https://casadamusica.com/en/a-casa/guided-tours/</description><Point><coordinates>-8.63083333,41.15861111,0</coordinates></Point></Placemark></Document></kml>