<?xml version='1.0' encoding='utf-8'?>
<kml xmlns="http://www.opengis.net/kml/2.2">
  <Document>
    <name>补充景点 · 38 处</name>
    <description>38 处公共景点，来自旅游网页的中文介绍和参考坐标。</description>
    <Placemark id="c01-s11">
      <name>马德里 · 11 国家考古博物馆</name>
      <description>用器物串起伊比利亚半岛的历史，从史前、伊比利亚文明到罗马与中世纪。与普拉多的绘画路线相比，这里更适合理解西班牙各地遗址之间的关系。
建议预留：2–3 小时
看点：伊比利亚雕塑、罗马器物与中世纪展厅；先按时代挑选两三个主题。
参观提示：大馆不必逐件看完；展厅与重点藏品可能轮换，参观前查看官方导览。
景点官网：https://www.spain.info/en/places-of-interest/national-archaeological-museum/
位置来源：https://en.wikipedia.org/wiki/National_Museum_of_Archaeology_(Madrid)
位置为旅行规划参考，不代表售票口或唯一入口。</description>
      <ExtendedData>
        <Data name="景点ID">
          <value>c01-s11</value>
        </Data>
        <Data name="城市">
          <value>马德里</value>
        </Data>
        <Data name="分类">
          <value>历史与考古</value>
        </Data>
        <Data name="景点官网">
          <value>https://www.spain.info/en/places-of-interest/national-archaeological-museum/</value>
        </Data>
        <Data name="位置来源">
          <value>https://en.wikipedia.org/wiki/National_Museum_of_Archaeology_(Madrid)</value>
        </Data>
      </ExtendedData>
      <Point>
        <coordinates>-3.689422,40.423645,0</coordinates>
      </Point>
    </Placemark>
    <Placemark id="c02-s11">
      <name>巴塞罗那 · 11 圣十字圣保罗医院现代主义建筑群</name>
      <description>这座旧医院将医疗、城市规划与加泰罗尼亚现代主义建筑结合起来。彩色穹顶、马赛克、独立院舍与花园展示了高迪以外的另一条巴塞罗那建筑线索。
建议预留：1.5–2 小时
看点：多梅内克·蒙塔内尔的院舍设计、陶瓷与马赛克细节，医疗历史展示。
参观提示：参观的是历史建筑园区；开放院舍和导览语言按当天票种确认。
景点官网：https://www.spain.info/en/places-of-interest/sant-pau-modernist-site/
位置来源：https://en.wikipedia.org/wiki/Hospital_de_Sant_Pau
位置为旅行规划参考，不代表售票口或唯一入口。</description>
      <ExtendedData>
        <Data name="景点ID">
          <value>c02-s11</value>
        </Data>
        <Data name="城市">
          <value>巴塞罗那</value>
        </Data>
        <Data name="分类">
          <value>艺术与建筑</value>
        </Data>
        <Data name="景点官网">
          <value>https://www.spain.info/en/places-of-interest/sant-pau-modernist-site/</value>
        </Data>
        <Data name="位置来源">
          <value>https://en.wikipedia.org/wiki/Hospital_de_Sant_Pau</value>
        </Data>
      </ExtendedData>
      <Point>
        <coordinates>2.17444444,41.41277778,0</coordinates>
      </Point>
    </Placemark>
    <Placemark id="c03-s08">
      <name>瓦伦西亚 · 08 阿尔布费拉自然公园（城外）</name>
      <description>潟湖、稻田、沙丘和海岸林带构成瓦伦西亚南面的自然景观，也与当地稻作和饮食紧密相连。既可在岸边步行看景，也可另订传统小船。
建议预留：半天，乘船另按所订航次安排
看点：潟湖水面、湿地鸟类、稻作景观与傍晚光线。
参观提示：位于城外；稻田景色和鸟类随季节变化，不能把夏季绿稻田当作四月实景。保护区部分参观需预约。
景点官网：https://www.visitvalencia.com/en/what-to-see-valencia/albufera-natural-park
位置来源：https://en.wikipedia.org/wiki/Albufera_de_Val%C3%A8ncia
位置为旅行规划参考，不代表售票口或唯一入口。</description>
      <ExtendedData>
        <Data name="景点ID">
          <value>c03-s08</value>
        </Data>
        <Data name="城市">
          <value>瓦伦西亚</value>
        </Data>
        <Data name="分类">
          <value>自然与风景</value>
        </Data>
        <Data name="景点官网">
          <value>https://www.visitvalencia.com/en/what-to-see-valencia/albufera-natural-park</value>
        </Data>
        <Data name="位置来源">
          <value>https://en.wikipedia.org/wiki/Albufera_de_Val%C3%A8ncia</value>
        </Data>
      </ExtendedData>
      <Point>
        <coordinates>-0.35222222,39.33166667,0</coordinates>
      </Point>
    </Placemark>
    <Placemark id="c03-s09">
      <name>瓦伦西亚 · 09 IVAM 瓦伦西亚现代艺术学院</name>
      <description>瓦伦西亚的重要现代与当代艺术机构，可从雕塑、绘画、摄影和专题展览观察二十世纪以来的艺术变化。适合在历史老城之外补充现代艺术视角。
建议预留：1.5–2 小时
看点：以当期展览为主线；留意胡里奥·冈萨雷斯等馆藏关联的艺术主题。
参观提示：馆藏目录不等于当天陈列；确认展厅开放与临时展览。
景点官网：https://www.spain.info/es/lugares-interes/instituto-valenciano-arte-moderno-ivam/
位置来源：https://es.wikipedia.org/wiki/IVAM
位置为旅行规划参考，不代表售票口或唯一入口。</description>
      <ExtendedData>
        <Data name="景点ID">
          <value>c03-s09</value>
        </Data>
        <Data name="城市">
          <value>瓦伦西亚</value>
        </Data>
        <Data name="分类">
          <value>美术馆</value>
        </Data>
        <Data name="景点官网">
          <value>https://www.spain.info/es/lugares-interes/instituto-valenciano-arte-moderno-ivam/</value>
        </Data>
        <Data name="位置来源">
          <value>https://es.wikipedia.org/wiki/IVAM</value>
        </Data>
      </ExtendedData>
      <Point>
        <coordinates>-0.38277778,39.48,0</coordinates>
      </Point>
    </Placemark>
    <Placemark id="c04-s09">
      <name>塞维利亚 · 09 伊塔利卡罗马遗址（城外）</name>
      <description>在塞维利亚近郊 Santiponce，可以从罗马圆形竞技场、街道和住宅遗迹理解古代城市生活。它补充了塞维利亚王宫与大教堂之外的罗马历史层次。
建议预留：2–3 小时，另加往返交通
看点：圆形竞技场、住宅马赛克与古代街道布局。
参观提示：遗址无遮阴的路段较多；具体可入内区域和马赛克展示以保护安排为准。
景点官网：https://www.spain.info/en/places-of-interest/archaeological-site-of-italica/
位置来源：https://en.wikipedia.org/wiki/Italica
位置为旅行规划参考，不代表售票口或唯一入口。</description>
      <ExtendedData>
        <Data name="景点ID">
          <value>c04-s09</value>
        </Data>
        <Data name="城市">
          <value>塞维利亚</value>
        </Data>
        <Data name="分类">
          <value>历史与考古</value>
        </Data>
        <Data name="景点官网">
          <value>https://www.spain.info/en/places-of-interest/archaeological-site-of-italica/</value>
        </Data>
        <Data name="位置来源">
          <value>https://en.wikipedia.org/wiki/Italica</value>
        </Data>
      </ExtendedData>
      <Point>
        <coordinates>-6.04666667,37.44388889,0</coordinates>
      </Point>
    </Placemark>
    <Placemark id="c05-s08">
      <name>格拉纳达 · 08 格拉纳达卡尔图哈修道院</name>
      <description>修道院内部展现格拉纳达巴洛克艺术：大理石、木雕和精密装饰形成浓密的视觉层次。与阿尔罕布拉的伊斯兰宫廷艺术并看，能直观感受两种不同的艺术语言。
建议预留：1–1.5 小时
看点：圣器室、圣体礼拜空间及教堂内部的雕刻装饰。
参观提示：以宗教建筑参观规则为准，入场、拍摄与开放空间可能调整。
景点官网：https://www.spain.info/es/lugares-interes/monasterio-cartuja/
位置来源：https://es.wikipedia.org/wiki/Cartuja_de_Granada
位置为旅行规划参考，不代表售票口或唯一入口。</description>
      <ExtendedData>
        <Data name="景点ID">
          <value>c05-s08</value>
        </Data>
        <Data name="城市">
          <value>格拉纳达</value>
        </Data>
        <Data name="分类">
          <value>艺术与建筑</value>
        </Data>
        <Data name="景点官网">
          <value>https://www.spain.info/es/lugares-interes/monasterio-cartuja/</value>
        </Data>
        <Data name="位置来源">
          <value>https://es.wikipedia.org/wiki/Cartuja_de_Granada</value>
        </Data>
      </ExtendedData>
      <Point>
        <coordinates>-3.59952798,37.19192301,0</coordinates>
      </Point>
    </Placemark>
    <Placemark id="c06-s07">
      <name>科尔多瓦 · 07 麦地那·阿萨哈拉宫城遗址（城外）</name>
      <description>科尔多瓦哈里发时代的宫城遗址沿山坡展开，展示宫廷、行政与城市规划的尺度。先看解释中心，再看现场残存的柱廊、平台和建筑，通常比只到遗址拍照更容易理解。
建议预留：半天
看点：山坡台地布局、石雕装饰、博物馆与遗址之间的对应关系。
参观提示：城外遗址与游客中心之间的接驳按当期安排；部分厅堂可能受修复限制。不要套用旧年份的特别开放活动。
景点官网：https://www.spain.info/es/lugares-interes/medina-azahara/
位置来源：https://en.wikipedia.org/wiki/Madinat_al-Zahra
位置为旅行规划参考，不代表售票口或唯一入口。</description>
      <ExtendedData>
        <Data name="景点ID">
          <value>c06-s07</value>
        </Data>
        <Data name="城市">
          <value>科尔多瓦</value>
        </Data>
        <Data name="分类">
          <value>历史与考古</value>
        </Data>
        <Data name="景点官网">
          <value>https://www.spain.info/es/lugares-interes/medina-azahara/</value>
        </Data>
        <Data name="位置来源">
          <value>https://en.wikipedia.org/wiki/Madinat_al-Zahra</value>
        </Data>
      </ExtendedData>
      <Point>
        <coordinates>-4.867,37.888,0</coordinates>
      </Point>
    </Placemark>
    <Placemark id="c07-s07">
      <name>马拉加 · 07 拉孔塞普西翁历史植物园</name>
      <description>马拉加北侧的历史植物园以亚热带植被、林荫路径和景观园林见长。适合把海岸城市的行程延伸到植物与花园，而非只在沙滩和市中心活动。
建议预留：2–3 小时
看点：亚热带植物、历史园路与不同高度的景观视角。
参观提示：花期受天气影响，不能保证四月某一种花正盛开；园路有坡度，先查看导览图。
景点官网：https://laconcepcion.malaga.eu/es/
位置来源：https://en.wikipedia.org/wiki/Jard%C3%ADn_Bot%C3%A1nico_La_Concepci%C3%B3n
位置为旅行规划参考，不代表售票口或唯一入口。</description>
      <ExtendedData>
        <Data name="景点ID">
          <value>c07-s07</value>
        </Data>
        <Data name="城市">
          <value>马拉加</value>
        </Data>
        <Data name="分类">
          <value>自然与风景</value>
        </Data>
        <Data name="景点官网">
          <value>https://laconcepcion.malaga.eu/es/</value>
        </Data>
        <Data name="位置来源">
          <value>https://en.wikipedia.org/wiki/Jard%C3%ADn_Bot%C3%A1nico_La_Concepci%C3%B3n</value>
        </Data>
      </ExtendedData>
      <Point>
        <coordinates>-4.42666667,36.76222222,0</coordinates>
      </Point>
    </Placemark>
    <Placemark id="c07-s08">
      <name>马拉加 · 08 马拉加蓬皮杜中心</name>
      <description>港口彩色立方体下的艺术空间，提供现代与当代艺术展览。与毕加索、提森等馆相比，可把注意力放在不同媒介、当代主题与展览策划。
建议预留：1.5–2 小时
看点：按当期展览选择绘画、影像、装置或雕塑；彩色立方体与港口步道。
参观提示：馆藏借展与临时展会更新，以官网展期为准；建筑外观不需要等同于购买展览门票。
景点官网：https://centrepompidou-malaga.eu/
位置来源：https://es.wikipedia.org/wiki/Centro_Pompidou_de_M%C3%A1laga
位置为旅行规划参考，不代表售票口或唯一入口。</description>
      <ExtendedData>
        <Data name="景点ID">
          <value>c07-s08</value>
        </Data>
        <Data name="城市">
          <value>马拉加</value>
        </Data>
        <Data name="分类">
          <value>美术馆</value>
        </Data>
        <Data name="景点官网">
          <value>https://centrepompidou-malaga.eu/</value>
        </Data>
        <Data name="位置来源">
          <value>https://es.wikipedia.org/wiki/Centro_Pompidou_de_M%C3%A1laga</value>
        </Data>
      </ExtendedData>
      <Point>
        <coordinates>-4.4125449,36.7189799,0</coordinates>
      </Point>
    </Placemark>
    <Placemark id="c08-s04">
      <name>龙达 · 04 阿西尼波罗马遗址（龙达远郊）</name>
      <description>在龙达周边高地上，罗马剧场残迹与开阔乡村景观同时可见。这里提供古代聚落与安达卢西亚田野的组合，节奏与龙达新桥周边的密集老城不同。
建议预留：1–1.5 小时，另留往返交通
看点：罗马剧场遗迹、看台与高地远景。
参观提示：远离龙达市中心，出发前确认当天开放；阴雨或大风会影响露天游览。
景点官网：https://www.spain.info/es/lugares-interes/ruinas-teatro-romano-acinipo-ronda-vieja/
位置来源：https://en.wikipedia.org/wiki/Acinipo
位置为旅行规划参考，不代表售票口或唯一入口。</description>
      <ExtendedData>
        <Data name="景点ID">
          <value>c08-s04</value>
        </Data>
        <Data name="城市">
          <value>龙达</value>
        </Data>
        <Data name="分类">
          <value>历史与考古</value>
        </Data>
        <Data name="景点官网">
          <value>https://www.spain.info/es/lugares-interes/ruinas-teatro-romano-acinipo-ronda-vieja/</value>
        </Data>
        <Data name="位置来源">
          <value>https://en.wikipedia.org/wiki/Acinipo</value>
        </Data>
      </ExtendedData>
      <Point>
        <coordinates>-5.239,36.832,0</coordinates>
      </Point>
    </Placemark>
    <Placemark id="c09-s05">
      <name>托莱多 · 05 圣玛利亚白色会堂</name>
      <description>这处历史会堂以白色柱列、马蹄拱与细密装饰形成安静的空间。它让托莱多的犹太历史与穆德哈尔艺术更具体，不只是把“三种文化”当作一句城市标签。
建议预留：30–60 分钟
看点：白色柱厅、拱券与柱头；建筑在不同时期的用途。
参观提示：结合官方介绍理解宗教用途的变迁；通票包含项目和开放时间需再次核对。
景点官网：https://www.turismocastillalamancha.es/es/cultura-y-patrimonio/monumentos/toledo/sinagoga-de-santa-maria-la-blanca
位置来源：https://en.wikipedia.org/wiki/Synagogue_of_Santa_Mar%C3%ADa_la_Blanca
位置为旅行规划参考，不代表售票口或唯一入口。</description>
      <ExtendedData>
        <Data name="景点ID">
          <value>c09-s05</value>
        </Data>
        <Data name="城市">
          <value>托莱多</value>
        </Data>
        <Data name="分类">
          <value>历史与考古</value>
        </Data>
        <Data name="景点官网">
          <value>https://www.turismocastillalamancha.es/es/cultura-y-patrimonio/monumentos/toledo/sinagoga-de-santa-maria-la-blanca</value>
        </Data>
        <Data name="位置来源">
          <value>https://en.wikipedia.org/wiki/Synagogue_of_Santa_Mar%C3%ADa_la_Blanca</value>
        </Data>
      </ExtendedData>
      <Point>
        <coordinates>-4.03027778,39.85694444,0</coordinates>
      </Point>
    </Placemark>
    <Placemark id="c10-s04">
      <name>塞哥维亚 · 04 拉格兰哈皇家花园（城外）</name>
      <description>塞哥维亚附近的法式皇家花园以林荫轴线、神话雕塑与大型喷泉组成景观。可把旅行重点放在园林设计与山地背景，宫殿内部另作可选。
建议预留：2–3 小时，另加往返交通
看点：雕塑喷泉、花园轴线和山林环境。
参观提示：花园开放与喷泉喷水是两回事；喷水有特定日历，并受供水和维护影响，四月不能默认看到全部喷泉运行。
景点官网：https://www.spain.info/es/lugares-interes/jardines-granja-san-ildefonso/
位置来源：https://en.wikipedia.org/wiki/Royal_Palace_of_La_Granja_de_San_Ildefonso
位置为旅行规划参考，不代表售票口或唯一入口。</description>
      <ExtendedData>
        <Data name="景点ID">
          <value>c10-s04</value>
        </Data>
        <Data name="城市">
          <value>塞哥维亚</value>
        </Data>
        <Data name="分类">
          <value>自然与风景</value>
        </Data>
        <Data name="景点官网">
          <value>https://www.spain.info/es/lugares-interes/jardines-granja-san-ildefonso/</value>
        </Data>
        <Data name="位置来源">
          <value>https://en.wikipedia.org/wiki/Royal_Palace_of_La_Granja_de_San_Ildefonso</value>
        </Data>
      </ExtendedData>
      <Point>
        <coordinates>-4.00444444,40.8975,0</coordinates>
      </Point>
    </Placemark>
    <Placemark id="c11-s04">
      <name>萨拉曼卡 · 04 卡萨利斯新艺术与装饰艺术博物馆</name>
      <description>以十九世纪末至二十世纪初的装饰艺术为主题，展品涵盖玻璃、雕塑、首饰等，建筑本身也具有现代主义风格。这里的参观重点是工艺与设计，而非家族生活陈设。
建议预留：1–1.5 小时
看点：彩色玻璃建筑、玻璃器与小型装饰艺术的材料和造型。
参观提示：按兴趣挑选材料专题；馆内拍摄规定与当期展区以现场为准。
景点官网：https://www.spain.info/en/places-of-interest/art-nouveau-art-deco-museum/
位置来源：https://en.wikipedia.org/wiki/Casa_Lis
位置为旅行规划参考，不代表售票口或唯一入口。</description>
      <ExtendedData>
        <Data name="景点ID">
          <value>c11-s04</value>
        </Data>
        <Data name="城市">
          <value>萨拉曼卡</value>
        </Data>
        <Data name="分类">
          <value>美术馆</value>
        </Data>
        <Data name="景点官网">
          <value>https://www.spain.info/en/places-of-interest/art-nouveau-art-deco-museum/</value>
        </Data>
        <Data name="位置来源">
          <value>https://en.wikipedia.org/wiki/Casa_Lis</value>
        </Data>
      </ExtendedData>
      <Point>
        <coordinates>-5.6668,40.9595,0</coordinates>
      </Point>
    </Placemark>
    <Placemark id="c12-s04">
      <name>圣地亚哥 · 04 加利西亚民族博物馆</name>
      <description>博物馆设于旧修道院，介绍加利西亚的生活方式、传统行业和地方文化。它把圣地亚哥从朝圣终点扩展为一座有渔业、乡村、工艺和社会记忆的地区城市。
建议预留：1.5–2 小时
看点：地方生活与传统行业展示；历史建筑内的特色楼梯。
参观提示：留意展厅说明语言；不同主题展可能调整，先查馆方开放安排。
景点官网：https://www.santiagoturismo.com/museos/museo-do-pobo-galego
位置来源：https://es.wikipedia.org/wiki/Museo_del_Pueblo_Gallego
位置为旅行规划参考，不代表售票口或唯一入口。</description>
      <ExtendedData>
        <Data name="景点ID">
          <value>c12-s04</value>
        </Data>
        <Data name="城市">
          <value>圣地亚哥</value>
        </Data>
        <Data name="分类">
          <value>地方文化</value>
        </Data>
        <Data name="景点官网">
          <value>https://www.santiagoturismo.com/museos/museo-do-pobo-galego</value>
        </Data>
        <Data name="位置来源">
          <value>https://es.wikipedia.org/wiki/Museo_del_Pueblo_Gallego</value>
        </Data>
      </ExtendedData>
      <Point>
        <coordinates>-8.539139,42.882749,0</coordinates>
      </Point>
    </Placemark>
    <Placemark id="c13-s04">
      <name>毕尔巴鄂 · 04 比斯开运输桥（河口近郊）</name>
      <description>连接 Portugalete 与 Getxo 的运输桥仍承担过河功能，是理解毕尔巴鄂河口工业历史的独特地点。桥下的吊舱与上方结构展示了港口航运和跨河交通如何共存。
建议预留：1.5–2 小时，另计市中心往返
看点：运作中的吊舱、钢结构与河口景观；高处步道另按开放情况选择。
参观提示：不在古根海姆附近的市中心段；吊舱与高处步道的票种、运营和天气限制分别确认。
景点官网：https://www.spain.info/en/places-of-interest/puente-colgante-vizcaya/
位置来源：https://en.wikipedia.org/wiki/Vizcaya_Bridge
位置为旅行规划参考，不代表售票口或唯一入口。</description>
      <ExtendedData>
        <Data name="景点ID">
          <value>c13-s04</value>
        </Data>
        <Data name="城市">
          <value>毕尔巴鄂</value>
        </Data>
        <Data name="分类">
          <value>艺术与建筑</value>
        </Data>
        <Data name="景点官网">
          <value>https://www.spain.info/en/places-of-interest/puente-colgante-vizcaya/</value>
        </Data>
        <Data name="位置来源">
          <value>https://en.wikipedia.org/wiki/Vizcaya_Bridge</value>
        </Data>
      </ExtendedData>
      <Point>
        <coordinates>-3.0169,43.3231,0</coordinates>
      </Point>
    </Placemark>
    <Placemark id="c14-s04">
      <name>圣塞巴斯蒂安 · 04 圣特尔莫博物馆</name>
      <description>以巴斯克社会与文化为主线，将历史、艺术和社会变迁放进旧修道院与现代扩建空间。适合在海湾景色和饮食之外，了解当地身份、行业与日常生活。
建议预留：1.5–2 小时
看点：巴斯克历史与艺术、修道院空间、当期专题展。
参观提示：具体藏品以当日展示为准；可先选地方历史，再看艺术部分。
景点官网：https://www.spain.info/en/places-of-interest/municipal-museum-san-telmo/
位置来源：https://en.wikipedia.org/wiki/San_Telmo_Museoa
位置为旅行规划参考，不代表售票口或唯一入口。</description>
      <ExtendedData>
        <Data name="景点ID">
          <value>c14-s04</value>
        </Data>
        <Data name="城市">
          <value>圣塞巴斯蒂安</value>
        </Data>
        <Data name="分类">
          <value>地方文化</value>
        </Data>
        <Data name="景点官网">
          <value>https://www.spain.info/en/places-of-interest/municipal-museum-san-telmo/</value>
        </Data>
        <Data name="位置来源">
          <value>https://en.wikipedia.org/wiki/San_Telmo_Museoa</value>
        </Data>
      </ExtendedData>
      <Point>
        <coordinates>-1.984917,43.324922,0</coordinates>
      </Point>
    </Placemark>
    <Placemark id="c14-s05">
      <name>圣塞巴斯蒂安 · 05 风之梳海岸雕塑</name>
      <description>奇利达的钢铁雕塑与岩石、海浪及公共空间相互作用，是圣塞巴斯蒂安最有地方性的室外艺术之一。观看不只是辨认雕塑形状，也包括海风、声响和潮汐改变的现场感。
建议预留：30–60 分钟
看点：岩岸上的三组钢雕、海浪与铺装空间的关系。
参观提示：大浪和恶劣天气时遵守现场封闭措施，不靠近危险边缘；无需为看“最大浪”专程冒险。
景点官网：https://sansebastianturismoa.eus/hacer/esculturas-al-aire-libre/peine-del-viento/
位置来源：https://es.wikipedia.org/wiki/Peine_del_viento
位置为旅行规划参考，不代表售票口或唯一入口。</description>
      <ExtendedData>
        <Data name="景点ID">
          <value>c14-s05</value>
        </Data>
        <Data name="城市">
          <value>圣塞巴斯蒂安</value>
        </Data>
        <Data name="分类">
          <value>自然与风景</value>
        </Data>
        <Data name="景点官网">
          <value>https://sansebastianturismoa.eus/hacer/esculturas-al-aire-libre/peine-del-viento/</value>
        </Data>
        <Data name="位置来源">
          <value>https://es.wikipedia.org/wiki/Peine_del_viento</value>
        </Data>
      </ExtendedData>
      <Point>
        <coordinates>-2.00567007,43.32177464,0</coordinates>
      </Point>
    </Placemark>
    <Placemark id="c15-s05">
      <name>萨拉戈萨 · 05 凯撒奥古斯塔罗马剧场博物馆</name>
      <description>现代城市街区中保存的罗马剧场遗址，可与展厅一起理解古代演出、建筑结构和萨拉戈萨的罗马起源。它是皮拉尔大教堂之外的另一条城市历史线。
建议预留：1–1.5 小时
看点：剧场遗址与解释展示；可选同属罗马路线的论坛、浴场和河港博物馆。
参观提示：四馆联票与单馆票不同；一段中转停留不必把四馆全部排满。
景点官网：https://www.zaragoza.es/sede/portal/museos/teatro/
位置来源：https://es.wikipedia.org/wiki/Teatro_romano_de_Zaragoza
位置为旅行规划参考，不代表售票口或唯一入口。</description>
      <ExtendedData>
        <Data name="景点ID">
          <value>c15-s05</value>
        </Data>
        <Data name="城市">
          <value>萨拉戈萨</value>
        </Data>
        <Data name="分类">
          <value>历史与考古</value>
        </Data>
        <Data name="景点官网">
          <value>https://www.zaragoza.es/sede/portal/museos/teatro/</value>
        </Data>
        <Data name="位置来源">
          <value>https://es.wikipedia.org/wiki/Teatro_romano_de_Zaragoza</value>
        </Data>
      </ExtendedData>
      <Point>
        <coordinates>-0.877658,41.652172,0</coordinates>
      </Point>
    </Placemark>
    <Placemark id="c16-s04">
      <name>赫罗纳 · 04 赫罗纳电影博物馆</name>
      <description>从影戏、光学玩具和早期影像装置走到电影诞生，展示人们如何让静止图像动起来。它补充了赫罗纳中世纪街巷之外的影像艺术与技术文化。
建议预留：1–1.5 小时
看点：电影诞生前的光学装置、早期放映技术及 Tomàs Mallol 收藏。
参观提示：常设展示和临时展分开查看；开放语言与可体验装置以馆方安排为准。
景点官网：https://museudelcinema.girona.cat/eng/
位置来源：https://en.wikipedia.org/wiki/Cinema_Museum_(Girona)
位置为旅行规划参考，不代表售票口或唯一入口。</description>
      <ExtendedData>
        <Data name="景点ID">
          <value>c16-s04</value>
        </Data>
        <Data name="城市">
          <value>赫罗纳</value>
        </Data>
        <Data name="分类">
          <value>地方文化</value>
        </Data>
        <Data name="景点官网">
          <value>https://museudelcinema.girona.cat/eng/</value>
        </Data>
        <Data name="位置来源">
          <value>https://en.wikipedia.org/wiki/Cinema_Museum_(Girona)</value>
        </Data>
      </ExtendedData>
      <Point>
        <coordinates>2.82222222,41.98361111,0</coordinates>
      </Point>
    </Placemark>
    <Placemark id="c17-s04">
      <name>阿利坎特 · 04 塔巴尔卡岛（乘船前往）</name>
      <description>阿利坎特外海的有人居住小岛，兼有城墙街区、海岸地貌和海洋保护区背景。四月更适合步行看景与海鲜午餐，不必把下水作为主要目标。
建议预留：半天至一天，含船程
看点：小岛街巷、城墙海岸及清澈海域的岸上观察。
参观提示：核对实际出发港、返航班次和海况；岛上停留时间与船程不能混为一谈。保护区水上活动遵守运营方说明。
景点官网：https://alicanteturismo.com/en/tabarca-island/
位置来源：https://en.wikipedia.org/wiki/Tabarca
位置为旅行规划参考，不代表售票口或唯一入口。</description>
      <ExtendedData>
        <Data name="景点ID">
          <value>c17-s04</value>
        </Data>
        <Data name="城市">
          <value>阿利坎特</value>
        </Data>
        <Data name="分类">
          <value>自然与风景</value>
        </Data>
        <Data name="景点官网">
          <value>https://alicanteturismo.com/en/tabarca-island/</value>
        </Data>
        <Data name="位置来源">
          <value>https://en.wikipedia.org/wiki/Tabarca</value>
        </Data>
      </ExtendedData>
      <Point>
        <coordinates>-0.48222222,38.16638889,0</coordinates>
      </Point>
    </Placemark>
    <Placemark id="c18-s04">
      <name>加的斯 · 04 加的斯博物馆</name>
      <description>通过腓尼基、罗马遗物和艺术收藏，理解加的斯作为古老海港的历史。它比单看大教堂和海岸更能说明城市为何与地中海航路长期相连。
建议预留：1.5–2 小时
看点：腓尼基人形石棺与古代海港相关器物；有余力再看绘画。
参观提示：馆藏介绍不代表每层或每厅均开放，出发前确认临时关闭和展览安排。
景点官网：https://www.museosdeandalucia.es/web/museodecadiz
位置来源：https://es.wikipedia.org/wiki/Museo_de_C%C3%A1diz
位置为旅行规划参考，不代表售票口或唯一入口。</description>
      <ExtendedData>
        <Data name="景点ID">
          <value>c18-s04</value>
        </Data>
        <Data name="城市">
          <value>加的斯</value>
        </Data>
        <Data name="分类">
          <value>历史与考古</value>
        </Data>
        <Data name="景点官网">
          <value>https://www.museosdeandalucia.es/web/museodecadiz</value>
        </Data>
        <Data name="位置来源">
          <value>https://es.wikipedia.org/wiki/Museo_de_C%C3%A1diz</value>
        </Data>
      </ExtendedData>
      <Point>
        <coordinates>-6.29625242,36.53504313,0</coordinates>
      </Point>
    </Placemark>
    <Placemark id="c19-s04">
      <name>帕尔马 · 04 Es Baluard 当代艺术博物馆</name>
      <description>博物馆把当代艺术放进帕尔马历史防御空间中，既能看展，也能观察城墙、海港与城市的关系。其艺术讨论与地中海环境有密切联系。
建议预留：1.5–2 小时
看点：当期现代与当代艺术展、堡垒建筑与室外视角。
参观提示：馆藏会轮换；展厅票、公共空间和特殊活动开放要求分别确认。
景点官网：https://esbaluard.org/en/collection/
位置来源：https://en.wikipedia.org/wiki/Es_Baluard
位置为旅行规划参考，不代表售票口或唯一入口。</description>
      <ExtendedData>
        <Data name="景点ID">
          <value>c19-s04</value>
        </Data>
        <Data name="城市">
          <value>帕尔马</value>
        </Data>
        <Data name="分类">
          <value>美术馆</value>
        </Data>
        <Data name="景点官网">
          <value>https://esbaluard.org/en/collection/</value>
        </Data>
        <Data name="位置来源">
          <value>https://en.wikipedia.org/wiki/Es_Baluard</value>
        </Data>
      </ExtendedData>
      <Point>
        <coordinates>2.64166667,39.57083333,0</coordinates>
      </Point>
    </Placemark>
    <Placemark id="c20-s04">
      <name>圣克鲁斯 · 04 阿纳加乡村公园（岛内山地）</name>
      <description>特内里费东北部的山脉、古老月桂林和山村景观，与泰德火山和海滩形成明显对照。可先从游客中心及短步道认识云雾林，再按体力选择更长路线。
建议预留：半天至一天
看点：Cruz del Carmen 周边林地、月桂林与山脊观景。
参观提示：山地天气变化快；部分保护区步道实行预约或通行限制。先查 Tenerife ON，不能把地图上的所有小径都视作随到随走。
景点官网：https://www.webtenerife.co.uk/what-see/outdoor-attractions/parque-rural-de-anaga/
位置来源：https://en.wikipedia.org/wiki/Macizo_de_Anaga
位置为旅行规划参考，不代表售票口或唯一入口。</description>
      <ExtendedData>
        <Data name="景点ID">
          <value>c20-s04</value>
        </Data>
        <Data name="城市">
          <value>圣克鲁斯</value>
        </Data>
        <Data name="分类">
          <value>自然与风景</value>
        </Data>
        <Data name="景点官网">
          <value>https://www.webtenerife.co.uk/what-see/outdoor-attractions/parque-rural-de-anaga/</value>
        </Data>
        <Data name="位置来源">
          <value>https://en.wikipedia.org/wiki/Macizo_de_Anaga</value>
        </Data>
      </ExtendedData>
      <Point>
        <coordinates>-16.24083333,28.53055556,0</coordinates>
      </Point>
    </Placemark>
    <Placemark id="c21-s06">
      <name>梅里达 · 06 奇迹渡槽</name>
      <description>高大的罗马输水结构把工程遗产直接放在城市绿地中。砖石相间的拱券和残存桥墩帮助理解古代梅里达如何获得生活用水，参观节奏比剧场区更轻。
建议预留：30–60 分钟
看点：拱券层次、砖石结构与绿地中的远近视角。
参观提示：属于露天遗址，天气和光线影响观赏；不攀爬遗迹。
景点官网：https://turismomerida.org/que-ver/acueducto-de-los-milagros/
位置来源：https://es.wikipedia.org/wiki/Acueducto_de_los_Milagros
位置为旅行规划参考，不代表售票口或唯一入口。</description>
      <ExtendedData>
        <Data name="景点ID">
          <value>c21-s06</value>
        </Data>
        <Data name="城市">
          <value>梅里达</value>
        </Data>
        <Data name="分类">
          <value>历史与考古</value>
        </Data>
        <Data name="景点官网">
          <value>https://turismomerida.org/que-ver/acueducto-de-los-milagros/</value>
        </Data>
        <Data name="位置来源">
          <value>https://es.wikipedia.org/wiki/Acueducto_de_los_Milagros</value>
        </Data>
      </ExtendedData>
      <Point>
        <coordinates>-6.34805556,38.92444444,0</coordinates>
      </Point>
    </Placemark>
    <Placemark id="c22-s01">
      <name>里斯本 · 01 热罗尼莫斯修道院</name>
      <description>贝伦区最值得细看的历史建筑之一。曼努埃尔式石雕把晚期哥特与文艺复兴元素交织在一起，立面和回廊比远远拍一张全景更有意思；它也与葡萄牙航海时代和王室赞助密切相关。
建议预留：1.5–2.5 小时，排队另计
看点：回廊的石柱、拱券和雕刻细节；教堂与修道院空间的不同尺度。
参观提示：先查当日开放区域与入场安排；修道院和教堂的入口、时段可能不同。贝伦区另留散步与用餐时间。
景点官网：https://www.patrimoniocultural.gov.pt/pat_mun/mosteiros-dos-jeronimos-e-torre-de-belem-em-lisboa/
位置来源：https://en.wikipedia.org/wiki/Jer%C3%B3nimos_Monastery
位置为旅行规划参考，不代表售票口或唯一入口。</description>
      <ExtendedData>
        <Data name="景点ID">
          <value>c22-s01</value>
        </Data>
        <Data name="城市">
          <value>里斯本</value>
        </Data>
        <Data name="分类">
          <value>历史建筑</value>
        </Data>
        <Data name="景点官网">
          <value>https://www.patrimoniocultural.gov.pt/pat_mun/mosteiros-dos-jeronimos-e-torre-de-belem-em-lisboa/</value>
        </Data>
        <Data name="位置来源">
          <value>https://en.wikipedia.org/wiki/Jer%C3%B3nimos_Monastery</value>
        </Data>
      </ExtendedData>
      <Point>
        <coordinates>-9.20611111,38.69777778,0</coordinates>
      </Point>
    </Placemark>
    <Placemark id="c22-s02">
      <name>里斯本 · 02 圣乔治城堡</name>
      <description>城堡占据老城山丘，是理解里斯本地形的好起点。城墙、考古遗迹与观景空间连在一起，可以从高处辨认红屋顶街区、下城和特茹河，再沿坡道走入老城。
建议预留：1.5–2 小时
看点：城墙步道、城市与河面视野；对历史有兴趣可加看馆内考古与收藏展示。
参观提示：石阶与坡道较多，雨后注意路面；包车在外围上下客更实际。当天结合阿尔法玛，避免反复爬同一座山。
景点官网：https://castelodesaojorge.pt/en/
位置来源：https://en.wikipedia.org/wiki/S%C3%A3o_Jorge_Castle
位置为旅行规划参考，不代表售票口或唯一入口。</description>
      <ExtendedData>
        <Data name="景点ID">
          <value>c22-s02</value>
        </Data>
        <Data name="城市">
          <value>里斯本</value>
        </Data>
        <Data name="分类">
          <value>城堡与观景</value>
        </Data>
        <Data name="景点官网">
          <value>https://castelodesaojorge.pt/en/</value>
        </Data>
        <Data name="位置来源">
          <value>https://en.wikipedia.org/wiki/S%C3%A3o_Jorge_Castle</value>
        </Data>
      </ExtendedData>
      <Point>
        <coordinates>-9.13361111,38.71388889,0</coordinates>
      </Point>
    </Placemark>
    <Placemark id="c22-s03">
      <name>里斯本 · 03 阿尔法玛老城</name>
      <description>这里适合用步行认识里斯本：狭窄街巷、坡道、瓷砖立面和河景组成了日常风景。法朵音乐也是这一带的重要文化线索，可把白天的老城散步与晚上听歌分开安排。
建议预留：半天；法朵晚场另留约 1–2 小时
看点：顺坡慢行看街巷与瓷砖；找一处观景台停留，晚上按兴趣预约法朵演出。
参观提示：这是生活街区，拍照和听歌时尊重住户与表演。订法朵时确认是否含餐、演出时长和最低消费，包车不能代替巷内步行。
景点官网：https://www.visitlisboa.com/en/places/alfama
位置来源：https://en.wikipedia.org/wiki/Alfama
位置为旅行规划参考，不代表售票口或唯一入口。</description>
      <ExtendedData>
        <Data name="景点ID">
          <value>c22-s03</value>
        </Data>
        <Data name="城市">
          <value>里斯本</value>
        </Data>
        <Data name="分类">
          <value>地方特色</value>
        </Data>
        <Data name="景点官网">
          <value>https://www.visitlisboa.com/en/places/alfama</value>
        </Data>
        <Data name="位置来源">
          <value>https://en.wikipedia.org/wiki/Alfama</value>
        </Data>
      </ExtendedData>
      <Point>
        <coordinates>-9.13,38.71222222,0</coordinates>
      </Point>
    </Placemark>
    <Placemark id="c22-s04">
      <name>里斯本 · 04 古尔本基安博物馆</name>
      <description>以古尔本基安的个人收藏为核心，跨越古代文明、东方艺术与欧洲绘画、家具和珠宝。它位于现代馆舍而非收藏家故居，适合从藏家的审美出发，比较不同材料与时代的精致作品。
建议预留：2–3 小时；连花园可半天
看点：拉利克珠宝与玻璃、欧洲大师绘画和法国装饰艺术；只挑最感兴趣的两三条收藏线细看。
参观提示：馆方已发布 2026 年重新开放信息；2027 年到访前仍需核对开放日、展览与具体展品。创始人收藏与现代艺术中心 CAM 是不同参观内容。
景点官网：https://gulbenkian.pt/museu/en/publications/directors-choice-calouste-gulbenkian-museum/
位置来源：https://en.wikipedia.org/wiki/Calouste_Gulbenkian_Museum
位置为旅行规划参考，不代表售票口或唯一入口。</description>
      <ExtendedData>
        <Data name="景点ID">
          <value>c22-s04</value>
        </Data>
        <Data name="城市">
          <value>里斯本</value>
        </Data>
        <Data name="分类">
          <value>宅邸与收藏</value>
        </Data>
        <Data name="景点官网">
          <value>https://gulbenkian.pt/museu/en/publications/directors-choice-calouste-gulbenkian-museum/</value>
        </Data>
        <Data name="位置来源">
          <value>https://en.wikipedia.org/wiki/Calouste_Gulbenkian_Museum</value>
        </Data>
      </ExtendedData>
      <Point>
        <coordinates>-9.15416667,38.73666667,0</coordinates>
      </Point>
    </Placemark>
    <Placemark id="c22-s05">
      <name>里斯本 · 05 弗龙特拉侯爵宫</name>
      <description>很贴近你们喜欢的“走进家族古宅”体验。宫邸、艺术廊、花园和瓷砖装饰可以一起欣赏：既看建筑，也看贵族家庭如何用历史叙事和装饰表达自己的身份。
建议预留：1.5–2.5 小时
看点：宫内导览、花园与蓝白瓷砖装饰；重点放在瓷砖画面和宅邸空间，不必赶着打卡。
参观提示：官网明确宫内参观必须参加导览；庭园票与宫殿加庭园票不同。提前确认英语场次、余位及开放区域，不能把只买花园票当作可入内。
景点官网：https://fronteira-alorna.pt/en/to-visit/
位置来源：https://en.wikipedia.org/wiki/Palace_of_the_Marquises_of_Fronteira
位置为旅行规划参考，不代表售票口或唯一入口。</description>
      <ExtendedData>
        <Data name="景点ID">
          <value>c22-s05</value>
        </Data>
        <Data name="城市">
          <value>里斯本</value>
        </Data>
        <Data name="分类">
          <value>宅邸与收藏</value>
        </Data>
        <Data name="景点官网">
          <value>https://fronteira-alorna.pt/en/to-visit/</value>
        </Data>
        <Data name="位置来源">
          <value>https://en.wikipedia.org/wiki/Palace_of_the_Marquises_of_Fronteira</value>
        </Data>
      </ExtendedData>
      <Point>
        <coordinates>-9.18027778,38.74,0</coordinates>
      </Point>
    </Placemark>
    <Placemark id="c22-s06">
      <name>里斯本 · 06 阿茹达国家宫</name>
      <description>十九世纪葡萄牙王室旧居，适合喜欢完整房间陈设的人：家具、织物、瓷器、绘画与装饰艺术放在宫殿空间中看，能理解宫廷生活与礼仪的尺度。它与古尔本基安的收藏型参观形成互补。
建议预留：1.5–2 小时；珍宝馆另计
看点：宫殿厅室、家具、玻璃与瓷器等装饰收藏；珠宝兴趣强可另看同址的皇家珍宝博物馆。
参观提示：国家宫与皇家珍宝博物馆是不同参观内容，核对票种和各自开放日。宫殿也承担官方活动，出发前查看临时安排。
景点官网：https://www.visitportugal.com/en/content/palacio-nacional-da-ajuda
位置来源：https://en.wikipedia.org/wiki/Palace_of_Ajuda
位置为旅行规划参考，不代表售票口或唯一入口。</description>
      <ExtendedData>
        <Data name="景点ID">
          <value>c22-s06</value>
        </Data>
        <Data name="城市">
          <value>里斯本</value>
        </Data>
        <Data name="分类">
          <value>宅邸与收藏</value>
        </Data>
        <Data name="景点官网">
          <value>https://www.visitportugal.com/en/content/palacio-nacional-da-ajuda</value>
        </Data>
        <Data name="位置来源">
          <value>https://en.wikipedia.org/wiki/Palace_of_Ajuda</value>
        </Data>
      </ExtendedData>
      <Point>
        <coordinates>-9.19832778,38.70759444,0</coordinates>
      </Point>
    </Placemark>
    <Placemark id="c22-s07">
      <name>里斯本 · 07 MAAT 艺术、建筑与科技博物馆</name>
      <description>特茹河边的当代文化机构把艺术、建筑、科技与旧发电站的工业历史相连。适合从河岸公共空间进入，再按当期主题选择展览，不局限于古典藏品。
建议预留：1.5–2.5 小时
看点：河岸建筑与公共空间、当期艺术展，以及旧发电站相关展示。
参观提示：新馆、旧电厂及特别展的开放与票种分别核对；河岸散步和入馆参观是不同安排。
景点官网：https://www.maat.pt/en
位置来源：https://en.wikipedia.org/wiki/Museum_of_Art%2C_Architecture_and_Technology
位置为旅行规划参考，不代表售票口或唯一入口。</description>
      <ExtendedData>
        <Data name="景点ID">
          <value>c22-s07</value>
        </Data>
        <Data name="城市">
          <value>里斯本</value>
        </Data>
        <Data name="分类">
          <value>艺术与建筑</value>
        </Data>
        <Data name="景点官网">
          <value>https://www.maat.pt/en</value>
        </Data>
        <Data name="位置来源">
          <value>https://en.wikipedia.org/wiki/Museum_of_Art%2C_Architecture_and_Technology</value>
        </Data>
      </ExtendedData>
      <Point>
        <coordinates>-9.19464,38.69591,0</coordinates>
      </Point>
    </Placemark>
    <Placemark id="c23-s01">
      <name>波尔图 · 01 里贝拉河岸与广场</name>
      <description>波尔图老城与杜罗河相接的核心区域。彩色建筑、河岸步道和小广场适合慢行，也是把老城、路易一世大桥和对岸盖亚连起来的出发点；这里的价值在街景与氛围。
建议预留：2–3 小时；加过河与酒窖可半天
看点：里贝拉广场、河岸街景和桥景；有余力再去盖亚一侧回望波尔图。
参观提示：上下城高差明显，不要只按平面距离安排步行。若想参观波特酒酒窖，另选酒庄官网预约并确认品酒内容。
景点官网：https://visitporto.travel/en-GB/poi/5cd04b4ff979e00001f6f762
位置来源：https://en.wikipedia.org/wiki/Ribeira_Square
位置为旅行规划参考，不代表售票口或唯一入口。</description>
      <ExtendedData>
        <Data name="景点ID">
          <value>c23-s01</value>
        </Data>
        <Data name="城市">
          <value>波尔图</value>
        </Data>
        <Data name="分类">
          <value>老城与河岸</value>
        </Data>
        <Data name="景点官网">
          <value>https://visitporto.travel/en-GB/poi/5cd04b4ff979e00001f6f762</value>
        </Data>
        <Data name="位置来源">
          <value>https://en.wikipedia.org/wiki/Ribeira_Square</value>
        </Data>
      </ExtendedData>
      <Point>
        <coordinates>-8.613,41.1407,0</coordinates>
      </Point>
    </Placemark>
    <Placemark id="c23-s02">
      <name>波尔图 · 02 圣本笃车站</name>
      <description>这是一座仍在使用的火车站，也是一处容易顺路加入的瓷砖艺术空间。大厅中的大型蓝白瓷砖画把历史叙事带进日常交通建筑，值得停下来从远景与近处细节两个尺度看。
建议预留：20–40 分钟
看点：车站大厅瓷砖画、建筑外立面；与街头普通瓷砖立面作对照更有趣。
参观提示：在公共大厅观赏时留出旅客通行空间；不要为了拍照进入需要乘车资格的区域。与老城散步顺路安排即可。
景点官网：https://visitporto.travel/pt-PT/poi/5cd04b4ef979e00001fe480a
位置来源：https://en.wikipedia.org/wiki/S%C3%A3o_Bento_railway_station
位置为旅行规划参考，不代表售票口或唯一入口。</description>
      <ExtendedData>
        <Data name="景点ID">
          <value>c23-s02</value>
        </Data>
        <Data name="城市">
          <value>波尔图</value>
        </Data>
        <Data name="分类">
          <value>地方特色</value>
        </Data>
        <Data name="景点官网">
          <value>https://visitporto.travel/pt-PT/poi/5cd04b4ef979e00001fe480a</value>
        </Data>
        <Data name="位置来源">
          <value>https://en.wikipedia.org/wiki/S%C3%A3o_Bento_railway_station</value>
        </Data>
      </ExtendedData>
      <Point>
        <coordinates>-8.61033333,41.14555556,0</coordinates>
      </Point>
    </Placemark>
    <Placemark id="c23-s03">
      <name>波尔图 · 03 证券交易所宫</name>
      <description>建筑由波尔图商会使用，华丽厅堂呈现港口商业城市的财富与审美。它的重点是室内空间与装饰工艺，可以补充河岸散步中不容易看到的城市另一面。
建议预留：约 1 小时，含报到余量
看点：万国庭院、楼梯和阿拉伯厅；跟随导览观察墙面、木作与不同房间的用途。
参观提示：按官方导览语言和可订时段安排，热门场次提前订。官网明确图书馆不对参观者开放，不要将它列为必看的房间。
景点官网：https://palaciodabolsa.com/turismo/
位置来源：https://en.wikipedia.org/wiki/Pal%C3%A1cio_da_Bolsa
位置为旅行规划参考，不代表售票口或唯一入口。</description>
      <ExtendedData>
        <Data name="景点ID">
          <value>c23-s03</value>
        </Data>
        <Data name="城市">
          <value>波尔图</value>
        </Data>
        <Data name="分类">
          <value>地方特色</value>
        </Data>
        <Data name="景点官网">
          <value>https://palaciodabolsa.com/turismo/</value>
        </Data>
        <Data name="位置来源">
          <value>https://en.wikipedia.org/wiki/Pal%C3%A1cio_da_Bolsa</value>
        </Data>
      </ExtendedData>
      <Point>
        <coordinates>-8.615428,41.141367,0</coordinates>
      </Point>
    </Placemark>
    <Placemark id="c23-s04">
      <name>波尔图 · 04 塞拉维斯美术馆与庄园</name>
      <description>这里把当代艺术馆、粉色别墅与大型公园放在同一庄园中。西扎设计的美术馆和老别墅提供不同的建筑体验，适合愿意留半天、在看展之间走走花园的人。
建议预留：3–4 小时，建议半天
看点：当代艺术展、西扎建筑、塞拉维斯别墅与公园；电影馆和树冠步道按兴趣与体力取舍。
参观提示：公园票与包含馆舍的票种不同，选票前确认能否进入别墅与美术馆。临时展会更换，出发前按当期展览重新挑选。
景点官网：https://www.serralves.pt/en/visitar-serralves/
位置来源：https://en.wikipedia.org/wiki/Serralves
位置为旅行规划参考，不代表售票口或唯一入口。</description>
      <ExtendedData>
        <Data name="景点ID">
          <value>c23-s04</value>
        </Data>
        <Data name="城市">
          <value>波尔图</value>
        </Data>
        <Data name="分类">
          <value>美术馆</value>
        </Data>
        <Data name="景点官网">
          <value>https://www.serralves.pt/en/visitar-serralves/</value>
        </Data>
        <Data name="位置来源">
          <value>https://en.wikipedia.org/wiki/Serralves</value>
        </Data>
      </ExtendedData>
      <Point>
        <coordinates>-8.6577,41.1585,0</coordinates>
      </Point>
    </Placemark>
    <Placemark id="c23-s05">
      <name>波尔图 · 05 苏亚雷斯·多斯·雷斯国家博物馆</name>
      <description>博物馆设在卡兰卡斯宫，适合在河岸和建筑之外补上葡萄牙艺术。绘画、雕塑、家具、陶瓷与其他装饰艺术让波尔图的地方文化更具体，不需要熟悉艺术史也可以选一两类慢看。
建议预留：1.5–2.5 小时
看点：苏亚雷斯·多斯·雷斯的雕塑、葡萄牙绘画与北部陶瓷；注意展品和宫殿房间之间的关系。
参观提示：图片中的单件藏品仅作收藏参考，不保证到访当天展出。若已安排塞拉维斯，建议把两馆拆到不同天。
景点官网：https://museusoaresdosreis.gov.pt/colecoes/
位置来源：https://en.wikipedia.org/wiki/Soares_dos_Reis_National_Museum
位置为旅行规划参考，不代表售票口或唯一入口。</description>
      <ExtendedData>
        <Data name="景点ID">
          <value>c23-s05</value>
        </Data>
        <Data name="城市">
          <value>波尔图</value>
        </Data>
        <Data name="分类">
          <value>美术馆</value>
        </Data>
        <Data name="景点官网">
          <value>https://museusoaresdosreis.gov.pt/colecoes/</value>
        </Data>
        <Data name="位置来源">
          <value>https://en.wikipedia.org/wiki/Soares_dos_Reis_National_Museum</value>
        </Data>
      </ExtendedData>
      <Point>
        <coordinates>-8.6217,41.1478,0</coordinates>
      </Point>
    </Placemark>
    <Placemark id="c23-s06">
      <name>波尔图 · 06 莱罗书店</name>
      <description>仍在营业的历史书店，吸引人的地方是红色楼梯、彩色玻璃、书架和室内空间的组合。适合喜欢书店与建筑细节的人，把它作为老城中一处短参观即可。
建议预留：45–60 分钟，排队另计
看点：标志性的红色楼梯、采光玻璃和上下两层书架；若有兴趣，再挑一本书带走。
参观提示：使用官网按时段购票，核对购书抵扣规则和票种包含的区域；空间紧凑、游客较多，不宜预期安静独享。
景点官网：https://livrarialello.pt/en/
位置来源：https://en.wikipedia.org/wiki/Livraria_Lello
位置为旅行规划参考，不代表售票口或唯一入口。</description>
      <ExtendedData>
        <Data name="景点ID">
          <value>c23-s06</value>
        </Data>
        <Data name="城市">
          <value>波尔图</value>
        </Data>
        <Data name="分类">
          <value>地方特色</value>
        </Data>
        <Data name="景点官网">
          <value>https://livrarialello.pt/en/</value>
        </Data>
        <Data name="位置来源">
          <value>https://en.wikipedia.org/wiki/Livraria_Lello</value>
        </Data>
      </ExtendedData>
      <Point>
        <coordinates>-8.61472222,41.14694444,0</coordinates>
      </Point>
    </Placemark>
    <Placemark id="c23-s07">
      <name>波尔图 · 07 波尔图音乐之家</name>
      <description>雷姆·库哈斯设计的音乐厅既是演出场所，也是波尔图当代建筑的重要一站。建筑导览与听音乐会是两种参观方式，可根据当期节目和导览场次分别选择。
建议预留：导览约 1 小时；演出另按节目时长
看点：混凝土外形、室内声学与空间设计；官方导览介绍建筑和音乐功能。
参观提示：排练和演出可能限制部分厅室进入，官网明确需确认当天可参观空间。
景点官网：https://casadamusica.com/en/a-casa/guided-tours/
位置来源：https://en.wikipedia.org/wiki/Casa_da_M%C3%BAsica
位置为旅行规划参考，不代表售票口或唯一入口。</description>
      <ExtendedData>
        <Data name="景点ID">
          <value>c23-s07</value>
        </Data>
        <Data name="城市">
          <value>波尔图</value>
        </Data>
        <Data name="分类">
          <value>艺术与建筑</value>
        </Data>
        <Data name="景点官网">
          <value>https://casadamusica.com/en/a-casa/guided-tours/</value>
        </Data>
        <Data name="位置来源">
          <value>https://en.wikipedia.org/wiki/Casa_da_M%C3%BAsica</value>
        </Data>
      </ExtendedData>
      <Point>
        <coordinates>-8.63083333,41.15861111,0</coordinates>
      </Point>
    </Placemark>
  </Document>
</kml>