<?xml version='1.0' encoding='utf-8'?>
<kml xmlns="http://www.opengis.net/kml/2.2">
  <Document>
    <name>毕尔巴鄂 · 景点</name>
    <description>4 处公共景点，来自旅游网页的中文介绍和参考坐标。</description>
    <Placemark id="c13-s01">
      <name>毕尔巴鄂 · 01 古根海姆博物馆</name>
      <description>毕尔巴鄂古根海姆博物馆由弗兰克·盖里设计，弯曲的钛金属表面随天气和光线产生丰富变化，是理解这座工业城市文化转型的重要地点。建筑外部、河岸公共艺术和馆内现当代艺术共同组成体验，不能只把它当作一个拍外观的地标。
建议预留：馆内 2–3 小时；外部与河岸约 45 分钟
看点：金属曲面与河流的关系、花卉小狗 Puppy、蜘蛛雕塑 Maman，以及馆内当期展览。
参观提示：先浏览当前展览，按兴趣分配时间；外部雕塑可以与河岸散步一起看，进入展厅后留意作品的摄影规定。
景点官网：https://www.guggenheim-bilbao.eus/en/guggenheimbilbaolive
位置来源：https://en.wikipedia.org/wiki/Guggenheim_Museum_Bilbao
位置为旅行规划参考，不代表售票口或唯一入口。</description>
      <ExtendedData>
        <Data name="景点ID">
          <value>c13-s01</value>
        </Data>
        <Data name="城市">
          <value>毕尔巴鄂</value>
        </Data>
        <Data name="分类">
          <value>美术馆</value>
        </Data>
        <Data name="景点官网">
          <value>https://www.guggenheim-bilbao.eus/en/guggenheimbilbaolive</value>
        </Data>
        <Data name="位置来源">
          <value>https://en.wikipedia.org/wiki/Guggenheim_Museum_Bilbao</value>
        </Data>
      </ExtendedData>
      <Point>
        <coordinates>-2.93388889,43.26861111,0</coordinates>
      </Point>
    </Placemark>
    <Placemark id="c13-s02">
      <name>毕尔巴鄂 · 02 老城区七条街</name>
      <description>毕尔巴鄂老城区以历史上的“七条街”为核心，尺度紧凑的街道连接教堂、商铺、酒吧与广场。和古根海姆一带的现代河岸相比，这里更能看到城市的商业起源与日常生活，适合通过步行和小吃慢慢体验巴斯克文化。
建议预留：1.5–2 小时；用餐可再留 1 小时
看点：七条街巷的城市纹理、圣地亚哥主教座堂周边，以及新广场的拱廊和酒吧。
参观提示：可按“河岸—里贝拉市场—七条街—新广场”串联；想尝 pintxos 小食，可每家少量点选，给下一家留些胃口。
景点官网：https://www.spain.info/es/ruta/bilbao-dos-dias/
位置来源：https://en.wikipedia.org/wiki/Casco_Viejo
位置为旅行规划参考，不代表售票口或唯一入口。</description>
      <ExtendedData>
        <Data name="景点ID">
          <value>c13-s02</value>
        </Data>
        <Data name="城市">
          <value>毕尔巴鄂</value>
        </Data>
        <Data name="分类">
          <value>经典景点</value>
        </Data>
        <Data name="景点官网">
          <value>https://www.spain.info/es/ruta/bilbao-dos-dias/</value>
        </Data>
        <Data name="位置来源">
          <value>https://en.wikipedia.org/wiki/Casco_Viejo</value>
        </Data>
      </ExtendedData>
      <Point>
        <coordinates>-2.92388889,43.25722222,0</coordinates>
      </Point>
    </Placemark>
    <Placemark id="c13-s03">
      <name>毕尔巴鄂 · 03 里贝拉市场</name>
      <description>里贝拉市场位于老城边的河岸，是把食材采购与城市空间连在一起的好去处。市场建筑与河流、桥梁和邻近教堂共同构成鲜明街景；进入内部，则可从海鲜、肉类和蔬果等摊位认识当地饮食，而不只是坐下来吃小食。
建议预留：45–75 分钟
看点：临河建筑立面、采光空间和生鲜摊位；周边河岸也适合散步拍照。
参观提示：采购摊位和餐饮区域的营业安排可能不同，按想体验的部分选择到访时间；可与七条街同日安排，少走回头路。
景点官网：https://www.spain.info/es/ruta/bilbao-dos-dias/
位置来源：https://en.wikipedia.org/wiki/Mercado_de_la_Ribera
位置为旅行规划参考，不代表售票口或唯一入口。</description>
      <ExtendedData>
        <Data name="景点ID">
          <value>c13-s03</value>
        </Data>
        <Data name="城市">
          <value>毕尔巴鄂</value>
        </Data>
        <Data name="分类">
          <value>经典景点</value>
        </Data>
        <Data name="景点官网">
          <value>https://www.spain.info/es/ruta/bilbao-dos-dias/</value>
        </Data>
        <Data name="位置来源">
          <value>https://en.wikipedia.org/wiki/Mercado_de_la_Ribera</value>
        </Data>
      </ExtendedData>
      <Point>
        <coordinates>-2.9242,43.2555,0</coordinates>
      </Point>
    </Placemark>
    <Placemark id="c13-s04">
      <name>毕尔巴鄂 · 04 比斯开运输桥（河口近郊）</name>
      <description>连接 Portugalete 与 Getxo 的运输桥仍承担过河功能，是理解毕尔巴鄂河口工业历史的独特地点。桥下的吊舱与上方结构展示了港口航运和跨河交通如何共存。
建议预留：1.5–2 小时，另计市中心往返
看点：运作中的吊舱、钢结构与河口景观；高处步道另按开放情况选择。
参观提示：不在古根海姆附近的市中心段；吊舱与高处步道的票种、运营和天气限制分别确认。
景点官网：https://www.spain.info/en/places-of-interest/puente-colgante-vizcaya/
位置来源：https://en.wikipedia.org/wiki/Vizcaya_Bridge
位置为旅行规划参考，不代表售票口或唯一入口。</description>
      <ExtendedData>
        <Data name="景点ID">
          <value>c13-s04</value>
        </Data>
        <Data name="城市">
          <value>毕尔巴鄂</value>
        </Data>
        <Data name="分类">
          <value>艺术与建筑</value>
        </Data>
        <Data name="景点官网">
          <value>https://www.spain.info/en/places-of-interest/puente-colgante-vizcaya/</value>
        </Data>
        <Data name="位置来源">
          <value>https://en.wikipedia.org/wiki/Vizcaya_Bridge</value>
        </Data>
      </ExtendedData>
      <Point>
        <coordinates>-3.0169,43.3231,0</coordinates>
      </Point>
    </Placemark>
  </Document>
</kml>