<?xml version='1.0' encoding='utf-8'?>
<kml xmlns="http://www.opengis.net/kml/2.2">
  <Document>
    <name>特内里费岛 · 景点</name>
    <description>12 处公共景点，来自旅游网页的中文介绍和参考坐标。</description>
    <Placemark id="c20-s01">
      <name>特内里费岛 · 01 特内里费音乐厅</name>
      <description>特内里费音乐厅由圣地亚哥·卡拉特拉瓦设计，巨大的白色曲面伸向海边，是圣克鲁斯最具辨识度的现代建筑。近看可观察碎瓷铺面与曲线结构，退到广场边则能把整个轮廓与大西洋放进同一画面。
建议预留：外观约 30–45 分钟；导览或演出另计
看点：挑起的弧形屋顶、白色马赛克表面，以及从滨海广场看到的整体剪影。
参观提示：内部参观与演出按各自场次安排，提前看官网；外部若有维修或围挡，以现场可通行范围为准，照片呈现的是建筑正常外观。
景点官网：https://www.auditoriodetenerife.com/en/auditorium/
位置来源：https://en.wikipedia.org/wiki/Auditorio_de_Tenerife
位置为旅行规划参考，不代表售票口或唯一入口。</description>
      <ExtendedData>
        <Data name="景点ID">
          <value>c20-s01</value>
        </Data>
        <Data name="城市">
          <value>特内里费岛</value>
        </Data>
        <Data name="分类">
          <value>经典景点</value>
        </Data>
        <Data name="景点官网">
          <value>https://www.auditoriodetenerife.com/en/auditorium/</value>
        </Data>
        <Data name="位置来源">
          <value>https://en.wikipedia.org/wiki/Auditorio_de_Tenerife</value>
        </Data>
      </ExtendedData>
      <Point>
        <coordinates>-16.251281,28.456075,0</coordinates>
      </Point>
    </Placemark>
    <Placemark id="c20-s02">
      <name>特内里费岛 · 02 特雷西塔海滩</name>
      <description>特雷西塔海滩位于圣克鲁斯东北方向、靠近圣安德烈斯村，以浅色沙滩、棕榈树和背后山地构成鲜明景观。它与市区港口一带气氛不同，适合留半天把海边散步、休息和村中用餐组合起来。
建议预留：半天，含往返与用餐
看点：金色沙滩与山地的对比、沿海棕榈树，以及圣安德烈斯村周边的海岸气氛。
参观提示：这里需要从市中心另行前往，先安排好公交或驾车往返；下水与否仍按当天旗帜和海况决定，不以照片中的平静水面作判断。
景点官网：https://www.webtenerife.co.uk/what-see/beaches/las-teresitas/
位置来源：https://en.wikipedia.org/wiki/Playa_de_Las_Teresitas
位置为旅行规划参考，不代表售票口或唯一入口。</description>
      <ExtendedData>
        <Data name="景点ID">
          <value>c20-s02</value>
        </Data>
        <Data name="城市">
          <value>特内里费岛</value>
        </Data>
        <Data name="分类">
          <value>经典景点</value>
        </Data>
        <Data name="景点官网">
          <value>https://www.webtenerife.co.uk/what-see/beaches/las-teresitas/</value>
        </Data>
        <Data name="位置来源">
          <value>https://en.wikipedia.org/wiki/Playa_de_Las_Teresitas</value>
        </Data>
      </ExtendedData>
      <Point>
        <coordinates>-16.18583333,28.50861111,0</coordinates>
      </Point>
    </Placemark>
    <Placemark id="c20-s03">
      <name>特内里费岛 · 03 泰德国家公园（岛内远郊）</name>
      <description>泰德国家公园位于特内里费岛内陆高处，以火山锥、熔岩地貌、岩石与高山环境构成近似另一颗星球的景观。它不是圣克鲁斯市区的步行景点，应作为单独的一日郊游；仅在公路观景点和低难度步道停留，也能认识这里的火山地形。
建议预留：建议一整天，含岛内往返；登顶另行规划
看点：泰德火山轮廓、拉斯卡尼亚达斯地形与加西亚岩群；缆车和登顶属于额外行程。
参观提示：高海拔处温差和风力明显，出发前核对天气与道路情况。缆车票不等于登顶许可，山顶和部分步道需按具体线路查询预约要求。
景点官网：https://www.webtenerife.co.uk/what-see/teide-national-park/ascension-a-la-cumbre/
位置来源：https://en.wikipedia.org/wiki/Teide_National_Park
位置为旅行规划参考，不代表售票口或唯一入口。</description>
      <ExtendedData>
        <Data name="景点ID">
          <value>c20-s03</value>
        </Data>
        <Data name="城市">
          <value>特内里费岛</value>
        </Data>
        <Data name="分类">
          <value>经典景点</value>
        </Data>
        <Data name="景点官网">
          <value>https://www.webtenerife.co.uk/what-see/teide-national-park/ascension-a-la-cumbre/</value>
        </Data>
        <Data name="位置来源">
          <value>https://en.wikipedia.org/wiki/Teide_National_Park</value>
        </Data>
      </ExtendedData>
      <Point>
        <coordinates>-16.616,28.263,0</coordinates>
      </Point>
    </Placemark>
    <Placemark id="c20-s04">
      <name>特内里费岛 · 04 阿纳加乡村公园（岛内山地）</name>
      <description>特内里费东北部的山脉、古老月桂林和山村景观，与泰德火山和海滩形成明显对照。可先从游客中心及短步道认识云雾林，再按体力选择更长路线。
建议预留：半天至一天
看点：Cruz del Carmen 周边林地、月桂林与山脊观景。
参观提示：山地天气变化快；部分保护区步道实行预约或通行限制。先查 Tenerife ON，不能把地图上的所有小径都视作随到随走。
景点官网：https://www.webtenerife.co.uk/what-see/outdoor-attractions/parque-rural-de-anaga/
位置来源：https://en.wikipedia.org/wiki/Macizo_de_Anaga
位置为旅行规划参考，不代表售票口或唯一入口。</description>
      <ExtendedData>
        <Data name="景点ID">
          <value>c20-s04</value>
        </Data>
        <Data name="城市">
          <value>特内里费岛</value>
        </Data>
        <Data name="分类">
          <value>自然与风景</value>
        </Data>
        <Data name="景点官网">
          <value>https://www.webtenerife.co.uk/what-see/outdoor-attractions/parque-rural-de-anaga/</value>
        </Data>
        <Data name="位置来源">
          <value>https://en.wikipedia.org/wiki/Macizo_de_Anaga</value>
        </Data>
      </ExtendedData>
      <Point>
        <coordinates>-16.24083333,28.53055556,0</coordinates>
      </Point>
    </Placemark>
    <Placemark id="c20-s05">
      <name>特内里费岛 · 05 拉古纳世界遗产古城</name>
      <description>16–18 世纪教堂、宅邸与规则街网，让这座世界遗产古城成为认识加那利历史的好起点。以阿德兰塔多广场及步行街为中心慢慢走，和海滨的圣克鲁斯气氛不同。
建议预留：2–3 小时
看点：阿德兰塔多广场、彩色宅邸立面、老街与教堂。
参观提示：老城适合步行，车辆停在外围；进入教堂或历史建筑时另核对开放时段。
景点官网：https://whc.unesco.org/en/list/929/
位置来源：https://whc.unesco.org/en/list/929/
位置为旅行规划参考，不代表售票口或唯一入口。</description>
      <ExtendedData>
        <Data name="景点ID">
          <value>c20-s05</value>
        </Data>
        <Data name="城市">
          <value>特内里费岛</value>
        </Data>
        <Data name="分类">
          <value>历史与考古</value>
        </Data>
        <Data name="景点官网">
          <value>https://whc.unesco.org/en/list/929/</value>
        </Data>
        <Data name="位置来源">
          <value>https://whc.unesco.org/en/list/929/</value>
        </Data>
      </ExtendedData>
      <Point>
        <coordinates>-16.31177778,28.47788889,0</coordinates>
      </Point>
    </Placemark>
    <Placemark id="c20-s06">
      <name>特内里费岛 · 06 拉奥罗塔瓦老城与庭园</name>
      <description>北部山坡上的老城保留加那利传统宅邸、木阳台和教堂，可把老街漫步与维多利亚花园组合起来。街道起伏明显，适合放慢脚步看建筑细节。
建议预留：2–3 小时
看点：木阳台宅邸、圣母无原罪教堂、维多利亚花园及山谷视野。
参观提示：坡道较多；Casa de los Balcones 室内与其他院落各自售票或有开放安排。
景点官网：https://www.spain.info/en/destination/la-orotava/
位置来源：https://en.wikipedia.org/wiki/La_Orotava
位置为旅行规划参考，不代表售票口或唯一入口。</description>
      <ExtendedData>
        <Data name="景点ID">
          <value>c20-s06</value>
        </Data>
        <Data name="城市">
          <value>特内里费岛</value>
        </Data>
        <Data name="分类">
          <value>地方文化</value>
        </Data>
        <Data name="景点官网">
          <value>https://www.spain.info/en/destination/la-orotava/</value>
        </Data>
        <Data name="位置来源">
          <value>https://en.wikipedia.org/wiki/La_Orotava</value>
        </Data>
      </ExtendedData>
      <Point>
        <coordinates>-16.52472222,28.39055556,0</coordinates>
      </Point>
    </Placemark>
    <Placemark id="c20-s07">
      <name>特内里费岛 · 07 克鲁斯港与马蒂亚内斯海水泳池</name>
      <description>北岸的克鲁斯港适合作为慢游基地。老港口、海滨步道和塞萨尔·曼里克设计的海水泳池，把传统港城与度假生活连在一起。
建议预留：半天；入泳池休闲可留更久
看点：老港口、Charco 广场、海滨散步与 Lago Martiánez 的水景设计。
参观提示：海水泳池是有独立开放安排的设施；海岸散步与入场游泳分开计划，当天开放和风浪先核对。
景点官网：https://www.spain.info/en/destination/puerto-la-cruz/
位置来源：https://en.wikipedia.org/wiki/Puerto_de_la_Cruz
位置为旅行规划参考，不代表售票口或唯一入口。</description>
      <ExtendedData>
        <Data name="景点ID">
          <value>c20-s07</value>
        </Data>
        <Data name="城市">
          <value>特内里费岛</value>
        </Data>
        <Data name="分类">
          <value>艺术与建筑</value>
        </Data>
        <Data name="景点官网">
          <value>https://www.spain.info/en/destination/puerto-la-cruz/</value>
        </Data>
        <Data name="位置来源">
          <value>https://en.wikipedia.org/wiki/Puerto_de_la_Cruz</value>
        </Data>
      </ExtendedData>
      <Point>
        <coordinates>-16.53333333,28.41666667,0</coordinates>
      </Point>
    </Placemark>
    <Placemark id="c20-s08">
      <name>特内里费岛 · 08 加拉奇科老城与熔岩海岸</name>
      <description>这座北岸旧港镇适合看广场、教堂、圣米格尔城堡和火山岩海岸。El Caletón 天然海水池是当地代表景观，可从岸边观察熔岩与海浪塑造的地形。
建议预留：1.5–2.5 小时
看点：老城广场、圣米格尔城堡、El Caletón 熔岩海岸与近海岩岛。
参观提示：天然海水池受海况影响；即使地图显示开放，也要服从现场围栏和警示，参观安排不以可下水为前提。
景点官网：https://www.spain.info/en/destination/garachico/
位置来源：https://en.wikipedia.org/wiki/Garachico
位置为旅行规划参考，不代表售票口或唯一入口。</description>
      <ExtendedData>
        <Data name="景点ID">
          <value>c20-s08</value>
        </Data>
        <Data name="城市">
          <value>特内里费岛</value>
        </Data>
        <Data name="分类">
          <value>地方文化</value>
        </Data>
        <Data name="景点官网">
          <value>https://www.spain.info/en/destination/garachico/</value>
        </Data>
        <Data name="位置来源">
          <value>https://en.wikipedia.org/wiki/Garachico</value>
        </Data>
      </ExtendedData>
      <Point>
        <coordinates>-16.76388889,28.37222222,0</coordinates>
      </Point>
    </Placemark>
    <Placemark id="c20-s09">
      <name>特内里费岛 · 09 伊科德古龙血树与老城</name>
      <description>伊科德以树冠如伞的古龙血树著称，周边有传统建筑与葡萄种植文化。可从老城散步到公园附近，再根据兴趣决定是否入园近看。
建议预留：1–2 小时
看点：古龙血树形态、龙血树公园与圣马科斯教堂周边街景。
参观提示：“千年龙血树”是常见称呼，不把确切树龄当作已证实数字；公园开放与门票以运营方为准。
景点官网：https://www.spain.info/en/destination/icod-los-vinos/
位置来源：https://www.openstreetmap.org/node/676026140
位置为旅行规划参考，不代表售票口或唯一入口。</description>
      <ExtendedData>
        <Data name="景点ID">
          <value>c20-s09</value>
        </Data>
        <Data name="城市">
          <value>特内里费岛</value>
        </Data>
        <Data name="分类">
          <value>自然与风景</value>
        </Data>
        <Data name="景点官网">
          <value>https://www.spain.info/en/destination/icod-los-vinos/</value>
        </Data>
        <Data name="位置来源">
          <value>https://www.openstreetmap.org/node/676026140</value>
        </Data>
      </ExtendedData>
      <Point>
        <coordinates>-16.7221922,28.3666394,0</coordinates>
      </Point>
    </Placemark>
    <Placemark id="c20-s10">
      <name>特内里费岛 · 10 马斯卡山村</name>
      <description>特诺山区的村屋、棕榈树和梯田嵌在陡峭山谷中，村庄本身就值得停留。这里的看点是山地聚落与峡谷景观；下峡谷徒步是另一个需要预约和接驳的项目。
建议预留：村庄约 1–2 小时；含接驳另留半天
看点：传统石屋、弯曲石巷、棕榈与峡谷山脊。
参观提示：道路狭窄且停车有限。若参加官方峡谷徒步，目前须从 Santiago del Teide 乘 355 公交入村，并预订离开峡谷的船票。
景点官网：https://www.caminobarrancodemasca.com/en/masca/masca-hamlet/
位置来源：https://en.wikipedia.org/wiki/Masca
位置为旅行规划参考，不代表售票口或唯一入口。</description>
      <ExtendedData>
        <Data name="景点ID">
          <value>c20-s10</value>
        </Data>
        <Data name="城市">
          <value>特内里费岛</value>
        </Data>
        <Data name="分类">
          <value>自然与风景</value>
        </Data>
        <Data name="景点官网">
          <value>https://www.caminobarrancodemasca.com/en/masca/masca-hamlet/</value>
        </Data>
        <Data name="位置来源">
          <value>https://en.wikipedia.org/wiki/Masca</value>
        </Data>
      </ExtendedData>
      <Point>
        <coordinates>-16.84027778,28.30527778,0</coordinates>
      </Point>
    </Placemark>
    <Placemark id="c20-s11">
      <name>特内里费岛 · 11 巨人悬崖与洛斯吉甘特斯港</name>
      <description>西岸巨大的火山岩壁从海面陡然升起，可从港口附近和陆上观景位置看悬崖轮廓。想换角度再选择游船，步行观景与出海是两种不同安排。
建议预留：1.5–2 小时；游船另计
看点：巨人悬崖的层理与高度感、港口和大西洋海面。
参观提示：本图定位港口附近的陆上参考位置，不把车程终点放到悬崖上；出海时以实际码头和海况为准。
景点官网：https://www.spain.info/en/region/tenerife-island/
位置来源：https://en.wikipedia.org/wiki/Los_Gigantes
位置为旅行规划参考，不代表售票口或唯一入口。</description>
      <ExtendedData>
        <Data name="景点ID">
          <value>c20-s11</value>
        </Data>
        <Data name="城市">
          <value>特内里费岛</value>
        </Data>
        <Data name="分类">
          <value>自然与风景</value>
        </Data>
        <Data name="景点官网">
          <value>https://www.spain.info/en/region/tenerife-island/</value>
        </Data>
        <Data name="位置来源">
          <value>https://en.wikipedia.org/wiki/Los_Gigantes</value>
        </Data>
      </ExtendedData>
      <Point>
        <coordinates>-16.84027778,28.24388889,0</coordinates>
      </Point>
    </Placemark>
    <Placemark id="c20-s12">
      <name>特内里费岛 · 12 埃尔梅达诺海滩与小镇</name>
      <description>靠近南机场的海边小镇有灰色细沙、海滨咖啡馆和红山火山锥的视野。这里以帆板和风筝冲浪闻名，也可只沿海步道散步、用餐。
建议预留：2–3 小时，休闲可留半天
看点：海滨小镇、红山轮廓、风帆与灰色沙滩。
参观提示：风力往往影响体感和水上活动；初学者应选择有指导的课程。登红山与保护区步道需单独规划，不算在海滨短走内。
景点官网：https://www.webtenerife.co.uk/what-see/beaches/el-medano/
位置来源：https://www.webtenerife.co.uk/what-see/beaches/el-medano/
位置为旅行规划参考，不代表售票口或唯一入口。</description>
      <ExtendedData>
        <Data name="景点ID">
          <value>c20-s12</value>
        </Data>
        <Data name="城市">
          <value>特内里费岛</value>
        </Data>
        <Data name="分类">
          <value>自然与风景</value>
        </Data>
        <Data name="景点官网">
          <value>https://www.webtenerife.co.uk/what-see/beaches/el-medano/</value>
        </Data>
        <Data name="位置来源">
          <value>https://www.webtenerife.co.uk/what-see/beaches/el-medano/</value>
        </Data>
      </ExtendedData>
      <Point>
        <coordinates>-16.53885833,28.04416667,0</coordinates>
      </Point>
    </Placemark>
  </Document>
</kml>