<?xml version="1.0" encoding="UTF-8"?><kml xmlns="http://www.opengis.net/kml/2.2"><Document><name>西班牙城市与推荐景点</name><description>中文城市与景点名称、简介和参考坐标；不含个人行程或住宿信息。</description><Placemark><name>瓦伦西亚 · 01 艺术科学城</name><description>艺术科学城是瓦伦西亚极具辨识度的现代建筑群，以白色结构、水池倒影和富有未来感的轮廓见长。这里包含不同展馆和文化设施，既适合建筑摄影，也能按兴趣安排科学展览、水族馆或演出，体验与老城完全不同的一面。
建议预留：外观 1–2 小时；入馆可留半天至一天
看点：半球形建筑 Hemisfèric、科学博物馆外观，以及各建筑之间水池形成的倒影。
参观提示：先决定是拍建筑还是进展馆；不同场馆的门票和参观时间并不相同，不要把整个建筑群当成单一场馆。
景点官网：https://www.spain.info/en/destination/valencia/
位置来源：https://en.wikipedia.org/wiki/City_of_Arts_and_Sciences
位置为旅行规划参考，不代表售票口或唯一入口。</description><ExtendedData><Data name="城市"><value>瓦伦西亚</value></Data><Data name="分类"><value>经典景点</value></Data></ExtendedData><Point><coordinates>-0.35,39.45416667,0</coordinates></Point></Placemark><Placemark><name>瓦伦西亚 · 02 丝绸交易厅</name><description>丝绸交易厅见证了瓦伦西亚海上贸易兴盛的历史，是世俗哥特式建筑的代表。它并非宫殿，却用庄严的大厅和精细石雕体现商业活动的重要性；内部的螺旋柱向上延伸，营造出类似石头棕榈林的空间感。
建议预留：45–60 分钟
看点：交易大厅的螺旋石柱、拱顶，以及庭院与立面细部。
参观提示：可与附近中央市场连续安排。先在大厅里看整体比例，再靠近观察柱子和石雕，比只在门外拍照更有收获。
景点官网：https://www.spain.info/en/destination/valencia/
位置来源：https://en.wikipedia.org/wiki/Lonja_de_la_Seda
位置为旅行规划参考，不代表售票口或唯一入口。</description><ExtendedData><Data name="城市"><value>瓦伦西亚</value></Data><Data name="分类"><value>经典景点</value></Data></ExtendedData><Point><coordinates>-0.37844444,39.47441667,0</coordinates></Point></Placemark><Placemark><name>瓦伦西亚 · 03 中央市场</name><description>中央市场既是采购食材的地方，也是一座值得欣赏的现代主义市场建筑。金属结构、玻璃采光和陶瓷装饰下，蔬菜、水果、海鲜与肉制品摊位体现着瓦伦西亚的饮食习惯，适合从食材角度认识这座城市。
建议预留：45–75 分钟
看点：中央穹顶、彩色玻璃与装饰瓷砖；边逛边观察当地米饭料理常用的食材。
参观提示：建议把市场放在白天的老城路线里，先查营业日和时段。市场有真实采购需求，拍照时给摊主与顾客留出空间。
景点官网：https://www.spain.info/en/destination/valencia/
位置来源：https://en.wikipedia.org/wiki/Mercado_Central%2C_Valencia
位置为旅行规划参考，不代表售票口或唯一入口。</description><ExtendedData><Data name="城市"><value>瓦伦西亚</value></Data><Data name="分类"><value>经典景点</value></Data></ExtendedData><Point><coordinates>-0.37892111,39.47355806,0</coordinates></Point></Placemark><Placemark><name>瓦伦西亚 · 04 马尔瓦罗萨海滩</name><description>马尔瓦罗萨是一片开阔的城市沙滩，海岸线平直，背后连接步道和餐饮区。它的乐趣主要是海边散步、看浪和慢慢吃一顿饭，与老城密集的建筑景点形成很好的节奏对比。
建议预留：散步 1–2 小时；休闲可留半天
看点：宽阔沙滩、滨海步道和地中海开阔视野；适合拍简洁的海岸风景。
参观提示：四月不必以游泳为主要目标，可根据风力与体感安排停留；将午餐和海边散步放在同一段行程更从容。
景点官网：https://www.spain.info/en/destination/valencia/
位置来源：https://es.wikipedia.org/wiki/Playa_de_la_Malvarrosa
位置为旅行规划参考，不代表售票口或唯一入口。</description><ExtendedData><Data name="城市"><value>瓦伦西亚</value></Data><Data name="分类"><value>经典景点</value></Data></ExtendedData><Point><coordinates>-0.32305556,39.47916667,0</coordinates></Point></Placemark><Placemark><name>瓦伦西亚 · 05 两水侯爵宫 · 国家陶瓷博物馆</name><description>浓密雕饰的宫殿立面背后，是历史贵族住宅空间与陶瓷博物馆的组合。它兼具室内装饰与瓦伦西亚陶瓷传统，很适合不想只看城市地标的人。今天的博物馆收藏另有建馆来源，不能全部当作原侯爵家族留下的私人收藏。
建议预留：1–1.5 小时
看点：历史宫殿房间、装饰细节与陶瓷工艺；看建筑与收藏两条线，而不只在门口拍照。
参观提示：2026 年官方公告立面修复，2027 外观与开放区域要复核；配图展示建筑实景，不代表到访时没有脚手架。
顺路：与老城、中央市场安排同一天；比再加一个远郊点更顺路。
景点官网：https://www.cultura.gob.es/mnceramica/el-museo/historia/historia-edificio.html
位置来源：https://en.wikipedia.org/wiki/Gonz%C3%A1lez_Mart%C3%AD_National_Museum_of_Ceramics_and_Decorative_Arts
位置为旅行规划参考，不代表售票口或唯一入口。</description><ExtendedData><Data name="城市"><value>瓦伦西亚</value></Data><Data name="分类"><value>宅邸与收藏</value></Data></ExtendedData><Point><coordinates>-0.37472,39.47269,0</coordinates></Point></Placemark><Placemark><name>瓦伦西亚 · 06 瓦伦西亚美术博物馆</name><description>想在瓦伦西亚多看一点艺术，这里比继续追建筑打卡更值得留半天。收藏中有索罗亚、皮纳索等与当地光线和绘画传统密切相关的艺术家，也能看到更早期的作品与历史建筑空间。
建议预留：1.5–2.5 小时
看点：优先看瓦伦西亚画家与索罗亚相关馆藏，穿插维奇大使庭院；不把过往临展当成常设保证。
参观提示：现行常规周一闭馆；具体作品在展情况及 2027 开放安排查官网。若马德里索罗亚故居仍闭馆，可在此补艺术兴趣，但体验不同。
顺路：配图里亚花园散步，适合城市多住一晚时安排。
景点官网：https://www.visitvalencia.com/it/cosa-fare-valencia/cultura-valenciana/valencia-musei/museo-delle-belle-arti-di-valencia
位置来源：https://en.wikipedia.org/wiki/Museu_de_Belles_Arts_de_Val%C3%A8ncia
位置为旅行规划参考，不代表售票口或唯一入口。</description><ExtendedData><Data name="城市"><value>瓦伦西亚</value></Data><Data name="分类"><value>美术馆</value></Data></ExtendedData><Point><coordinates>-0.371,39.479,0</coordinates></Point></Placemark><Placemark><name>瓦伦西亚 · 07 丝绸博物馆与丝绸业行会馆</name><description>丝绸交易所讲贸易，这里则把视线拉回丝织行业本身：行会历史、织物与传统工艺，帮助理解瓦伦西亚为什么会留下那么重要的丝绸建筑。馆舍与展陈适合对地方手艺、织物和老行业有兴趣的人。
建议预留：约 1 小时
看点：丝织历史、展出的织物与行会建筑；如希望看织造演示，提前确认当天是否安排。
参观提示：现行常规周一闭馆；演示或特别活动不能默认每天都有。和丝绸交易所是不同景点，不共用同一参观安排。
顺路：丝绸交易所＋中央市场＋丝绸博物馆，组成老城工艺半天。
景点官网：https://www.museodelasedavalencia.com/
位置来源：https://es.wikipedia.org/wiki/Colegio_del_Arte_Mayor_de_la_Seda
位置为旅行规划参考，不代表售票口或唯一入口。</description><ExtendedData><Data name="城市"><value>瓦伦西亚</value></Data><Data name="分类"><value>地方特色</value></Data></ExtendedData><Point><coordinates>-0.380917,39.470853,0</coordinates></Point></Placemark></Document></kml>