<?xml version="1.0" encoding="UTF-8"?><kml xmlns="http://www.opengis.net/kml/2.2"><Document><name>西班牙城市与推荐景点</name><description>中文城市与景点名称、简介和参考坐标；不含个人行程或住宿信息。</description><Placemark><name>科尔多瓦 · 01 科尔多瓦清真寺大教堂</name><description>清真寺大教堂以密集的红白相间拱券闻名，历史清真寺的空间中又融入了后来的基督教堂建筑。行走其中，既能看到重复柱列带来的秩序，也能体会不同宗教时期对建筑的延续与改变。
建议预留：1.5–2 小时
看点：红白双层拱券、米哈拉布周围的精细装饰，以及中央教堂空间与旧柱厅的对比。
参观提示：这是科尔多瓦最值得优先安排的室内景点。建议配合导览理解空间层次，并在进门前区分礼拜与旅游参观安排。
景点官网：https://www.spain.info/en/destination/cordoba/
位置来源：https://en.wikipedia.org/wiki/Mosque%E2%80%93Cathedral_of_C%C3%B3rdoba
位置为旅行规划参考，不代表售票口或唯一入口。</description><ExtendedData><Data name="城市"><value>科尔多瓦</value></Data><Data name="分类"><value>经典景点</value></Data></ExtendedData><Point><coordinates>-4.77972222,37.87916667,0</coordinates></Point></Placemark><Placemark><name>科尔多瓦 · 02 罗马桥</name><description>罗马桥跨越瓜达尔基维尔河，起源于罗马时期，之后经历多次修复。今天从桥上步行，最重要的体验是回望老城与清真寺大教堂，同时看到河流、城门和防御设施如何共同构成城市的历史入口。
建议预留：30–45 分钟
看点：桥门、对岸卡拉奥拉塔，以及从南岸望向老城的全景。
参观提示：参观清真寺大教堂后过桥再回城很顺路；想拍城市天际线，可比较桥面与南岸两个视角。
景点官网：https://www.spain.info/en/destination/cordoba/
位置来源：https://en.wikipedia.org/wiki/Roman_bridge_of_C%C3%B3rdoba
位置为旅行规划参考，不代表售票口或唯一入口。</description><ExtendedData><Data name="城市"><value>科尔多瓦</value></Data><Data name="分类"><value>经典景点</value></Data></ExtendedData><Point><coordinates>-4.77805556,37.87666667,0</coordinates></Point></Placemark><Placemark><name>科尔多瓦 · 03 犹太区</name><description>科尔多瓦犹太区紧邻清真寺大教堂，狭窄街巷、白墙和小庭院保留了老城细密的空间尺度。它适合结合犹太会堂等历史点位理解社区过去，也适合以散步的方式观察花卉、门窗和庭院生活。
建议预留：1–1.5 小时
看点：犹太会堂周边、传统白墙巷道与庭院细节；附近百花巷可顺路经过。
参观提示：不要把五月庭院节的开放范围当作四月常态；想进入某个庭院或小型场馆，需核对其单独开放安排。
景点官网：https://www.spain.info/en/destination/cordoba/
位置来源：https://es.wikipedia.org/wiki/Juder%C3%ADa_de_C%C3%B3rdoba
位置为旅行规划参考，不代表售票口或唯一入口。</description><ExtendedData><Data name="城市"><value>科尔多瓦</value></Data><Data name="分类"><value>经典景点</value></Data></ExtendedData><Point><coordinates>-4.78169556,37.87899243,0</coordinates></Point></Placemark><Placemark><name>科尔多瓦 · 04 基督教君主城堡</name><description>基督教君主城堡兼有防御建筑和宫廷空间的特点，但许多游客最喜欢的是内部庭院及层层展开的花园。塔楼、城墙、长水池和修剪整齐的植物组合，让这里呈现出与清真寺大教堂截然不同的参观节奏。
建议预留：1–1.5 小时
看点：花园水池的轴线、庭院，以及开放塔楼上的景观。
参观提示：可与罗马桥放在同一片区域游览；花园和塔楼的开放范围可能不同，购票前核对当日可参观内容。
景点官网：https://www.spain.info/en/destination/cordoba/
位置来源：https://en.wikipedia.org/wiki/Alc%C3%A1zar_de_los_Reyes_Cristianos
位置为旅行规划参考，不代表售票口或唯一入口。</description><ExtendedData><Data name="城市"><value>科尔多瓦</value></Data><Data name="分类"><value>经典景点</value></Data></ExtendedData><Point><coordinates>-4.78194444,37.87722222,0</coordinates></Point></Placemark><Placemark><name>科尔多瓦 · 05 维亚纳宫</name><description>如果东海岸路线保留科尔多瓦过夜，我很建议把这座宫邸加进去。庭院之外，上层还有家族积累的瓷砖、皮革工艺、挂毯、书籍与艺术陈设；只逛庭院会错过最贴近你们兴趣的收藏部分。
建议预留：1.5–2 小时
看点：庭院的空间变化，以及宫内瓷砖、装饰皮革、挂毯与书房收藏；两条线合起来才更完整。
参观提示：买票时区分庭院票与含宫内收藏的参观，确认讲解场次。内陆 17 天路线不经过科尔多瓦，此处属于东海岸路线或另行调整后的选择。
顺路：抵达日大清真寺，次日上午维亚纳宫后再出发；不必强行塞进短暂停车。
景点官网：https://www.palaciodeviana.com/casa-palacio/colecciones/
位置来源：https://es.wikipedia.org/wiki/Palacio_de_Viana_%28C%C3%B3rdoba%29
位置为旅行规划参考，不代表售票口或唯一入口。</description><ExtendedData><Data name="城市"><value>科尔多瓦</value></Data><Data name="分类"><value>宅邸与收藏</value></Data></ExtendedData><Point><coordinates>-4.77381612,37.88853276,0</coordinates></Point></Placemark><Placemark><name>科尔多瓦 · 06 胡里奥·罗梅罗·德·托雷斯博物馆</name><description>一座围绕科尔多瓦本地画家展开的专题馆，通过家庭背景、创作阶段、人物与城市意象来理解他的艺术。它不靠巨大规模取胜，适合在古城散步时用一小时，把看到的安达卢西亚街巷与画中的地方气质联系起来。
建议预留：45–75 分钟
看点：家庭背景、早期作品与“科尔多瓦精神”等展室；重点看人物和象征意象。
参观提示：现行周一闭馆。若只有半天科尔多瓦，先保留大清真寺；喜欢宅邸收藏则维亚纳优先于此馆。
顺路：小马广场一带散步顺访，适合已有一晚住宿的行程。
景点官网：https://museojulioromero.cordoba.es/
位置来源：https://en.wikipedia.org/wiki/Julio_Romero_de_Torres_Museum
位置为旅行规划参考，不代表售票口或唯一入口。</description><ExtendedData><Data name="城市"><value>科尔多瓦</value></Data><Data name="分类"><value>美术馆</value></Data></ExtendedData><Point><coordinates>-4.77485,37.88133,0</coordinates></Point></Placemark></Document></kml>