<?xml version="1.0" encoding="UTF-8"?><kml xmlns="http://www.opengis.net/kml/2.2"><Document><name>西班牙城市与推荐景点</name><description>中文城市与景点名称、简介和参考坐标；不含个人行程或住宿信息。</description><Placemark><name>萨拉曼卡 · 01 萨拉曼卡大学</name><description>萨拉曼卡大学拥有悠久的学术传统，历史校舍以繁复的银匠式立面闻名。浮雕细密得像金属工艺，适合慢慢辨认人物、纹章和装饰。与热闹的学生城市结合着看，才更能体会这座大学对萨拉曼卡身份的持续影响。
建议预留：45–75 分钟
看点：历史校舍立面的层层雕饰、著名“找青蛙”细节，以及开放参观的庭院和教室。
参观提示：先退后看立面的整体结构，再近看细节；图书馆等空间不一定能自由进入，以参观线路为准，不要只为寻找青蛙错过建筑本身。
景点官网：https://www.spain.info/en/destination/salamanca/
位置来源：https://en.wikipedia.org/wiki/University_of_Salamanca
位置为旅行规划参考，不代表售票口或唯一入口。</description><ExtendedData><Data name="城市"><value>萨拉曼卡</value></Data><Data name="分类"><value>经典景点</value></Data></ExtendedData><Point><coordinates>-5.66666667,40.96138889,0</coordinates></Point></Placemark><Placemark><name>萨拉曼卡 · 02 主广场</name><description>萨拉曼卡主广场由统一的砂岩立面与拱廊围合，是这座大学城的公共客厅。白天适合看石材、浮雕肖像和建筑比例，傍晚则能感受到学生、居民与游客交错停留的城市节奏。广场不大，却很值得在不同时段经过。
建议预留：30–60 分钟
看点：拱廊上方的人物圆形浮雕、市政厅立面，以及夕光下砂岩逐渐变暖的色调。
参观提示：适合把咖啡或晚餐前的休息安排在这里，再步行前往大学区；想拍较完整的建筑，可清晨来一次、傍晚再经过一次。
景点官网：https://www.spain.info/en/destination/salamanca/
位置来源：https://en.wikipedia.org/wiki/Plaza_Mayor%2C_Salamanca
位置为旅行规划参考，不代表售票口或唯一入口。</description><ExtendedData><Data name="城市"><value>萨拉曼卡</value></Data><Data name="分类"><value>经典景点</value></Data></ExtendedData><Point><coordinates>-5.66416667,40.965,0</coordinates></Point></Placemark><Placemark><name>萨拉曼卡 · 03 新旧大教堂</name><description>萨拉曼卡的新、旧两座大教堂相互连接，分别体现较早的罗马式传统与后来的哥特式扩建。它们让建筑风格的演变变得具体可见：既能看老教堂较沉稳的比例，也能看新教堂更高更复杂的空间组织。
建议预留：1.5–2 小时；塔楼线路另计
看点：新旧教堂的结构差异、祭坛与塔楼轮廓；外立面上的宇航员是现代修复添加的细节。
参观提示：参观时先辨认自己进入的是新教堂还是旧教堂，避免漏看连接区域；宇航员雕刻不属于中世纪原作，适合作为有趣补充。
景点官网：https://www.spain.info/en/destination/salamanca/
位置来源：https://en.wikipedia.org/wiki/New_Cathedral_of_Salamanca
位置为旅行规划参考，不代表售票口或唯一入口。</description><ExtendedData><Data name="城市"><value>萨拉曼卡</value></Data><Data name="分类"><value>经典景点</value></Data></ExtendedData><Point><coordinates>-5.66583333,40.96055556,0</coordinates></Point></Placemark></Document></kml>