<?xml version='1.0' encoding='utf-8'?>
<kml xmlns="http://www.opengis.net/kml/2.2">
  <Document>
    <name>萨拉戈萨 · 景点</name>
    <description>5 处公共景点，来自旅游网页的中文介绍和参考坐标。</description>
    <Placemark id="c15-s01">
      <name>萨拉戈萨 · 01 皮拉尔圣母大教堂</name>
      <description>皮拉尔圣母大教堂紧邻埃布罗河，以巨大的巴洛克建筑体量和多座穹顶构成萨拉戈萨最鲜明的天际线。它也是重要的圣母朝圣场所；从河对岸看整体，再到内部看礼拜堂与绘画，能得到更完整的印象。
建议预留：1–1.5 小时
看点：彩色穹顶、圣母相关礼拜空间，以及戈雅参与创作的壁画；河对岸适合看全景。
参观提示：可从广场进入，再沿石桥附近散步看外观；这里有持续的宗教活动，拍照和参观需服从各区域现场要求。
景点官网：https://www.spain.info/en/destination/zaragoza/
位置来源：https://en.wikipedia.org/wiki/Cathedral-Basilica_of_Our_Lady_of_the_Pillar
位置为旅行规划参考，不代表售票口或唯一入口。</description>
      <ExtendedData>
        <Data name="景点ID">
          <value>c15-s01</value>
        </Data>
        <Data name="城市">
          <value>萨拉戈萨</value>
        </Data>
        <Data name="分类">
          <value>经典景点</value>
        </Data>
        <Data name="景点官网">
          <value>https://www.spain.info/en/destination/zaragoza/</value>
        </Data>
        <Data name="位置来源">
          <value>https://en.wikipedia.org/wiki/Cathedral-Basilica_of_Our_Lady_of_the_Pillar</value>
        </Data>
      </ExtendedData>
      <Point>
        <coordinates>-0.87833333,41.65694444,0</coordinates>
      </Point>
    </Placemark>
    <Placemark id="c15-s02">
      <name>萨拉戈萨 · 02 阿尔哈费里亚宫</name>
      <description>阿尔哈费里亚宫起源于十一世纪的伊斯兰宫廷建筑，后来经历基督教君主时期的改建，因此能在同一座建筑中看到多种装饰语言。外部像堡垒，内部却有精巧的庭院与交错拱券，是理解阿拉贡地区文化交汇的关键景点。
建议预留：1–1.5 小时
看点：庭院的细密拱券、伊斯兰装饰遗存，以及后期王室空间中的木作与天花板。
参观提示：宫殿也与现代议会使用有关，参观时段和路线需提前核对；建议借助导览辨认不同建造阶段，避免把所有装饰看成同一时期。
景点官网：https://www.spain.info/en/places-of-interest/palace-aljaferia/
位置来源：https://en.wikipedia.org/wiki/Aljafer%C3%ADa
位置为旅行规划参考，不代表售票口或唯一入口。</description>
      <ExtendedData>
        <Data name="景点ID">
          <value>c15-s02</value>
        </Data>
        <Data name="城市">
          <value>萨拉戈萨</value>
        </Data>
        <Data name="分类">
          <value>经典景点</value>
        </Data>
        <Data name="景点官网">
          <value>https://www.spain.info/en/places-of-interest/palace-aljaferia/</value>
        </Data>
        <Data name="位置来源">
          <value>https://en.wikipedia.org/wiki/Aljafer%C3%ADa</value>
        </Data>
      </ExtendedData>
      <Point>
        <coordinates>-0.89675,41.656472,0</coordinates>
      </Point>
    </Placemark>
    <Placemark id="c15-s03">
      <name>萨拉戈萨 · 03 救世主主教座堂</name>
      <description>救世主主教座堂又称 La Seo，坐落在多种宗教建筑曾经使用过的位置，整体融合罗马式、哥特式、穆德哈尔及后期元素。它与附近的皮拉尔大教堂风格不同，尤其适合对建筑细节和装饰材料感兴趣的游客。
建议预留：1–1.5 小时
看点：外墙的穆德哈尔砖与瓷砖装饰、内部礼拜堂，以及馆藏佛兰德挂毯。
参观提示：与皮拉尔大教堂距离近，可并排比较两者风格；想看挂毯馆时，购票前确认参观项目及开放区域。
景点官网：https://www.spain.info/en/destination/zaragoza/
位置来源：https://en.wikipedia.org/wiki/Cathedral_of_the_Savior_of_Zaragoza
位置为旅行规划参考，不代表售票口或唯一入口。</description>
      <ExtendedData>
        <Data name="景点ID">
          <value>c15-s03</value>
        </Data>
        <Data name="城市">
          <value>萨拉戈萨</value>
        </Data>
        <Data name="分类">
          <value>经典景点</value>
        </Data>
        <Data name="景点官网">
          <value>https://www.spain.info/en/destination/zaragoza/</value>
        </Data>
        <Data name="位置来源">
          <value>https://en.wikipedia.org/wiki/Cathedral_of_the_Savior_of_Zaragoza</value>
        </Data>
      </ExtendedData>
      <Point>
        <coordinates>-0.87585,41.65456,0</coordinates>
      </Point>
    </Placemark>
    <Placemark id="c15-s04">
      <name>萨拉戈萨 · 04 巴勃罗·加尔加略博物馆（重开后备选）</name>
      <description>在阿尔吉略宫内看雕塑家加尔加略的作品、纸板模型与创作过程，能把传统宫邸建筑和现代雕塑连在一起。但市政府官网目前仍显示因设施与无障碍改造临时闭馆，不能作为这次途中一晚的确定安排。
建议预留：重开后建议预留 1–1.5 小时
看点：重开后可关注金属雕塑的空与实、模型和成品的关系；馆址是历史宫殿，不是雕塑家的原宅。
参观提示：截至本次核对官方仍显示闭馆，待确认 2027 日期开放后再选。当前行程仍以皮拉尔圣母大教堂、阿尔哈费里亚宫为主。
景点官网：https://www.zaragoza.es/sede/portal/museos/pablo-gargallo/
位置来源：https://es.wikipedia.org/wiki/Museo_Pablo_Gargallo
位置为旅行规划参考，不代表售票口或唯一入口。</description>
      <ExtendedData>
        <Data name="景点ID">
          <value>c15-s04</value>
        </Data>
        <Data name="城市">
          <value>萨拉戈萨</value>
        </Data>
        <Data name="分类">
          <value>美术馆</value>
        </Data>
        <Data name="景点官网">
          <value>https://www.zaragoza.es/sede/portal/museos/pablo-gargallo/</value>
        </Data>
        <Data name="位置来源">
          <value>https://es.wikipedia.org/wiki/Museo_Pablo_Gargallo</value>
        </Data>
      </ExtendedData>
      <Point>
        <coordinates>-0.882406,41.6548,0</coordinates>
      </Point>
    </Placemark>
    <Placemark id="c15-s05">
      <name>萨拉戈萨 · 05 凯撒奥古斯塔罗马剧场博物馆</name>
      <description>现代城市街区中保存的罗马剧场遗址，可与展厅一起理解古代演出、建筑结构和萨拉戈萨的罗马起源。它是皮拉尔大教堂之外的另一条城市历史线。
建议预留：1–1.5 小时
看点：剧场遗址与解释展示；可选同属罗马路线的论坛、浴场和河港博物馆。
参观提示：四馆联票与单馆票不同；一段中转停留不必把四馆全部排满。
景点官网：https://www.zaragoza.es/sede/portal/museos/teatro/
位置来源：https://es.wikipedia.org/wiki/Teatro_romano_de_Zaragoza
位置为旅行规划参考，不代表售票口或唯一入口。</description>
      <ExtendedData>
        <Data name="景点ID">
          <value>c15-s05</value>
        </Data>
        <Data name="城市">
          <value>萨拉戈萨</value>
        </Data>
        <Data name="分类">
          <value>历史与考古</value>
        </Data>
        <Data name="景点官网">
          <value>https://www.zaragoza.es/sede/portal/museos/teatro/</value>
        </Data>
        <Data name="位置来源">
          <value>https://es.wikipedia.org/wiki/Teatro_romano_de_Zaragoza</value>
        </Data>
      </ExtendedData>
      <Point>
        <coordinates>-0.877658,41.652172,0</coordinates>
      </Point>
    </Placemark>
  </Document>
</kml>