<?xml version='1.0' encoding='utf-8'?>
<kml xmlns="http://www.opengis.net/kml/2.2">
  <Document>
    <name>赫罗纳 · 景点</name>
    <description>4 处公共景点，来自旅游网页的中文介绍和参考坐标。</description>
    <Placemark id="c16-s01">
      <name>赫罗纳 · 01 赫罗纳大教堂</name>
      <description>赫罗纳大教堂坐落在老城高处，宽阔台阶把街巷与庄严立面连接起来。建筑结合了不同时期的结构与装饰，内部尤其以宽大的哥特式中殿著称；馆藏艺术则让参观从看建筑延伸到理解中世纪宗教图像。
建议预留：1–1.5 小时
看点：大台阶与立面、宽阔的单中殿，以及馆藏《创世挂毯》；依实际开放展区参观。
参观提示：老城石阶较多，可先上行到大教堂，再顺坡逛犹太区；登上台阶拍外观与购票进入教堂是两种不同的安排。
景点官网：https://www.spain.info/en/destination/girona/
位置来源：https://en.wikipedia.org/wiki/Girona_Cathedral
位置为旅行规划参考，不代表售票口或唯一入口。</description>
      <ExtendedData>
        <Data name="景点ID">
          <value>c16-s01</value>
        </Data>
        <Data name="城市">
          <value>赫罗纳</value>
        </Data>
        <Data name="分类">
          <value>经典景点</value>
        </Data>
        <Data name="景点官网">
          <value>https://www.spain.info/en/destination/girona/</value>
        </Data>
        <Data name="位置来源">
          <value>https://en.wikipedia.org/wiki/Girona_Cathedral</value>
        </Data>
      </ExtendedData>
      <Point>
        <coordinates>2.82638889,41.9875,0</coordinates>
      </Point>
    </Placemark>
    <Placemark id="c16-s02">
      <name>赫罗纳 · 02 奥尼亚尔河彩色房屋</name>
      <description>奥尼亚尔河两岸的彩色房屋是赫罗纳最直观的城市名片，黄、橙、红等立面沿水面连续排列。这里的重点不在某一栋房子，而在河道、桥梁、建筑与远处教堂共同组成的层次，适合边走边比较不同桥上的画面。
建议预留：30–45 分钟
看点：各座跨河桥上的彩色房屋倒影，以及铁桥结构框住老城的视角。
参观提示：选两三座桥串联即可，晴天与阴天各有色彩变化；多数沿河建筑仍有实际用途，拍照以公共桥面和步道为主。
景点官网：https://www.spain.info/en/destination/girona/
位置来源：https://es.wikipedia.org/wiki/Casas_del_O%C3%B1ar
位置为旅行规划参考，不代表售票口或唯一入口。</description>
      <ExtendedData>
        <Data name="景点ID">
          <value>c16-s02</value>
        </Data>
        <Data name="城市">
          <value>赫罗纳</value>
        </Data>
        <Data name="分类">
          <value>经典景点</value>
        </Data>
        <Data name="景点官网">
          <value>https://www.spain.info/en/destination/girona/</value>
        </Data>
        <Data name="位置来源">
          <value>https://es.wikipedia.org/wiki/Casas_del_O%C3%B1ar</value>
        </Data>
      </ExtendedData>
      <Point>
        <coordinates>2.82402,41.9844,0</coordinates>
      </Point>
    </Placemark>
    <Placemark id="c16-s03">
      <name>赫罗纳 · 03 犹太区与古城墙</name>
      <description>赫罗纳犹太区由紧密的石巷、台阶和庭院组成，保存了历史社区的空间气氛；古城墙则把视线从巷道抬升到屋顶和远山。先在街区内走，再到城墙看整体，可以把老城的细节与格局联系起来。
建议预留：1.5–2 小时；入馆另留时间
看点：Força 街周边的石巷、犹太历史相关场馆，以及城墙步道上的屋顶全景。
参观提示：城墙有台阶和起伏，按体力选择一段即可；如想了解犹太社区历史，可加入博物馆，不必只把街区当作拍照背景。
景点官网：https://www.spain.info/en/destination/girona/
位置来源：https://es.wikipedia.org/wiki/Barrio_jud%C3%ADo_de_Gerona
位置为旅行规划参考，不代表售票口或唯一入口。</description>
      <ExtendedData>
        <Data name="景点ID">
          <value>c16-s03</value>
        </Data>
        <Data name="城市">
          <value>赫罗纳</value>
        </Data>
        <Data name="分类">
          <value>经典景点</value>
        </Data>
        <Data name="景点官网">
          <value>https://www.spain.info/en/destination/girona/</value>
        </Data>
        <Data name="位置来源">
          <value>https://es.wikipedia.org/wiki/Barrio_jud%C3%ADo_de_Gerona</value>
        </Data>
      </ExtendedData>
      <Point>
        <coordinates>2.82555556,41.98611111,0</coordinates>
      </Point>
    </Placemark>
    <Placemark id="c16-s04">
      <name>赫罗纳 · 04 赫罗纳电影博物馆</name>
      <description>从影戏、光学玩具和早期影像装置走到电影诞生，展示人们如何让静止图像动起来。它补充了赫罗纳中世纪街巷之外的影像艺术与技术文化。
建议预留：1–1.5 小时
看点：电影诞生前的光学装置、早期放映技术及 Tomàs Mallol 收藏。
参观提示：常设展示和临时展分开查看；开放语言与可体验装置以馆方安排为准。
景点官网：https://museudelcinema.girona.cat/eng/
位置来源：https://en.wikipedia.org/wiki/Cinema_Museum_(Girona)
位置为旅行规划参考，不代表售票口或唯一入口。</description>
      <ExtendedData>
        <Data name="景点ID">
          <value>c16-s04</value>
        </Data>
        <Data name="城市">
          <value>赫罗纳</value>
        </Data>
        <Data name="分类">
          <value>地方文化</value>
        </Data>
        <Data name="景点官网">
          <value>https://museudelcinema.girona.cat/eng/</value>
        </Data>
        <Data name="位置来源">
          <value>https://en.wikipedia.org/wiki/Cinema_Museum_(Girona)</value>
        </Data>
      </ExtendedData>
      <Point>
        <coordinates>2.82222222,41.98361111,0</coordinates>
      </Point>
    </Placemark>
  </Document>
</kml>