<?xml version="1.0" encoding="UTF-8"?><kml xmlns="http://www.opengis.net/kml/2.2"><Document><name>西班牙城市与推荐景点</name><description>中文城市与景点名称、简介和参考坐标；不含个人行程或住宿信息。</description><Placemark><name>阿利坎特 · 01 圣巴巴拉城堡</name><description>圣巴巴拉城堡占据贝纳坎蒂尔山顶，是阿利坎特城市与海岸之间最醒目的制高点。城堡经历不同阶段扩建，沿平台和城墙移动时，能看见旧城区、港口与海滩逐步展开，也能理解这处高地的防御价值。
建议预留：1–1.5 小时；步行上山另计
看点：不同高度的城堡平台、城墙轮廓，以及向下俯瞰波斯蒂盖海滩和港口的视野。
参观提示：可按体力选择步行或查询电梯等上山方式；山顶遮阴较少，安排好饮水与休息，再下山接老城散步。
景点官网：https://www.spain.info/en/destination/alicante-alacant/
位置来源：https://en.wikipedia.org/wiki/Santa_B%C3%A0rbara_Castle
位置为旅行规划参考，不代表售票口或唯一入口。</description><ExtendedData><Data name="城市"><value>阿利坎特</value></Data><Data name="分类"><value>经典景点</value></Data></ExtendedData><Point><coordinates>-0.47805556,38.34888889,0</coordinates></Point></Placemark><Placemark><name>阿利坎特 · 02 西班牙滨海步道</name><description>西班牙滨海步道沿港口展开，以红、白、黑相间的波浪纹地面和棕榈树列形成鲜明印象。它不是需要购票进入的单一景点，而是一段适合放慢脚步的城市公共空间，可以把港口、街边建筑与沿途休息串在一起。
建议预留：30–60 分钟
看点：起伏错觉般的马赛克铺地、棕榈树影，以及港口方向的城市景观。
参观提示：适合在城堡或老城游览后经过，顺便安排咖啡与晚餐；拍地面图案时注意给行人留出通道。
景点官网：https://www.spain.info/en/destination/alicante-alacant/
位置来源：https://es.wikipedia.org/wiki/Paseo_de_la_Explanada
位置为旅行规划参考，不代表售票口或唯一入口。</description><ExtendedData><Data name="城市"><value>阿利坎特</value></Data><Data name="分类"><value>经典景点</value></Data></ExtendedData><Point><coordinates>-0.483251,38.343349,0</coordinates></Point></Placemark><Placemark><name>阿利坎特 · 03 波斯蒂盖海滩</name><description>波斯蒂盖海滩紧靠市中心和城堡山脚，让阿利坎特的历史景点与海边休闲可以轻松连接。与需要专门开车前往的度假海滩相比，它更适合短时间停留：沿水边走一段、回望山顶城堡，再继续城市行程。
建议预留：1–2 小时
看点：沙滩与圣巴巴拉城堡同框的视角、海边步道及港区附近的开阔景色。
参观提示：可与滨海步道合并成一段轻松路线；四月按当天海风和体感决定停留时长，无需为了下水打乱整体安排。
景点官网：https://www.spain.info/en/destination/alicante-alacant/
位置来源：https://es.wikipedia.org/wiki/Playa_del_Postiguet
位置为旅行规划参考，不代表售票口或唯一入口。</description><ExtendedData><Data name="城市"><value>阿利坎特</value></Data><Data name="分类"><value>经典景点</value></Data></ExtendedData><Point><coordinates>-0.47588,38.34658,0</coordinates></Point></Placemark></Document></kml>