<?xml version="1.0" encoding="UTF-8"?><kml xmlns="http://www.opengis.net/kml/2.2"><Document><name>西班牙城市与推荐景点</name><description>中文城市与景点名称、简介和参考坐标；不含个人行程或住宿信息。</description><Placemark><name>龙达 · 01 龙达新桥</name><description>龙达新桥跨越陡峭的埃尔塔霍峡谷，连接被河谷分开的城市两侧。“新桥”是相对于城中更早的桥而言，厚重石桥与垂直崖壁共同构成龙达最鲜明的景观。站在桥面看深谷，与从侧面看整座桥，是两种不同的体验。
建议预留：桥面与附近观景点约 45–60 分钟
看点：桥下峡谷、桥头观景位置，以及从周边步道看到的桥体与悬崖组合。
参观提示：先从城内的正规观景点看桥；若想下行找角度，要另留往返时间，并按当日步道开放情况选择路线。
景点官网：https://www.spain.info/en/destination/ronda/
位置来源：https://en.wikipedia.org/wiki/Puente_Nuevo
位置为旅行规划参考，不代表售票口或唯一入口。</description><ExtendedData><Data name="城市"><value>龙达</value></Data><Data name="分类"><value>经典景点</value></Data></ExtendedData><Point><coordinates>-5.16590278,36.74074722,0</coordinates></Point></Placemark><Placemark><name>龙达 · 02 龙达斗牛场</name><description>龙达斗牛场以圆形竞技场、砂色地面和连续拱廊见长，是了解当地斗牛传统与建筑类型的历史场所。即使对表演本身兴趣不大，也能从看台的环形布局、进出通道和展览中理解这项活动曾怎样影响城市文化。
建议预留：45–75 分钟
看点：环绕场地的石柱拱廊、看台对称感，以及馆内有关历史和服饰的展示。
参观提示：常规建筑参观不等于观看斗牛表演；按个人兴趣选择是否入内，入场前核对当天开放的展区与场地。
景点官网：https://www.spain.info/en/destination/ronda/
位置来源：https://en.wikipedia.org/wiki/Plaza_de_Toros_de_Ronda
位置为旅行规划参考，不代表售票口或唯一入口。</description><ExtendedData><Data name="城市"><value>龙达</value></Data><Data name="分类"><value>经典景点</value></Data></ExtendedData><Point><coordinates>-5.167067,36.742361,0</coordinates></Point></Placemark><Placemark><name>龙达 · 03 阿拉伯浴场</name><description>龙达阿拉伯浴场位于老城较低处，保留了中世纪公共浴场的主要空间结构。它展示的不是奢华宫廷，而是清洁、社交和用水技术如何组成城市日常；进入低矮拱顶下，更容易理解冷、温、热不同房间之间的关系。
建议预留：30–45 分钟
看点：砖石拱券、星形采光孔，以及帮助理解供水和加热方式的遗迹。
参观提示：从新桥和老城下行到这里会有坡度，回程也需留体力；可与老桥一带合并，避免为一个小景点单独多次上下山。
景点官网：https://www.spain.info/en/destination/ronda/
位置来源：https://es.wikipedia.org/wiki/Ba%C3%B1os_%C3%A1rabes_de_Ronda
位置为旅行规划参考，不代表售票口或唯一入口。</description><ExtendedData><Data name="城市"><value>龙达</value></Data><Data name="分类"><value>经典景点</value></Data></ExtendedData><Point><coordinates>-5.16279163,36.73888728,0</coordinates></Point></Placemark></Document></kml>